OBJECTID,NYCEM_ID,FACILITY_NAME,ADDRESS,BOROUGH,ZIP_CODE,PHONE,HANDICAP_ACCESS,EXTENDED_HOURS,STATUS,Monday,Tuesday,Wednesday,Thursday,Friday,Saturday,Sunday,X,Y,FACILITY_TYPE,Entrance_info
1,CC912,Millennium High School,75 BROAD STREET,Manhattan,10004,,No,Hours may be extended during a heat emergency.,OPEN,8a-6p,8a-6p,8a-6p,8a-6p,8a-6p,,,981134.0,196012.0,School,
2,CC510,City Hall NSC,100 Gold St,Manhattan,10038,(212) 788-5580,Yes,Hours may be extended during a heat emergency.,OPEN,8a-5p,8a-5p,8a-5p,8a-5p,8a-5p,,,983351.000146,197988.000071,Senior center,"Basement, pass security then take elev."
3,CC885,Manhattan Early College School for Advertising,411 PEARL STREET,Manhattan,10038,,No,Hours may be extended during a heat emergency.,OPEN,8a-6p,8a-6p,8a-6p,8a-6p,8a-6p,,,983791.0,198419.0,School,
4,CC794,P.S. 130 Hernando De Soto,143 BAXTER STREET,Manhattan,10013,,No,Hours may be extended during a heat emergency.,OPEN,8a-6p,8a-6p,8a-6p,8a-6p,8a-6p,,,984714.0,201103.0,School,
5,CC636,Two Bridges Community Center,286 South St.,Manhattan,10002,(212) 385-9352,Yes,Hours may be extended during a heat emergency.,OPEN,6p-10p,6p-10p,6p-10p,6p-10p,6p-10p,10a-5p,,988071.611111,198252.89357,Cornerstone Program,
6,CC362,LaGuardia NSC,280 Cherry St,Manhattan,10002,(212) 732-3656,No,No,OPEN,8:30a-4:30p,8:30a-4:30p,8:30a-4:30p,8:30a-4:30p,8:30a-4:30p,,,987408.999904,198534.999961,Senior center,
7,CC215,Chatham Square Library,33 East Broadway,Manhattan,10002,(212) 964-6598,Yes,No,OPEN,10a-8p,10a-8p,10a-8p,10a-8p,10a-6p,10a-5p,,985222.0,199149.0,Library,
8,CC795,P.S. 134 Henrietta Szold,293 EAST BROADWAY,Manhattan,10002,,No,Hours may be extended during a heat emergency.,OPEN,8a-6p,8a-6p,8a-6p,8a-6p,8a-6p,,,988953.0,199534.0,School,
9,CC120,Seward Park Library,192 East Broadway,Manhattan,10002,(212) 477-6770,Yes,No,OPEN,10a-8p,10a-8p,10a-8p,10a-8p,10a-5p,10a-5p,,987428.0,199577.0,Library,
10,CC361,Weinberg Neighborhood NSC,197 East Broadway ,Manhattan,10002,(646) 395-4270,Yes,Hours may be extended during a heat emergency.,OPEN,8a-4p,8a-4p,8a-4p,8a-4p,8a-4p,,,987481.408223,199396.696401,Senior center,6th floor
11,CC123,Hamilton Fish Park Library,415 East Houston St,Manhattan,10002,(212) 673-2290,Yes,No,OPEN,10a-7p,11a-7p,10a-7p,11a-7p,10a-5p,10a-5p,,989954.557932,201509.875429,Library,
12,CC265,UJC Adult Luncheon Club NSC,15-17 Bialystoker Pl,Manhattan,10002,(212) 673-9328,Yes,No,OPEN,8a-5p,8a-5p,8a-5p,8a-5p,8a-3p,,,988876.99992,200069.999844,Senior center,
14,CC831,Marta Valle High School,145 STANTON STREET,Manhattan,10002,,No,Hours may be extended during a heat emergency.,OPEN,8a-6p,8a-6p,8a-6p,8a-6p,8a-6p,,,988119.0,201606.0,School,
15,CC122,Tompkins Square Library,331 E 10 St,Manhattan,10009,(212) 228-4747,Yes,No,OPEN,11a-7p,11a-7p,11a-7p,11a-7p,10a-6p,10a-5p,,989659.0,204226.0,Library,
16,CC360,University Settlement NSC,189 Allen St,Manhattan,10002,(212) 473-8217,No,Hours may be extended during a heat emergency.,OPEN,8a-5p,8a-5p,8a-5p,8a-5p,8a-5p,9a-1p,,987156.000082,202421.000063,Senior center,
17,CC264,John Paul II Friendship NSC,103 E 7 St,Manhattan,10009,(212) 673-7704,Yes,No,OPEN,8a-4p,8a-4p,8a-4p,8a-4p,8a-4p,,,988486.000046,204065.000056,Senior center,
18,CC473,Sirovich NSC,331 E 12 St,Manhattan,10003,(646) 395-4534,Yes,No,OPEN,8a-8p,8a-8p,8a-8p,8a-8p,8a-8p,9a-3p,,988600.000146,205450.999909,Senior center,
19,CC474,Mott Street NSC,180 Mott St,Manhattan,10012,(212) 966-5460,Yes,No,OPEN,8a-4p,8a-4p,8a-4p,8a-4p,8a-4p,,,985461.999861,201791.000011,Senior center,
20,CC263,Mulberry Street Library,10 Jersey St,Manhattan,10012,(212) 966-3424,Yes,No,OPEN,11a-7p,10a-7p,11a-7p,10a-7p,10a-5p,10a-5p,,985427.0,203065.0,Library,
21,CC412,Center on the Square NSC,20 Washington Square North,Manhattan,10011,(212) 777-3555,Yes,Hours may be extended during a heat emergency.,OPEN,9a-4:45p,9a-4:45p,9a-4:45p,9a-4:45p,9a-4:45p,,,984905.999988,205984.000155,Senior center,
22,CC459,Hudson Park Library,66 Leroy St,Manhattan,10014,(212) 243-6876,No,No,OPEN,10a-8p,10a-8p,10a-8p,10a-8p,10a-5p,10a-5p,,982769.0,205187.0,Library,
23,CC891,P.S. 003 Charrette School,490 HUDSON STREET,Manhattan,10014,,No,Hours may be extended during a heat emergency.,OPEN,8a-6p,8a-6p,8a-6p,8a-6p,8a-6p,,,982595.0,206185.0,School,
24,CC110,Our Lady of Pompeii NSC,25 Carmine St,Manhattan,10014,(212) 989-3620,Yes,No,OPEN,9a-5p,9a-5p,9a-5p,9a-5p,9a-5p,,,983444.999958,205440.999929,Senior center,Entrance on Carmine St.
25,CC109,Judith C White NSC,27 Barrow St ,Manhattan,10014,(212) 242-4140,No,No,OPEN,8a-4p,8a-4p,8a-4p,8a-4p,8a-4p,,,983392.000064,206079.999963,Senior center,4th floor
26,CC433,New York Temple Corps Comm Center,132 W 14 St,Manhattan,10011,(212) 337-7469,Yes,Hours may be extended during a heat emergency.,OPEN,9a-4p,9a-4p,9a-4p,9a-4p,,,,984627.0,208077.0,Community center,
27,CC776,Hudson Guild NSC,441 W 26 St,Manhattan,10011,212-924-6710,Yes,No,OPEN,8:30a-5:30p,8:30a-5:30p,8:30a-5:30p,8:30a-5:30p,8:30a-5:30p,,,983843.0,212392.0,Senior center,
28,CC244,Muhlenberg Library,209 W 23 St,Manhattan,10011,(212) 924-1585,Yes,No,OPEN,10a-7p,10a-7p,10a-7p,10a-7p,10a-6p,10a-5p,,985368.0,210525.0,Library,
29,CC856,The High School of Fashion Industries,225 WEST  24 STREET,Manhattan,10001,,No,Hours may be extended during a heat emergency.,OPEN,8a-6p,8a-6p,8a-6p,8a-6p,8a-6p,,,985259.0,210946.0,School,
30,CC778,Visions ISC,135 W 23 St,Manhattan,10011,646-486-4444,Yes,No,OPEN,9a-7p,9a-7p,9a-7p,9a-7p,9a-5p,,,985869.0,210255.0,Senior center,
31,CC001,Sage ISC,305 7th Ave ,Manhattan,10001,(646) 576-8669,Yes,No,OPEN,11a-8p,11a-8p,11a-8p,11a-8p,11a-8p,11a-6p,,986083.999929,211301.00002,Senior center,15th floor.
32,CC047,Mid-Manhattan Library,455 5 Av,Manhattan,10016,(212) 340-0863,Yes,No,OPEN,8a-8p,8a-9p,8a-9p,8a-8p,8a-6p,10a-6p,10a-5p,989358.0,213165.0,Library,
33,CC261,Kips Bay Library,446 3 Av,Manhattan,10016,(212) 683-2520,Yes,No,OPEN,10a-6p,10a-6p,10a-6p,10a-6p,10a-6p,10a-5p,,989811.0,210266.0,Library,
34,CC043,Epiphany Library,228 E 23 St,Manhattan,10010,(212) 679-2645,No,No,OPEN,12p-7p,10a-6p,12p-7p,10a-6p,10a-5p,10a-5p,,989218.0,208168.0,Library,
35,CC262,Stein Neighborhood NSC,204 E 23 St,Manhattan,10010,(646) 395-8083,Yes,Hours may be extended during a heat emergency.,OPEN,8:30a-4:30p,8:30a-4:30p,8:30a-4:30p,8:30a-4:30p,8:30a-4:30p,,,989032.999936,208278.00016,Senior center,
36,CC793,The 47 American Sign Language & English Lower School,223 EAST 23 STREET,Manhattan,10010,,No,Hours may be extended during a heat emergency.,OPEN,8a-6p,8a-6p,8a-6p,8a-6p,8a-6p,,,989416.0,208326.0,School,
37,CC004,Project Find Woodstock NSC,127 W 43 St,Manhattan,10036,(212) 575-0693,Yes,Hours may be extended during a heat emergency.,OPEN,8:30a-5p,8:30a-5p,12p-1p,8:30a-5p,8:30a-5p,8:30a-5p,8:30a-5p,988459.573262,214783.9527,Senior center,
38,CC093,Encore NSC,239 W 49 St,Manhattan,10019,(212) 581-2910,Yes,Hours may be extended during a heat emergency.,OPEN,8:30a-4p,8:30a-4p,8:30a-4p,8:30a-4p,8:30a-4p,,,988232.999896,216707.000035,Senior center,
39,CC872,I.S. 17 - MANHATTAN,328 WEST 48 STREET,Manhattan,10036,,No,Hours may be extended during a heat emergency.,OPEN,8a-6p,8a-6p,8a-6p,8a-6p,8a-6p,,,987389.0,216648.0,School,
40,CC870,P.S. 35,317 WEST 52 STREET,Manhattan,10019,,No,Hours may be extended during a heat emergency.,OPEN,8a-6p,8a-6p,8a-6p,8a-6p,8a-6p,,,988151.0,217693.0,School,
41,CC091,Columbus Library,742 10 Av,Manhattan,10019,(212) 586-5098,Yes,No,OPEN,10a-7p,10a-7p,10a-7p,10a-7p,10a-5p,10a-5p,,986649.0,217970.0,Library,
42,CC034,Project Find Clinton NSC,530 W 55 St,Manhattan,10019,(212) 580-0888,Yes,No,OPEN,8a-5p,8a-5p,8a-5p,8a-5p,8a-5p,,,986733.999941,219096.999848,Senior center,
43,CC463,Find Aid ISC,141 W 73 St,Manhattan,10023,(212) 787-7710,Yes,Hours may be extended during a heat emergency.,OPEN,9a-7p,9a-7p,9a-7p,9a-7p,9a-7p,,9a-5p,989858.999925,223072.0001,Senior center,
44,CC641,JASA Club 76 NSC,120 W 76 St,Manhattan,10023,(212) 712-0170,Yes,Hours may be extended during a heat emergency.,OPEN,8a-4p,8a-4p,8a-4p,8a-4p,8a-4p,,,990365.146222,223531.508367,Senior center,
45,CC250,West 65 Street NSC,250 W 65 St,Manhattan,10023,(212) 874-0860,Yes,No,OPEN,8a-4p,8a-4p,8a-4p,8a-4p,8a-4p,,,987865.148926,221555.394865,Senior center,
46,CC792,P.S. 009 Sarah Anderson,100 WEST  84 STREET,Manhattan,10024,,No,Hours may be extended during a heat emergency.,OPEN,8a-6p,8a-6p,8a-6p,8a-6p,8a-6p,,,991401.0,225368.0,School,
47,CC083,St Agnes Library,444 Amsterdam Av,Manhattan,10024,(212) 621-0619,Yes,No,OPEN,10a-6p,10a-7p,10a-7p,10a-7p,10a-6p,10a-5p,,990497.136721,225212.324883,Library,
48,CC003,Stephen A Schwarzman Building,476 5 Av,Manhattan,10018,(917) 275-6975,Yes,No,OPEN,10a-6p,10a-8p,10a-8p,10a-6p,10a-6p,10a-6p,1p-4:45p,989169.79986,213685.564148,Library,
49,CC584,53rd Street,18 West 53 St,Manhattan,10019,(212) 714-8400,Yes,No,OPEN,11a-6p,11a-6p,11a-6p,11a-6p,11a-6p,11a-6p,,990525.853906,216463.939169,Library,
50,CC046,Grand Central Library,135 E 46 St,Manhattan,10017,(212) 621-0670,Yes,No,OPEN,10a-8p,10a-8p,10a-8p,10a-8p,10a-6p,10a-5p,,991597.263838,213973.309555,Library,
51,CC525,Terence Cardinal Cooke-Cathedral Library,560 Lexington Av,Manhattan,10022,(212) 752-3824,No,No,OPEN,10a-6p,10a-6p,10a-6p,10a-6p,10a-5p,,,991830.0,215022.0,Library,
52,CC472,Lenox Hill NSC,619 Lexington Av,Manhattan,10022,(212) 308-1959,Yes,Hours may be extended during a heat emergency.,OPEN,9a-4p,9a-4p,9a-4p,9a-4p,9a-4p,,,992566.000088,215567.000018,Senior center,Basement enter 54th St or Lex. Ave
53,CC094,Fifty Eighth Street Library,127 E 58 St,Manhattan,10022,(212) 759-7358,Yes,No,OPEN,10a-6p,10a-6p,10a-6p,10a-6p,10a-5p,10a-5p,,992745.0,216937.0,Library,
54,CC116,Yorkville Library,222 E 79 St,Manhattan,10021,(212) 744-5824,No,No,OPEN,11a-7p,10a-6p,11a-7p,10a-6p,10a-5p,10a-5p,,996317.0,221122.0,Library,
55,CC260,Sixty-Seventh Street Library,328 E 67 St,Manhattan,10065,(212) 734-1717,Yes,No,OPEN,11a-7p,11a-7p,11a-7p,11a-7p,10a-5p,10a-5p,,995450.0,217951.0,Library,
56,CC469,Lenox Hill ISC,343 E 70 St,Manhattan,10021,(212) 744-5905,Yes,No,OPEN,8a-8p,8a-8p,8a-8p,8a-8p,8a-8p,,,996115.999878,218655.000076,Senior center,
57,CC468,Carter Burden Luncheon Club NSC,351 E 74 St,Manhattan,10021,(212) 535-5235,No,Hours may be extended during a heat emergency.,OPEN,9a-5p,9a-5p,9a-5p,9a-5p,9a-5p,,,996574.999944,219652.00005,Senior center,
58,CC464,Webster Library,1465 York Av,Manhattan,10021,(212) 288-5049,Yes,No,OPEN,11a-7p,11a-7p,11a-7p,11a-7p,10a-5p,10a-5p,,997718.0,220048.0,Library,
59,CC117,Ninety Sixth Street Library,112 E 96 St,Manhattan,10128,(212) 289-0908,Yes,No,OPEN,10a-7p,10a-7p,10a-7p,10a-7p,10a-5p,10a-5p,,997606.0,225653.0,Library,
60,CC113,Canaan NSC,160 W 116 St,Manhattan,10026,(212) 876-2638,Yes,No,OPEN,9a-5p,9a-5p,9a-5p,9a-5p,9a-5p,,,997557.747323,231721.315806,Senior center,
61,CC835,I.S. 13 - MANHATTAN,1573 MADISON AVENUE,Manhattan,10029,,No,Hours may be extended during a heat emergency.,OPEN,8a-6p,8a-6p,8a-6p,8a-6p,8a-6p,,,998513.0,228428.0,School,
62,CC838,P.S. 108 Assemblyman Angelo Del Toro Educational Complex,1615 MADISON AVENUE,Manhattan,10029,,No,Hours may be extended during a heat emergency.,OPEN,8a-6p,8a-6p,8a-6p,8a-6p,8a-6p,,,998688.0,228933.0,School,
63,CC524,Aguilar Library,174 E 110 St,Manhattan,10029,(212) 534-2930,Yes,No,OPEN,10a-6p,10a-6p,10a-6p,10a-6p,10a-5p,10a-5p,,999900.0,228619.0,Library,
64,CC335,Harlem Library,9 W 124 St,Manhattan,10027,(212) 348-5620,Yes,No,OPEN,11a-7p,11a-7p,11a-7p,11a-7p,10a-5p,10a-5p,,999942.0,233007.0,Library,
65,CC084,Harlem Temple Corps Comm Center,540 Lenox Av,Manhattan,10037,(212) 862-3900,Yes,Hours may be extended during a heat emergency.,OPEN,9a-5p,9a-5p,9a-5p,9a-5p,9a-5p,,,1001043.0,236409.0,Community center,
66,CC851,The Urban Assembly School for Global Commerce,2005 MADISON AVENUE,Manhattan,10035,,No,Hours may be extended during a heat emergency.,OPEN,8a-6p,8a-6p,8a-6p,8a-6p,8a-6p,,,1001216.0,233301.0,School,
67,CC357,E Harlem Cncl Nutrition Program NSC,150 E 121 St,Manhattan,10035,(212) 722-2205,Yes,Hours may be extended during a heat emergency.,OPEN,9a-5p,9a-5p,9a-5p,9a-5p,9a-5p,,,1001089.0001,231236.999846,Senior center,
68,CC085,Manhattan Citadel Corps Comm Center,145 E 125 St,Manhattan,10035,(212) 860-3200,Yes,Hours may be extended during a heat emergency.,OPEN,8a-3:30p,8a-3:30p,8a-3:30p,8a-3:30p,8a-3:30p,,,1001686.21048,232397.756994,Community center,
69,CC255,Beatrice Lewis NSC,2322 3 Av,Manhattan,10035,(212) 289-9155,Yes,No,OPEN,9a-5p,9a-5p,9a-5p,9a-5p,9a-5p,,,1002096.00006,232517.999909,Senior center,
70,CC253,Robinson,110 E 129 St,Manhattan,10035,(646) 476-4088,Yes,Hours may be extended during a heat emergency.,OPEN,10a-6p,10a-6p,10a-6p,10a-6p,10a-6p,10a-5p,,1001804.0,233237.0,Cornerstone Program,
71,CC337,One Hundred Twenty-fifth St Library,224 E 125 St,Manhattan,10035,(212) 534-5050,Yes,No,OPEN,11a-7p,11a-7p,11a-7p,11a-7p,10a-5p,10a-5p,,1002276.0,231831.0,Library,
72,CC853,Wadleigh Secondary School for the Performing & Visual Arts,215 WEST 114 STREET,Manhattan,10026,,No,Hours may be extended during a heat emergency.,OPEN,8a-6p,8a-6p,8a-6p,8a-6p,8a-6p,,,996942.0,231693.0,School,
73,CC355,One Hundred Fifteenth St Library,203 W 115 St,Manhattan,10026,(212) 666-9393,Yes,No,OPEN,11a-7p,11a-7p,11a-7p,11a-7p,10a-5p,10a-5p,,997118.0,231824.0,Library,
74,CC042,Food Bank Neighborhood Senior Center,252 W 116 St,Manhattan,10026,(212) 566-7855,Yes,No,OPEN,9a-3p,9a-3p,9a-3p,9a-3p,9a-3p,,,996710.000002,232179.999928,Senior center,
75,CC251,Bloomingdale Library,150 W 100 St,Manhattan,10025,(212) 222-8030,Yes,No,OPEN,10a-7p,10a-7p,11a-7p,11a-7p,10a-5p,10a-5p,,993159.710236,229257.107389,Library,
76,CC461,The Center at the Red Oak NSC,135 W 106 St,Manhattan,10025,(212) 749-7015,Yes,Hours may be extended during a heat emergency.,OPEN,8:30a-4p,8:30a-4p,8:30a-4p,8:30a-4p,8:30a-4p,,,994165.999841,230836.99999,Senior center,
77,CC112,Morningside Heights Library,2900 Broadway,Manhattan,10025,(212) 864-2530,Yes,No,OPEN,10a-6p,10a-6p,10a-6p,10a-6p,10a-6p,10a-5p,,993997.0,232947.0,Library,
78,CC336,Countee Cullen Library,104 W 136 St,Manhattan,10030,(212) 491-2070,Yes,No,OPEN,11a-7p,11a-7p,11a-7p,11a-7p,10a-5p,10a-5p,,1000539.84799,236165.242932,Library,
79,CC352,Schomburg Center for Research in Black Culture,515 Malcolm X Boulevard,Manhattan,10037,(212) 491-2200,Yes,No,OPEN,12p-6p,12p-8p,12p-8p,10a-6p,10a-6p,10a-6p,,1000594.51323,236082.282478,Library,
80,CC855,P.S. 76 - MANHATTAN,220 WEST 121 STREET,Manhattan,10027,,No,Hours may be extended during a heat emergency.,OPEN,8a-6p,8a-6p,8a-6p,8a-6p,8a-6p,,,997690.0,233123.0,School,
81,CC857,P.S. 154 Harriet Tubman,250 WEST 127 STREET,Manhattan,10027,,No,Hours may be extended during a heat emergency.,OPEN,8a-6p,8a-6p,8a-6p,8a-6p,8a-6p,,,998388.0,234573.0,School,
82,CC354,George Bruce Library,518 W 125 St,Manhattan,10027,(212) 662-9727,Yes,No,OPEN,12p-7p,12p-7p,12p-7p,12p-7p,11a-6p,10a-5p,,996123.0,235765.0,Library,
83,CC257,ARC Central Harlem NSC,120 W 140 St,Manhattan,10030,(917) 639-3054,Yes,Hours may be extended during a heat emergency.,OPEN,9a-5p,9a-5p,9a-5p,9a-5p,9a-5p,,,1000850.94677,237172.974194,Senior center,
84,CC353,A Philip Randolph NSC,108 W 146 St,Manhattan,10039,(212) 281-1349,Yes,Hours may be extended during a heat emergency.,OPEN,8:30a-4:30p,8:30a-4:30p,8:30a-4:30p,8:30a-4:30p,8:30a-4:30p,,,1001828.99993,238458.999838,Senior center,
85,CC041,Hamilton Grange NSC,420 W 145 St,Manhattan,10031,(212) 862-4181,Yes,Hours may be extended during a heat emergency.,OPEN,9a-5p,9a-5p,9a-5p,9a-5p,9a-5p,,,999168.000008,239593.999864,Senior center,
86,CC356,Hamilton Grange Library,503 W 145 St,Manhattan,10031,(212) 926-2147,Yes,No,OPEN,10a-7p,10a-7p,10a-7p,10a-7p,11a-6p,10a-5p,,998638.558959,240098.904603,Library,
87,CC435,Cothoa Luncheon Club NSC,2005 Amsterdam Av ,Manhattan,10032,(212) 781-6580,Yes,Hours may be extended during a heat emergency.,OPEN,8a-4p,8a-4p,8a-4p,8a-4p,8a-4p,,,1000686.99992,243210.999848,Senior center,Program on 2nd Floor
88,CC045,Washington Heights,1000 St Nicholas Av,Manhattan,10032,(212) 923-6054,Yes,No,OPEN,10a-7p,10a-7p,10a-7p,10a-7p,10a-5p,10a-5p,,1000915.51115,243339.964528,Library,
89,CC583,P.S. 4,500 West 160 Street,Manhattan,10032,,No,Hours may be extended during a heat emergency.,OPEN,8a-6p,8a-6p,8a-6p,8a-6p,8a-6p,,,1000506.02653,243412.805547,School,
90,CC434,Riverstone Senior Life NSC,99 Fort Washington Av,Manhattan,10032,(212) 927-5600,Yes,No,OPEN,8:30a-4:30p,8:30a-4:30p,8:30a-4:30p,8:30a-4:30p,8:30a-4:30p,,,999585.000158,245038.000131,Senior center,
92,CC259,ARC XVI Ft Washington NSC,4111 Broadway ,Manhattan,10033,(212) 781-5700,Yes,Hours may be extended during a heat emergency.,OPEN,9a-5p,9a-5p,9a-5p,9a-5p,9a-5p,,,1001076.00013,247215.000042,Senior center,Entrance around the corner on 174th Street
93,CC359,Fort Washington Library,535 W 179 St,Manhattan,10033,(212) 927-3533,No,No,OPEN,10a-6p,10a-6p,10a-6p,10a-6p,10a-6p,10a-5p,,1002549.0,248190.0,Library,
94,CC894,J.H.S. 143 Eleanor Roosevelt,511 WEST 182ND STREET,Manhattan,10033,,No,Hours may be extended during a heat emergency.,OPEN,8a-6p,8a-6p,8a-6p,8a-6p,8a-6p,,,1003361.0,248692.0,School,
95,CC847,P.S. 132 Juan Pablo Duarte,185 WADSWORTH AVENUE,Manhattan,10033,,No,Hours may be extended during a heat emergency.,OPEN,8a-6p,8a-6p,8a-6p,8a-6p,8a-6p,,,1002518.0,249167.0,School,
96,CC436,YM YWHA ISC,54 Nagle Av,Manhattan,10040,(212) 569-6200,Yes,No,OPEN,9a-4:30p,9a-4:30p,9a-4:30p,9a-4:30p,9a-4:30p,,9a-4:30p,1003737.00006,252696.999905,Senior center,
97,CC878,P.S./I.S. 187 Hudson Cliffs,349 CABRINI BOULEVARD,Manhattan,10040,,No,Hours may be extended during a heat emergency.,OPEN,8a-6p,8a-6p,8a-6p,8a-6p,8a-6p,,,1001720.0,251240.0,School,
98,CC258,Moriah Older Adult Luncheon NSC,90 Bennett Av,Manhattan,10033,(212) 923-5715,Yes,No,OPEN,9a-4p,9a-4p,9a-4p,9a-4p,9a-2p,,,1002053.00014,250111.000156,Senior center,
99,CC797,Paula Hedbavny School,421 W 219TH ST,Manhattan,10034,,No,Hours may be extended during a heat emergency.,OPEN,8a-6p,8a-6p,8a-6p,8a-6p,8a-6p,,,1008489.0,256880.0,School,
100,CC044,Inwood Library,4790 Broadway,Manhattan,10034,(212) 942-2445,Yes,No,OPEN,10a-7p,10a-7p,10a-7p,10a-7p,10a-5p,10a-5p,1p-5p,1004774.0,254661.0,Library,
101,CC338,Rain Inwood NSC,84 Vermilyea Av,Manhattan,10034,(212) 567-3200,No,No,OPEN,8a-4p,8a-4p,8a-4p,8a-4p,8a-4p,,,1005476.99986,254840.999882,Senior center,
102,CC307,NY Chinatown NSC,70 Mulberry St,Manhattan,10013,(212) 233-8930,Yes,No,OPEN,9a-5p,9a-5p,9a-5p,9a-5p,9a-5p,,,984542.00006,200153.000006,Senior center,
103,CC466,Carter Burden ISC (Covello Senior Center),312 E 109 St,Manhattan,10029,(212) 423-9665,Yes,No,OPEN,9a-5p,9a-5p,9a-5p,9a-5p,9a-5p,8a-4p,8a-4p,1000750.00012,227847.000064,Senior center,
104,CC462,Assoc of Black Social Workers NSC,221 W 107 St,Manhattan,10025,(212) 749-8400,Yes,Hours may be extended during a heat emergency.,OPEN,8a-4:30p,8a-4:30p,8a-4:30p,8a-4:30p,8a-4:30p,,,993532.000125,231420.000136,Senior center,
105,CC339,Washington Heights Star NSC,650 W 187 St,Manhattan,10033,(212) 781-8331,No,No,OPEN,8a-4p,8a-4p,8a-4p,8a-4p,8a-4p,,,1002819.99992,250243.99989,Senior center,
106,CC884,P.S. 124 Yung Wing,40 DIVISION STREET,Manhattan,10002,,No,Hours may be extended during a heat emergency.,OPEN,8a-6p,8a-6p,8a-6p,8a-6p,8a-6p,,,985376.0,199717.0,School,
107,CC475,CPC Project Open Door NSC,168 Grand St,Manhattan,10013,(212) 431-9026,Yes,No,OPEN,9a-5p,9a-5p,9a-5p,9a-5p,9a-5p,,,984830.00014,201643.999977,Senior center,
108,CC246,Andrew Heiskell Braille & Talking Book Library,40 W 20 St,Manhattan,10011,(212) 206-5400,Yes,No,OPEN,10a-5p,12p-7p,10a-5p,12p-7p,10a-5p,10a-5p,,986089.0,209046.0,Library,
109,CC340,M McLeod Bethune NSC,1970 Amsterdam Av,Manhattan,10032,(646) 918-7709,Yes,Hours may be extended during a heat emergency.,OPEN,9a-5p,9a-5p,9a-5p,9a-5p,9a-5p,,,1000269.0001,242874.999864,Senior center,
110,CC125,Campos Plaza,611 E 13 St,Manhattan,10009,(212) 677-1801,Yes,Hours may be extended during a heat emergency.,OPEN,6p-10p,6p-10p,6p-10p,6p-10p,6p-10p,10a-5p,,990457.0,204762.0,Cornerstone Program,
111,CC124,Rutgers,200 Madison St,Manhattan,10002,(646) 666-3040,Yes,Hours may be extended during a heat emergency.,OPEN,10a-6p,10a-6p,10a-6p,10a-6p,10a-6p,10a-5p,,986778.87494,198767.515378,Cornerstone Program,
112,CC129,Henry Street Settlement NSC,334 Madison St. ,Manhattan,10002,(212) 349-2770,Yes,Hours may be extended during a heat emergency.,OPEN,9a-6p,9a-6p,9a-6p,9a-6p,9a-6p,,,989019.456985,199081.25379,Senior center,Take ramp to basement
113,CC616,Jacob Riis community Center,80 Avenue D,Manhattan,10009,(646) 449-0399 X1931,Yes,Hours may be extended during a heat emergency.,OPEN,10a-6p,10a-6p,10a-6p,10a-6p,10a-6p,10a-5p,,990852.046167,202505.35849,Cornerstone Program,
114,CC248,Riverside Library,127 Amsterdam Av,Manhattan,10023,(212) 870-1810,Yes,No,OPEN,10a-7p,10a-7p,10a-7p,10a-7p,10a-5p,10a-5p,,988608.0,221342.0,Library,
115,CC007,Baruch,605 FDR Drive,Manhattan,10002,(212) 477-2541,Yes,Hours may be extended during a heat emergency.,OPEN,10a-6p,10a-6p,10a-6p,10a-6p,10a-6p,10a-5p,,991046.388959,200914.688702,Cornerstone Program,
116,CC546,UJC Lillian Wald Houses Senior Center,12 Avenue D,Manhattan,10009,(212) 260-2731,Yes,No,OPEN,8a-4p,8a-4p,8a-4p,8a-4p,8a-4p,,,990308.888889,201657.368056,Senior center,
117,CC014,Lehman,1589 Madison Av,Manhattan,10029,(212) 348-5749,Yes,Hours may be extended during a heat emergency.,OPEN,10a-6p,10a-6p,10a-6p,10a-6p,10a-6p,10a-5p,,998522.288001,228724.193134,Cornerstone Program,
118,CC022,Clinton,120 E 110 St,Manhattan,10029,(929) 281-2814,Yes,Hours may be extended during a heat emergency.,OPEN,10a-6p,10a-6p,10a-6p,10a-6p,10a-6p,10a-5p,,999391.880371,228888.541469,Cornerstone Program,
119,CC903,P.S. 61 - MANHATTAN,610 EAST 12 STREET,Manhattan,10009,,No,Hours may be extended during a heat emergency.,OPEN,8a-6p,8a-6p,8a-6p,8a-6p,8a-6p,,,990276.0,204339.0,School,
120,CC130,BRC Neighborhood NSC,30 Delancey St,Manhattan,10002,(212) 533-2020,Yes,Hours may be extended during a heat emergency.,OPEN,8a-3:30p,8a-3:30p,8a-3:30p,8a-3:30p,8a-3:30p,,,986390.261456,201734.106752,Senior center,
121,CC874,N.Y.C. Museum School,333 WEST  17 STREET,Manhattan,10011,,No,Hours may be extended during a heat emergency.,OPEN,8a-6p,8a-6p,8a-6p,8a-6p,8a-6p,,,983635.0,209793.0,School,
122,CC256,Corsi House NSC,307 E 116 St,Manhattan,10029,(212) 828-6756,Yes,No,OPEN,8:30a-4:30p,8:30a-4:30p,8:30a-4:30p,8:30a-4:30p,8:30a-4:30p,,,1001704.99985,229682.000003,Senior center,Program located in the basement
123,CC111,Goddard Riverside NSC,593 Columbus Av,Manhattan,10024,(212) 873-6600,Yes,No,OPEN,8a-4p,8a-4p,8a-4p,8a-4p,8a-4p,,,992386.00012,226350.000106,Senior center,
124,CC121,Ottendorfer Library,135 2 Av,Manhattan,10003,(212) 674-0947,No,No,OPEN,11a-7p,11a-7p,11a-7p,11a-7p,10a-5p,10a-5p,,987649.044589,204833.655297,Library,
125,CC530,Dyckman Neighborhood Senior Center,3754 10 Av,Manhattan,10034,(212) 569-7790,Yes,No,OPEN,8:30a-4:30p,8:30a-4:30p,8:30a-4:30p,8:30a-4:30p,8:30a-4:30p,,,1005818.53416,252982.64003,Senior center,
126,CC614,Dyckman Community Center,3782 Tenth Avenue,Manhattan,10022,(646) 429-8447,Yes,Hours may be extended during a heat emergency.,OPEN,10a-6p,10a-6p,10a-6p,10a-6p,10a-6p,10a-5p,,1005938.58227,253281.771373,Cornerstone Program,
127,CC005,Taft Senior Center,1365 5 Av,Manhattan,10029,(212) 987-4361,Yes,Hours may be extended during a heat emergency.,OPEN,9a-5p,9a-5p,9a-5p,9a-5p,9a-5p,,,998969.911493,230272.025398,Community center,Enter development by fire house on 5 Av halfway bet 112 and 115 Sts
128,CC118,Gaylord White NSC,2029 2 Av,Manhattan,10029,(212) 828-6055,Yes,Hours may be extended during a heat emergency.,OPEN,9a-4:30p,9a-4:30p,9a-4:30p,9a-4:30p,9a-4:30p,,,999890.477237,226929.495666,Senior center,Entrance off 104th St
129,CC249,Library for the Performing Arts,40 Lincoln Center Plz,Manhattan,10023,(917) 275-6975,Yes,No,OPEN,10:30a-8p,10:30a-6p,10:30a-6p,10:30a-8p,10:30a-6p,10:30a-6p,,988483.098149,220845.242414,Library,
130,CC358,Jefferson Houses NSC,2205 First Av,Manhattan,10029,(212) 828-6104,Yes,Hours may be extended during a heat emergency.,OPEN,8:30a-4:30p,8:30a-4:30p,8:30a-4:30p,8:30a-4:30p,8:30a-4:30p,,,1001667.9809,228776.101553,Senior center,
131,CC319,Lincoln East SC,60 E 135 St,Manhattan,10037,(212) 234-0005,Yes,Hours may be extended during a heat emergency.,OPEN,9a-5p,9a-5p,9a-5p,9a-5p,9a-5p,,,1002152.46418,234885.227251,Community center,
132,CC254,Wagner,435 E 120 St,Manhattan,10035,(212) 996-1451,Yes,Hours may be extended during a heat emergency.,OPEN,10a-6p,10a-6p,10a-6p,10a-6p,10a-6p,10a-5p,,1003185.90202,230089.098745,Cornerstone Program,
133,CC705,P.S. 153 - Manhattan,1750 Amsterdam Av,Manhattan,10031,,No,Hours may be extended during a heat emergency.,OPEN,8a-6p,8a-6p,8a-6p,8a-6p,8a-6p,9a-5p,9a-5p,998768.550347,240390.168219,School,
134,CC791,P.S. 008 Luis Belliard,465 WEST 167 STREET,Manhattan,10032,,No,Hours may be extended during a heat emergency.,OPEN,8a-6p,8a-6p,8a-6p,8a-6p,8a-6p,,,1001781.0,245074.0,School,
135,CC613,Johnson Community Center,1833 Lexington Ave,Manhattan,10029,(212) 360-7625,Yes,Hours may be extended during a heat emergency.,OPEN,10a-6p,10a-6p,10a-6p,10a-6p,10a-6p,10a-5p,,1000264.58968,229533.538686,Cornerstone Program,
136,CC119,Stanley Isaacs Neighborhood NSC,415 E 93 St,Manhattan,10128,(212) 360-7620,Yes,No,OPEN,8a-5p,8a-5p,8a-5p,8a-5p,8a-5p,,,999444.941383,223920.292367,Senior center,
137,CC686,M.S. 131,100 Hester St,Manhattan,10002,,No,Hours may be extended during a heat emergency.,OPEN,8a-6p,8a-6p,8a-6p,8a-6p,8a-6p,,,986023.615207,200220.747246,School,
138,CC467,Carver NSC,55 E 102 St,Manhattan,10029,(212) 289-2709,Yes,No,OPEN,9a-5p,9a-5p,9a-5p,9a-5p,9a-5p,,,997982.587352,227500.606728,Senior center,
139,CC460,Jefferson Market Library,425 Avenue of the Americas,Manhattan,10011,(212) 243-4334,Yes,No,OPEN,10a-8p,10a-8p,10a-8p,10a-8p,10a-5p,10a-5p,1p-5p,984488.309329,206908.386549,Library,
140,CC403,Marble Hill NSC,5365 Broadway,Bronx,10463,(718) 562-8551,Yes,Hours may be extended during a heat emergency.,OPEN,8:30a-4:30p,8:30a-4:30p,8:30a-4:30p,8:30a-4:30p,8:30a-4:30p,,,1009672.40256,258633.971955,Senior center,
141,CC606,Marble Hill Community Center,5365 Broadway,Bronx,10463,(718) 220-2421,Yes,Hours may be extended during a heat emergency.,OPEN,10a-6p,10a-6p,10a-6p,10a-6p,10a-6p,10a-5p,,1009675.61449,258636.415519,Cornerstone Program,
142,CC842,P.S. 57 James Weldon Johnson,176 EAST 115 STREET,Manhattan,10029,,No,Hours may be extended during a heat emergency.,OPEN,8a-6p,8a-6p,8a-6p,8a-6p,8a-6p,,,1000432.0,229717.0,School,
143,CC218,Independence Plaza NSC,310 Greenwich Street,Manhattan,10013,(212) 267-0499,Yes,No,OPEN,9a-5p,9a-5p,9a-5p,9a-5p,9a-5p,,,981133.727021,200739.877113,Senior center,2nd Floor
144,CC086,King Towers,2 W 115 St,Manhattan,10026,(212) 384-5721,Yes,Hours may be extended during a heat emergency.,OPEN,10a-6p,10a-6p,10a-6p,10a-6p,10a-6p,10a-5p,,998789.736365,230699.460362,Cornerstone Program,
145,CC615,Seward Park Community Center,56 Essex Street,Manhattan,10002,(212) 460-8163,Yes,Hours may be extended during a heat emergency.,OPEN,10a-6p,10a-6p,10a-6p,10a-6p,10a-6p,10a-5p,,987396.795204,200446.556834,Cornerstone Program,
146,CC247,Project Find Coffeehouse NSC,331 W 42 St,Manhattan,10036,(646) 545-4621,Yes,Hours may be extended during a heat emergency.,OPEN,8a-5p,8a-5p,8a-5p,8a-6p,8a-5p,,,986711.999985,215506.00014,Senior center,
147,CC465,East River,404 E 105 St,Manhattan,10029,(212) 384-1220,Yes,Hours may be extended during a heat emergency.,OPEN,10a-6p,10a-6p,10a-6p,10a-6p,10a-6p,10a-5p,,1000758.6976,226269.713965,Cornerstone Program,
148,CC115,PSS Harlem NSC,18 Mount Morris Park West,Manhattan,10027,(212) 222-3132,Yes,No,OPEN,8:30a-3p,8:30a-3p,8:30a-3p,8:30a-3p,8:30a-3p,,,999517.018995,232558.683882,Senior center,
149,CC351,Pelham Fitz Recreation Center,18 Mount Morris Park West,Manhattan,10027,(212) 860-1380 ,Yes,No,OPEN,8:30a-9:30p,8:30a-9:30p,8:30a-9:30p,8:30a-9:30p,8:30a-9:30p,9a-4p,,999510.107836,232543.384089,Community center,
150,CC114,Central Harlem Kennedy NSC,34 W 134 St,Manhattan,10037,(212) 926-4871,No,Hours may be extended during a heat emergency.,OPEN,9a-5p,9a-5p,9a-5p,9a-5p,9a-5p,,,1000758.02471,235253.822193,Senior center,
151,CC810,Lt. Joseph Kennedy Center,34 West 134th Street,Manhattan,10037,(347) 344-7529,No,,OPEN,9a-5p,9a-5p,9a-5p,9a-5p,9a-5p,,,1000846.0,235291.0,Other,
152,CC599,Jackie Robinson NSC,1301 Amsterdam Ave.,Manhattan,10027,(212) 666-4910,No,No,OPEN,8a-4p,8a-4p,8a-4p,8a-4p,8a-4p,,,996344.161167,235038.798673,Senior center,
153,CC610,Grant Community Center,1301 Amsterdam Avenue,Manhattan,10027,(917) 743-5157,Yes,Hours may be extended during a heat emergency.,OPEN,10a-6p,10a-6p,10a-6p,10a-6p,10a-6p,10a-5p,,996344.161167,235038.798673,Cornerstone Program,
154,CC038,Manhattanville Riverside NSC,530 W 133 St,Manhattan,10027,(212) 862-5562,Yes,No,OPEN,8a-4p,8a-4p,8a-4p,8a-4p,8a-4p,,,996837.951518,237189.658216,Senior center,
155,CC040,Manhattanville,530 W 133 St,Manhattan,10027,(646) 439-0792 ext7801,Yes,Hours may be extended during a heat emergency.,OPEN,10a-6p,10a-6p,10a-6p,10a-6p,10a-6p,10a-5p,,996794.20349,237221.937155,Cornerstone Program,
156,CC039,Macomb's Bridge Library,2650 Adam C Powell Blvd,Manhattan,10039,(212) 281-4900,Yes,No,OPEN,11a-7p,11a-7p,11a-6p,11a-6p,10a-5p,10a-5p,,1001983.15982,240419.301023,Library,
157,CC723,P.S. 5 - Manhattan,3703 10 Av,Manhattan,10034,,No,Hours may be extended during a heat emergency.,OPEN,8a-6p,8a-6p,8a-6p,8a-6p,8a-6p,9a-5p,9a-5p,1005771.8992,251911.078905,School,
158,CC050,Grand Coalition of Seniors NSC,80 Pitt St,Manhattan,10002,(646) 201-4251,Yes,No,OPEN,8a-4p,8a-4p,8a-4p,8a-4p,8a-4p,,,989309.329436,200977.791664,Senior center,
159,CC252,Polo Grounds NSC,2965 8 Av,Manhattan,10039,(212) 283-5475,Yes,Hours may be extended during a heat emergency.,OPEN,9a-5p,9a-5p,9a-5p,9a-5p,9a-5p,,,1001582.94301,242067.47392,Senior center,
160,CC470,Roosevelt Island Library,524 Main St,Manhattan,10044,(212) 308-6243,Yes,No,OPEN,10a-8p,10a-6p,10a-8p,10a-6p,10a-5p,10a-5p,,998050.714486,216635.190876,Library,
161,CC471,Roosevelt Island Senior Center,546 Main St,Manhattan,10044,(212) 980-1888,Yes,No,OPEN,9a-5p,9a-5p,9a-5p,9a-5p,9a-5p,,,998222.297175,216845.672986,Senior center,
162,CC612,Drew Hamilton Community Center,220 West 143rd Street,Manhattan,10030,(646) 963-2696,Yes,Hours may be extended during a heat emergency.,OPEN,10a-6p,10a-6p,10a-6p,10a-6p,10a-6p,10a-5p,,1000557.50018,238224.661396,Cornerstone Program,
163,CC509,Battery Park City Library,175 North End Av,Manhattan,10282,(212) 790-3499,Yes,No,OPEN,10a-6p,11a-7p,10a-6p,11a-7p,10a-5p,10a-5p,,979847.277142,199976.032056,Library,
164,CC770,Manhattan Academy for Arts & Language,111 E 33 St,Manhattan,10016,,No,Hours may be extended during a heat emergency.,OPEN,8a-6p,8a-6p,8a-6p,8a-6p,8a-6p,,,989516.444508,211236.444047,School,
165,CC002,"Science, Industry and Business Library",188 Madison Av,Manhattan,10016,(917) 275-6975,Yes,No,OPEN,10a-6p,10a-8p,10a-8p,10a-8p,10a-6p,10a-6p,,988942.694015,211838.348355,Library,
166,CC796,Battery Park City School,55 BATTERY PLACE,Manhattan,10280,,No,Hours may be extended during a heat emergency.,OPEN,8a-6p,8a-6p,8a-6p,8a-6p,8a-6p,,,979411.0,196627.0,School,
167,CC092,Times Square Corps Comm Center,315 W 47 St,Manhattan,10036,(212) 975-9988,Yes,No,OPEN,,9:30a-2:30p,9:30a-2:30p,9:30a-2:30p,9:30a-2:30p,,,987512.961603,216502.165412,Community center,
168,CC611,Polo Ground Community Center,3005 Frederick Douglass Blvd,Manhattan,10039,(646) 707-0145,Yes,Hours may be extended during a heat emergency.,OPEN,10a-6p,10a-6p,10a-6p,10a-6p,10a-6p,,,1001717.55757,242375.401454,Cornerstone Program,
169,CC890,P.S. 179,468 EAST 140 STREET,Bronx,10454,,No,Hours may be extended during a heat emergency.,OPEN,8a-6p,8a-6p,8a-6p,8a-6p,8a-6p,,,1006458.0,234057.0,School,
170,CC876,P.S./I.S. 224,345 BROOK AVENUE,Bronx,10454,,No,Hours may be extended during a heat emergency.,OPEN,8a-6p,8a-6p,8a-6p,8a-6p,8a-6p,,,1006740.0,234506.0,School,
171,CC813,Destination Tomorrow,452 East 149th Street,Bronx,10455,(646) 723-3325,No,,OPEN,11a-5p,11a-5p,11a-5p,11a-5p,11a-5p,,,1007603.0,236180.0,Other,
172,CC095,Mott Haven Library,321 E 140 St,Bronx,10454,(718) 665-4878,Yes,No,OPEN,10a-7p,10a-7p,10a-7p,10a-7p,10a-5p,10a-5p,,1005171.0,234972.0,Library,
173,CC913,P.S./M.S. 029 Melrose School,758 COURTLANDT AVENUE,Bronx,10451,,No,Hours may be extended during a heat emergency.,OPEN,8a-6p,8a-6p,8a-6p,8a-6p,8a-6p,,,1007383.0,238596.0,School,
174,CC451,Melrose Library,910 Morris Av,Bronx,10451,(718) 588-0110,No,No,OPEN,10a-7p,10a-7p,10a-7p,10a-7p,10a-5p,10a-5p,,1007054.0,240433.0,Library,
175,CC596,Concourse Plaza Wellness NSC,900 Grand Concourse,Bronx,10451,(718) 588-8200,No,No,OPEN,8:30a-7p,8:30a-7p,8:30a-7p,8:30a-7p,8:30a-7p,,,1005814.96637,240597.357438,Senior center,
176,CC775,Hope of Israel NSC,1068 Gerard Av,Bronx,10452,718-665-8400,Yes,No,OPEN,9a-5p,9a-5p,9a-5p,9a-5p,9a-5p,,,1005858.0,242452.0,Senior center,
177,CC233,High Bridge Library,78 W 168 St,Bronx,10452,(718) 293-7800,Yes,No,OPEN,10a-7p,10a-7p,10a-7p,10a-7p,10a-5p,10a-5p,,1005402.49107,244580.247615,Library,
178,CC349,PSS Highbridge NSC,1181 Nelson Av,Bronx,10452,(718) 588-3004,Yes,Hours may be extended during a heat emergency.,OPEN,8a-4p,8a-4p,8a-4p,8a-4p,8a-4p,,,1004709.00008,244349.999867,Senior center,
179,CC217,Morrisania Library,610 E 169 St,Bronx,10456,(718) 589-9268,Yes,No,OPEN,10a-7p,10a-7p,10a-7p,10a-7p,10a-5p,10a-5p,,1011424.0,242135.0,Library,
180,CC915,South Bronx Academy for Applied Media,778 FOREST AVENUE,Bronx,10456,,No,Hours may be extended during a heat emergency.,OPEN,8a-6p,8a-6p,8a-6p,8a-6p,8a-6p,,,1010436.0,237570.0,School,
181,CC908,P.S. 161 Juan Ponce De Leon School,628 TINTON AVENUE,Bronx,10455,,No,Hours may be extended during a heat emergency.,OPEN,8a-6p,8a-6p,8a-6p,8a-6p,8a-6p,,,1010479.0,235944.0,School,
182,CC822,P.S. 212,1180 TINTON AVENUE,Bronx,10456,,No,Hours may be extended during a heat emergency.,OPEN,8a-6p,8a-6p,8a-6p,8a-6p,8a-6p,,,1011890.0,241102.0,School,
183,CC331,PSS-Davidson NSC,950 Union Av,Bronx,10459,(718) 328-2811,Yes,Hours may be extended during a heat emergency.,OPEN,8a-4p,8a-4p,8a-4p,8a-4p,8a-4p,,,1011580.00012,239268.999858,Senior center,
184,CC018,Davidson,1221 Prospect Av,Bronx,10456,(718) 576-1930,Yes,Hours may be extended during a heat emergency.,OPEN,6p-10p,6p-10p,6p-10p,6p-10p,6p-10p,10a-5p,,1012088.6341,240718.0101,Cornerstone Program,
186,CC807,School of Performing Arts,977 FOX STREET,Bronx,10459,,No,Hours may be extended during a heat emergency.,OPEN,8a-6p,8a-6p,8a-6p,8a-6p,8a-6p,,,1013479.0,238763.0,School,
187,CC315,Sebco Senior Programs NSC,887 Southern Blvd ,Bronx,10459,(718) 617-3465,Yes,Hours may be extended during a heat emergency.,OPEN,8a-4p,8a-4p,8a-4p,8a-4p,8a-4p,,,1013659.04484,237694.927875,Senior center,Basement
188,CC399,Hunts Point Library,877 Southern Blvd,Bronx,10459,(718) 617-0338,Yes,No,OPEN,10a-6p,10a-6p,10a-6p,10a-6p,10a-6p,10a-5p,,1013534.0,237566.0,Library,
189,CC744,The Hunts Point School,730 Bryant Av,Bronx,10474,,No,Hours may be extended during a heat emergency.,OPEN,8a-6p,8a-6p,8a-6p,8a-6p,8a-6p,,,1015996.57462,236540.972178,School,
190,CC216,Bronxworks East Concourse NSC,236 E Tremont Av,Bronx,10457,(718) 731-6300,Yes,Hours may be extended during a heat emergency.,OPEN,8a-4p,8a-4p,8a-4p,8a-4p,8a-4p,,,1010646.00002,248483.000131,Senior center,
191,CC452,Grand Concourse Library,155 E 173 St,Bronx,10457,(718) 583-6611,Yes,No,OPEN,10a-8p,10a-7p,10a-8p,10a-7p,10a-5p,10a-5p,1p-5p,1009126.0,246785.0,Library,
192,CC520,Bronxworks Heights NSC,200 West Tremont Av,Bronx,10453,(718) 299-0300,Yes,Hours may be extended during a heat emergency.,OPEN,8a-5p,8a-5p,8a-5p,8a-5p,8a-5p,,,1007173.00007,249628.000137,Senior center,
193,CC809,I.S. 229 Roland Patterson,275 HARLEM RIVER PARK BRIDGE,Bronx,10453,,No,Hours may be extended during a heat emergency.,OPEN,8a-6p,8a-6p,8a-6p,8a-6p,8a-6p,,,1005913.0,249705.0,School,
194,CC024,Tremont Library,1866 Washington Av,Bronx,10457,(718) 299-5177,No,No,OPEN,10a-6p,10a-6p,10a-6p,10a-6p,10a-6p,10a-5p,,1012374.0,247530.0,Library,
195,CC401,Arturo Schomburg NSC,1315 Fanklin Av,Bronx,10456,(718) 842-6880,Yes,Hours may be extended during a heat emergency.,OPEN,9a-5p,9a-5p,9a-5p,9a-5p,9a-5p,,,1011394.00016,242563.00016,Senior center,
196,CC028,Neighborhood SHOPP Innovative Senior Center,910 E 172 St,Bronx,10460,(718) 542-0222,Yes,No,OPEN,9a-5p,9a-5p,9a-5p,9a-5p,9a-5p,,,1014629.99992,243112.000046,Senior center,
197,CC830,P.S. X811,1434 LONGFELLOW AVENUE,Bronx,10459,,No,Hours may be extended during a heat emergency.,OPEN,8a-6p,8a-6p,8a-6p,8a-6p,8a-6p,,,1015556.0,241868.0,School,
198,CC518,Monterey/Twin Parks,2100 Monterey Av,Bronx,10457,(718) 367-6689,No,Hours may be extended during a heat emergency.,OPEN,10a-6p,10a-6p,10a-6p,10a-6p,10a-6p,10a-5p,,1014057.71868,249136.812912,Cornerstone Program,
199,CC026,Belmont Library,610 E 186 St,Bronx,10458,(718) 933-6410,Yes,No,OPEN,10a-6p,10a-6p,10a-6p,10a-6p,10a-6p,10a-5p,,1015256.0,250553.0,Library,
200,CC314,Thomas Guess NSC,2070 Clinton Av,Bronx,10457,(718) 584-2357,Yes,No,OPEN,8:30a-4:30p,8:30a-4:30p,8:30a-4:30p,8:30a-4:30p,8:30a-4:30p,,,1015279.40414,247922.72238,Senior center,
201,CC312,Mt Carmel Center NSC,2405 Southern Blvd,Bronx,10458,(718) 733-8852,Yes,No,OPEN,9a-5p,9a-5p,9a-5p,9a-5p,9a-5p,,,1016911.4468,250359.374659,Senior center,
202,CC400,West Farms Library,2085 Honeywell Av,Bronx,10460,(718) 367-5376,Yes,No,OPEN,10a-7p,10a-7p,10a-7p,10a-7p,10a-5p,10a-5p,,1016585.0,247038.0,Library,
203,CC808,The Angelo Patri Middle School,2225 WEBSTER AVENUE,Bronx,10457,,No,Hours may be extended during a heat emergency.,OPEN,8a-6p,8a-6p,8a-6p,8a-6p,8a-6p,,,1012644.0,250570.0,School,
204,CC825,Elementary School for Math Science and Technology,125 EAST 181 STREET,Bronx,10453,,No,Hours may be extended during a heat emergency.,OPEN,8a-6p,8a-6p,8a-6p,8a-6p,8a-6p,,,1011041.0,250907.0,School,
205,CC519,Bronxworks Morris ISC,80 E 181 St,Bronx,10453,(718) 933-6671,Yes,No,OPEN,8a-3p,8a-3p,8a-3p,8a-3p,8a-3p,8a-4p,,1010707.99989,250755.99985,Senior center,
206,CC309,Francis Martin Library,2150 University Av,Bronx,10453,(718) 295-5287,Yes,No,OPEN,11a-7p,11a-7p,11a-7p,11a-7p,10a-5p,10a-5p,,1009344.0,251688.0,Library,
207,CC316,Van Cortlandt Library,3874 Sedgwick Av,Bronx,10463,(718) 543-5150,Yes,No,OPEN,10a-7p,10a-7p,10a-7p,10a-7p,10a-5p,10a-5p,,1013583.08764,260913.631456,Library,
208,CC310,Jerome Park Library,118 Eames Pl,Bronx,10468,(718) 549-5200,Yes,No,OPEN,10a-7p,10a-7p,10a-7p,10a-7p,10a-5p,10a-5p,,1011564.0,255894.0,Library,
209,CC521,Sister Annunciata Bethell NSC,243 E 204 St,Bronx,10458,(718) 365-3725,Yes,Hours may be extended during a heat emergency.,OPEN,8:30a-4:30p,8:30a-4:30p,8:30a-4:30p,8:30a-4:30p,8:30a-4:30p,,,1016228.00001,257877.000044,Senior center,
210,CC027,Mosholu Library,285 E 205 St,Bronx,10467,(718) 882-8239,Yes,No,OPEN,11a-7p,11a-7p,11a-7p,11a-7p,10a-5p,10a-5p,,1017885.0,257854.0,Library,
211,CC222,Woodlawn Heights Library,4355 Katonah Av,Bronx,10470,(718) 519-9627,Yes,No,OPEN,10a-7p,10a-7p,10a-7p,10a-7p,10a-5p,10a-5p,,1020742.0,267350.0,Library,
212,CC899,P.S. 069 Journey Prep School,560 THIERIOT AVENUE,Bronx,10473,,No,Hours may be extended during a heat emergency.,OPEN,8a-6p,8a-6p,8a-6p,8a-6p,8a-6p,,,1022880.0,236853.0,School,
213,CC033,Soundview Library,660 Soundview Av,Bronx,10473,(718) 589-0880,Yes,No,OPEN,10a-6p,10a-6p,10a-6p,10a-6p,10a-5p,10a-5p,,1022175.0,237601.0,Library,
214,CC334,Castle Hill Library,947 Castle Hill Av,Bronx,10473,(718) 824-3838,Yes,No,OPEN,10a-6p,10a-6p,11a-6p,10a-8p,10a-5p,10a-5p,,1025707.0,240470.0,Library,
215,CC818,P.S. 152 Evergreen,1007 EVERGREEN AVENUE,Bronx,10472,,No,Hours may be extended during a heat emergency.,OPEN,8a-6p,8a-6p,8a-6p,8a-6p,8a-6p,,,1017327.0,239486.0,School,
216,CC350,Clason's Point Library,1215 Morrison Av,Bronx,10472,(718) 842-1235,Yes,No,OPEN,10a-7p,10a-7p,10a-7p,10a-7p,10a-5p,10a-5p,,1018828.0,241686.0,Library,
217,CC844,P.S. 047 John Randolph,1794 EAST 172 STREET,Bronx,10472,,No,Hours may be extended during a heat emergency.,OPEN,8a-6p,8a-6p,8a-6p,8a-6p,8a-6p,,,1021063.0,242619.0,School,
218,CC333,Parkchester Library,1985 Westchester Av,Bronx,10462,(718) 829-7830,Yes,No,OPEN,10a-8p,10a-8p,10a-8p,10a-8p,10a-5p,10a-5p,1p-5p,1023431.0,243068.0,Library,
219,CC098,Westchester Square Library,2521 Glebe Av,Bronx,10461,(718) 863-0436,No,No,OPEN,11a-7p,10a-6p,11a-7p,10a-6p,10a-5p,10a-5p,,1026672.0,245749.0,Library,
220,CC326,Morris Park Library,985 Morris Park Av,Bronx,10462,(718) 931-0636,Yes,No,OPEN,10a-7p,10a-7p,10a-7p,10a-7p,10a-5p,10a-5p,,1023812.11107,248259.000091,Library,
221,CC453,Rain Middletown NSC,3035 Middletown Rd,Bronx,10461,(718) 822-0486,Yes,Hours may be extended during a heat emergency.,OPEN,8a-4p,8a-4p,8a-4p,8a-4p,8a-4p,,,1031562.12157,247020.230419,Senior center,
222,CC106,Pelham Parkway-Van Nest Library,2147 Barnes Av,Bronx,10462,(718) 829-5864,Yes,No,OPEN,10a-6p,10a-6p,10a-6p,10a-6p,10a-5p,10a-5p,,1021825.0,250756.0,Library,
223,CC457,Bronx House Weinberg NSC,990 Pelham Pkwy S,Bronx,10461,(718) 792-1800,Yes,No,OPEN,8:30a-4:30p,8:30a-4:30p,8:30a-4:30p,8:30a-4:30p,8:30a-4:30p,,,1022807.99997,251368.999936,Senior center,"6 fl, pass security for directions"
224,CC324,Allerton Library,2740 Barnes Av,Bronx,10467,(718) 881-4240,Yes,No,OPEN,10a-6p,10a-6p,10a-6p,10a-6p,10a-5p,10a-5p,,1022086.0,255112.0,Library,
225,CC243,Rain Boston East NSC,3450 Boston Rd ,Bronx,10469,(718) 654-9200,Yes,No,OPEN,8a-4p,8a-4p,8a-4p,8a-4p,8a-4p,,,1026174.00013,258512.000086,Senior center,Program on Second Floor
226,CC103,Eastchester Library,1385 East Gun Hill Rd,Bronx,10469,(718) 653-3292,Yes,No,OPEN,10a-7p,10a-7p,10a-7p,10a-7p,10a-5p,10a-5p,,1027067.0,256352.0,Library,
228,CC325,Wakefield Library,4100 Lowerre Pl,Bronx,10466,(718) 652-4663,Yes,No,OPEN,10a-7p,10a-7p,10a-7p,10a-7p,10a-5p,10a-5p,,1023102.0,263958.0,Library,
229,CC207,Edenwald Library,1255 E 233 St,Bronx,10466,(718) 798-3355,Yes,No,OPEN,10a-7p,10a-7p,10a-7p,10a-7p,10a-5p,10a-5p,,1028245.0,263152.0,Library,
230,CC456,Rain Nereid NSC,720 Nereid Av,Bronx,10466,(718) 994-0132,Yes,No,OPEN,8a-4p,8a-4p,8a-4p,8a-4p,8a-4p,,,1024678.8709,266469.29782,Senior center,
231,CC806,P.S. X014 Senator John Calandra,3047 BRUCKNER BOULEVARD,Bronx,10461,,No,Hours may be extended during a heat emergency.,OPEN,8a-6p,8a-6p,8a-6p,8a-6p,8a-6p,,,1032340.0,243678.0,School,
232,CC100,Pelham Bay Library,3060 Middletown Rd,Bronx,10461,(718) 792-6744,Yes,No,OPEN,10a-6p,10a-6p,10a-6p,10a-6p,10a-5p,10a-5p,,1031846.0,246916.0,Library,
233,CC101,Throg's Neck Library,3025 Cross Bronx Exwy Ext,Bronx,10465,(718) 792-2612,Yes,No,OPEN,10a-6p,10a-6p,10a-6p,10a-6p,10a-5p,10a-5p,,1034314.0,239132.0,Library,
234,CC323,JASA Throgs Neck NSC,2705 Schley Av,Bronx,10465,(718) 823-1771,Yes,No,OPEN,8a-4p,8a-4p,8a-4p,8a-4p,8a-4p,,,1031965.38061,238729.999952,Senior center,
235,CC104,City Island Library,320 City Island Av,Bronx,10464,(718) 885-1703,Yes,No,OPEN,11a-7p,11a-6p,11a-6p,11a-7p,10a-5p,10a-5p,,1043361.0,248183.0,Library,
236,CC866,P.S. 207,3030 GODWIN TERRACE,Bronx,10463,,No,Hours may be extended during a heat emergency.,OPEN,8a-6p,8a-6p,8a-6p,8a-6p,8a-6p,,,1010196.0,259281.0,School,
237,CC404,Riverdale NSC,2600 Netherland Av,Bronx,10463,(718) 884-5900,Yes,Hours may be extended during a heat emergency.,OPEN,9a-5p,9a-5p,9a-5p,9a-5p,9a-5p,,,1007819.00009,259427.999894,Senior center,
238,CC220,Riverdale Library,5540 Mosholu Av,Bronx,10471,(718) 549-1212,Yes,No,OPEN,10a-6p,10a-6p,10a-6p,10a-6p,10a-5p,10a-5p,,1011148.0,268516.0,Library,
239,CC219,Spuyten Duyvil Library,650 W 235 St,Bronx,10463,(718) 796-1202,Yes,No,OPEN,10a-6p,10a-6p,10a-6p,10a-6p,10a-5p,10a-5p,,1007855.0,262171.0,Library,
240,CC405,Riverdale Y NSC,5625 Arlington Av,Bronx,10471,(718) 548-8200,Yes,Hours may be extended during a heat emergency.,OPEN,8:30a-4p,8:30a-4p,8:30a-4p,8:30a-4p,8:30a-4p,,,1009669.0,269056.999993,Senior center,
241,CC221,Van Cortlandt NSC,3880 Sedgwick Ave,Bronx,10463,(718) 549-4700,Yes,No,OPEN,9a-5p,9a-5p,9a-5p,9a-5p,9a-5p,,,1013635.66858,260826.87144,Senior center,"Front entrance, elevator to 2nd fl"
242,CC006,Ft Independence SC,3350 Bailey Av,Bronx,10463,(718) 884-7050,Yes,Hours may be extended during a heat emergency.,OPEN,10a-6p,10a-6p,10a-6p,10a-6p,10a-6p,10a-5p,,1011819.08455,259814.148029,Cornerstone Program,
243,CC458,Rain Gunhill NSC,3377 White Plains Rd,Bronx,10467,(718) 881-5589,Yes,Hours may be extended during a heat emergency.,OPEN,8a-4p,8a-4p,8a-4p,8a-4p,8a-4p,,,1020925.71141,257995.903677,Senior center,
244,CC421,Melrose Mott Haven NSC,372 E 152 St,Bronx,10455,(718) 665-2280,Yes,Hours may be extended during a heat emergency.,OPEN,8a-4p,8a-4p,8a-4p,8a-4p,8a-4p,8a-4p,8a-4p,1007016.72217,237417.920883,Senior center,
245,CC854,P.S. 023 The New Children's School,2151 WASHINGTON AVENUE,Bronx,10457,,No,Hours may be extended during a heat emergency.,OPEN,8a-6p,8a-6p,8a-6p,8a-6p,8a-6p,,,1013316.0,250174.0,School,
246,CC420,Mitchell Houses NSC,188 Lincoln Av,Bronx,10454,(718) 665-2168,Yes,Hours may be extended during a heat emergency.,OPEN,8a-4p,8a-4p,8a-4p,8a-4p,8a-4p,,,1004289.44974,234329.38769,Senior center,
247,CC422,PSS Andrew Jackson NSC,325 E 156 St,Bronx,10451,(718) 585-1640,Yes,No,OPEN,8a-4p,8a-4p,8a-4p,8a-4p,8a-4p,,,1007017.32125,238631.41091,Senior center,
248,CC029,Bronxworks E Roberts Moore NSC,515 Jackson Av,Bronx,10455,(718) 665-5559,Yes,No,OPEN,8a-4p,8a-4p,8a-4p,8a-4p,8a-4p,,,1009248.37913,235339.828911,Senior center,
249,CC604,St. Mary's Park,595 Trinity Avenue,Bronx,10455,(718) 618-7478,Yes,Hours may be extended during a heat emergency.,OPEN,10a-6p,10a-6p,10a-6p,10a-6p,10a-6p,10a-5p,,1009213.98221,236292.925758,Cornerstone Program,
250,CC330,Neighborhood SHOPP Leon NSC,735 E 152 St,Bronx,10455,(718) 708-6897,Yes,No,OPEN,8a-4:30p,8a-4:30p,8a-4:30p,8a-4:30p,8a-4:30p,,,1009965.62047,236619.72891,Senior center,
251,CC236,Butler,1368 Webster Av,Bronx,10456,(718) 303-8997,Yes,Hours may be extended during a heat emergency.,OPEN,10a-6p,10a-6p,10a-6p,10a-6p,10a-6p,10a-5p,,1009924.06042,243723.365323,Cornerstone Program,
252,CC096,William Hodson NSC,1320 Webster Av,Bronx,10456,(718) 538-1515,Yes,Hours may be extended during a heat emergency.,OPEN,8:30a-4:30p,8:30a-4:30p,8:30a-4:30p,8:30a-4:30p,8:30a-4:30p,,,1009672.80807,243155.222072,Senior center,
253,CC517,Sedgwick,1553 University Av,Bronx,10453,(718) 731-2600,Yes,Hours may be extended during a heat emergency.,OPEN,10a-6p,10a-6p,10a-6p,10a-6p,10a-6p,10a-5p,,1005824.65996,247625.427893,Cornerstone Program,
254,CC605,Murphy Community Center,601 Crotona Park North,Bronx,10457,(718) 466-6724,Yes,Hours may be extended during a heat emergency.,OPEN,10a-6p,10a-6p,10a-6p,10a-6p,10a-6p,10a-5p,,1013479.82211,246485.869611,Cornerstone Program,
255,CC234,Bronx Citadel Corps Comm Center,425 E 159 St,Bronx,10451,(718) 665-8472,No,Hours may be extended during a heat emergency.,OPEN,10a-4p,10a-4p,10a-4p,10a-4p,10a-4p,,,1008215.68695,239025.663916,Community center,
256,CC555,Soundview Senior Center,1674 Seward Avenue,Bronx,10473,(718) 328-1809,Yes,Hours may be extended during a heat emergency.,OPEN,9a-5p,9a-5p,9a-5p,9a-5p,9a-5p,,,1020335.04691,237328.174015,Senior center,
257,CC607,Soundview Community Center,1680 Seward Ave.,Bronx,10473,(718) 378-6246,Yes,Hours may be extended during a heat emergency.,OPEN,10a-6p,10a-6p,10a-6p,10a-6p,10a-6p,10a-5p,,1020556.66163,237367.89408,Cornerstone Program,
258,CC322,Kips Bay Castle Hill NSC,625 Castle Hill Av,Bronx,10473,(718) 319-9156,Yes,No,OPEN,8a-4p,8a-4p,8a-4p,8a-4p,8a-4p,,,1026171.01949,237835.392817,Senior center,
259,CC035,James Monroe NSC,1776 Story Av,Bronx,10473,(718) 893-3484,Yes,No,OPEN,8a-4p,8a-4p,8a-4p,8a-4p,8a-4p,,,1021550.64061,239165.258924,Senior center,
260,CC454,Bronx River NSC,1619 E 174 St,Bronx,10472,(718) 617-6334,Yes,Hours may be extended during a heat emergency.,OPEN,8a-4p,8a-4p,8a-4p,8a-4p,8a-4p,,,1018469.23765,243512.044522,Senior center,
261,CC608,Bronx River Community Center,1619 East 174th Street,Bronx,10472,(718) 589-0553,Yes,Hours may be extended during a heat emergency.,OPEN,10a-6p,10a-6p,10a-6p,10a-6p,10a-6p,10a-5p,,1018470.1343,243511.400166,Cornerstone Program,
262,CC013,Pelham Parkway,785 Pelham Pkwy North,Bronx,10467,(718) 547-5929,Yes,Hours may be extended during a heat emergency.,OPEN,10a-6p,10a-6p,10a-6p,10a-6p,10a-6p,10a-5p,,1021789.05856,252051.181073,Cornerstone Program,
263,CC241,Rain Boston Road NSC,2424 Boston Rd,Bronx,10467,(718) 547-8827,Yes,Hours may be extended during a heat emergency.,OPEN,8a-4p,8a-4p,8a-4p,8a-4p,8a-4p,,,1021228.51461,253247.725181,Senior center,
264,CC242,Sue Ginsburg NSC,975 Waring Av,Bronx,10469,(718) 881-1758,Yes,No,OPEN,8:30a-4:30p,8:30a-4:30p,8:30a-4:30p,8:30a-4:30p,8:30a-4:30p,,,1023183.08387,253184.078655,Senior center,
265,CC108,Rain Eastchester NSC,1246 Burke Av,Bronx,10469,(718) 882-8513,Yes,No,OPEN,8a-4p,8a-4p,8a-4p,8a-4p,8a-4p,,,1025341.24458,256578.68768,Senior center,
266,CC609,Eastchester Community Center,3016 Yates Ave.,Bronx,10469,(718) 231-7384,No,Hours may be extended during a heat emergency.,OPEN,10a-6p,10a-6p,10a-6p,10a-6p,10a-6p,10a-5p,,1024632.78832,256307.482513,Cornerstone Program,
267,CC240,Gun Hill,745 Magenta St,Bronx,10467,(917) 573-7187,Yes,Hours may be extended during a heat emergency.,OPEN,10a-6p,10a-6p,10a-6p,10a-6p,10a-6p,10a-5p,,1021487.82876,258238.473473,Cornerstone Program,
268,CC511,JASA Bay-Eden NSC,1220 E 229 St,Bronx,10466,(718) 882-3815,Yes,No,OPEN,8a-4p,8a-4p,8a-4p,8a-4p,8a-4p,,,1027663.68022,261595.762619,Senior center,
269,CC208,Boston Secor,3540 Bivona St,Bronx,10475,(718) 671-1040,Yes,Hours may be extended during a heat emergency.,OPEN,10a-6p,10a-6p,10a-6p,10a-6p,10a-6p,10a-5p,,1030526.27298,261081.544713,Cornerstone Program,
270,CC398,Rain Boston Secor NSC,3540 Bivona St,Bronx,10475,(718) 671-8550,Yes,No,OPEN,8a-4p,8a-4p,8a-4p,8a-4p,8a-4p,,,1030531.97206,261058.967433,Senior center,
271,CC603,Betances,465 St. Ann's Ave,Bronx,10455,(718) 585-5040,Yes,Hours may be extended during a heat emergency.,OPEN,6p-10p,6p-10p,6p-10p,6p-10p,6p-10p,10a-5p,,1007980.01782,235339.243282,Cornerstone Program,
272,CC637,Edenwald Community Center,1150 East 229th St.,Bronx,10466,(718) 652-0478,Yes,Hours may be extended during a heat emergency.,OPEN,10a-6p,10a-6p,10a-6p,10a-6p,10a-6p,10a-5p,,1026977.25246,262070.564163,Cornerstone Program,
273,CC235,Highbridge Gardens,1155 University Av,Bronx,10452,(718) 992-7797,Yes,Hours may be extended during a heat emergency.,OPEN,10a-6p,10a-6p,10a-6p,10a-6p,10a-6p,10a-5p,,1003984.76774,244602.531405,Cornerstone Program,
274,CC554,Highbridge Senior Center,1145 University Avenue,Bronx,10452,(718) 681-8251,Yes,Hours may be extended during a heat emergency.,OPEN,9a-5p,9a-5p,9a-5p,9a-5p,9a-5p,,,1003917.38421,244673.5025,Senior center,
275,CC313,Mosholu Montefiore NSC,3450 Dekalb Av,Bronx,10467,(718) 798-6601,Yes,Hours may be extended during a heat emergency.,OPEN,8a-4p,8a-4p,8a-4p,8a-4p,8a-4p,,,1017224.57315,260453.051978,Senior center,
276,CC321,Rain Parkchester NSC,1380 Metropolitan Av,Bronx,10462,(718) 892-5520,Yes,No,OPEN,8a-4p,8a-4p,8a-4p,8a-4p,8a-4p,,,1022772.88193,243571.791777,Senior center,
277,CC099,Baychester Library,2049 Asch Loop North,Bronx,10475,(718) 379-6700,Yes,No,OPEN,10a-7p,10a-7p,10a-7p,10a-7p,10a-6p,10a-5p,,1031470.89869,256547.606691,Library,
278,CC105,Co-op City NSC,2049 Bartow Av,Bronx,10475,(718) 320-2066,Yes,Hours may be extended during a heat emergency.,OPEN,9a-2p,9a-4p,9a-4p,9a-4p,9a-4p,,,1031610.16019,256466.994005,Senior center,Entrance on Bartow Ave. (Riverbay Corporation awning/CCPD office)
279,CC455,Dreiser NSC,177 Dreiser Loop,Bronx,10475,(718) 320-1345,Yes,Hours may be extended during a heat emergency.,OPEN,8a-4p,8a-4p,8a-4p,8a-4p,8a-4p,,,1031597.66776,259132.82496,Senior center,"2nd floor, Room #7"
280,CC036,Northeast Bronx NSC,2968 Bruckner Blvd,Bronx,10465,(718) 892-6090,Yes,No,OPEN,9a-4p,9a-4p,9a-4p,9a-4p,9a-4p,,,1032337.99994,242987.999966,Senior center,
281,CC883,P.S. X037 - Multiple Intelligence School,360 WEST 230 STREET,Bronx,10463,,No,Hours may be extended during a heat emergency.,OPEN,8a-6p,8a-6p,8a-6p,8a-6p,8a-6p,,,1008023.0,259136.0,School,
282,CC725,P.S. 306 - Bronx,40 W Tremont Av,Bronx,10453,,No,Hours may be extended during a heat emergency.,OPEN,8a-6p,8a-6p,8a-6p,8a-6p,8a-6p,9a-5p,9a-5p,1008935.84596,249473.424331,School,
283,CC308,Sedgwick Library,1701 Dr M L King Jr Blvd,Bronx,10453,(718) 731-2074,Yes,No,OPEN,10a-6p,10a-6p,10a-6p,10a-6p,10a-6p,10a-5p,,1007056.60475,248789.686583,Library,
284,CC107,Parkside NSC,644 Adee Av,Bronx,10467,(718) 881-7780,Yes,No,OPEN,8a-4p,8a-4p,8a-4p,8a-4p,8a-4p,,,1020464.94134,255978.228251,Senior center,
285,CC019,Parkside,2972 Bronx Park East,Bronx,10467,(718) 882-0787,Yes,Hours may be extended during a heat emergency.,OPEN,6p-10p,6p-10p,6p-10p,6p-10p,6p-10p,10a-5p,,1020142.38925,255986.171238,Cornerstone Program,
286,CC713,P.S./I.S. 194 - Bronx,2365 Waterbury Av,Bronx,10462,,No,Hours may be extended during a heat emergency.,OPEN,8a-6p,8a-6p,8a-6p,8a-6p,8a-6p,9a-5p,9a-5p,1026708.87373,243584.355072,School,
287,CC561,Hunts Point Recreation Center,765 Manida St,Bronx,10474,(718) 860-5544,Yes,No,OPEN,9a-9:30p,9a-9:30p,9a-9:30p,9a-9:30p,9a-9:30p,9a-4:30p,,1014909.11485,236207.954799,Community center,
288,CC774,Betances NSC,607 Concord Av,Bronx,10455,718-292-4922 Ext. 1,Yes,No,OPEN,9a-5p,9a-5p,9a-5p,9a-5p,9a-5p,,,1009725.0,236092.0,Senior center,
289,CC516,Bronx Tremont Corps Comm Center,2121 Washington Av,Bronx,10457,(718) 584-6250,Yes,Hours may be extended during a heat emergency.,OPEN,9a-5p,9a-5p,9a-5p,9a-5p,9a-5p,,,1013165.0,249777.0,Community center,
290,CC025,Bronx Center Library,310 East Kingsbridge Rd,Bronx,10458,(718) 579-4244,Yes,No,OPEN,9a-9p,9a-9p,9a-9p,9a-9p,10a-8p,10a-8p,12p-6p,1013415.0,253710.0,Library,
291,CC545,Tolentine Zeiser Community Life Center,2345 University Av,Bronx,10468,(718) 933-3305,Yes,No,OPEN,8:30a-3:30p,8:30a-3:30p,8:30a-3:30p,8:30a-3:30p,8:30a-3:30p,,,1010335.2685,253423.573044,Senior center,
292,CC402,Kingsbridge Library,291 W 231 St,Bronx,10463,(718) 548-5656,Yes,No,OPEN,10a-7p,10a-7p,10a-7p,10a-7p,10a-5p,10a-5p,,1009769.84271,260157.578795,Library,
293,CC602,Melrose Community Center,286 East 156th Street,Bronx,10451,(718) 665-1300,Yes,Hours may be extended during a heat emergency.,OPEN,10a-6p,10a-6p,10a-6p,10a-6p,10a-6p,10a-5p,,1006300.18194,238621.155681,Cornerstone Program,Center is in the gym.
294,CC102,Justice Sonia Sotomayor (formerly Bronxdale),1000 Rosedale Av,Bronx,10472,(917) 243-7231,Yes,Hours may be extended during a heat emergency.,OPEN,6p-10p,6p-10p,6p-10p,6p-10p,6p-10p,10a-5p,,1020952.11559,240055.873242,Cornerstone Program,
296,CC483,RAICES Times Plaza NSC,460 Atlantic Av,Brooklyn,11217,(718) 694-0895,Yes,Hours may be extended during a heat emergency.,OPEN,8a-4p,8a-4p,8a-4p,8a-4p,8a-4p,,,988939.000124,189193.999943,Senior center,
297,CC869,P.S. 261 Philip Livingston,314 PACIFIC STREET,Brooklyn,11201,,No,Hours may be extended during a heat emergency.,OPEN,8a-6p,8a-6p,8a-6p,8a-6p,8a-6p,,,987392.0,189649.0,School,
298,CC134,CCNS St Charles NSC,55 Pierrepont St,Brooklyn,11201,(718) 855-0326,Yes,No,OPEN,9:30a-5:30p,9:30a-5:30p,9:30a-5:30p,9:30a-5:30p,9:30a-5:30p,,,985621.999869,192861.000155,Senior center,
299,CC590,Brooklyn Heights Library,109 Remsen St,Brooklyn,11201,(718) 623-7100,Yes,No,OPEN,10a-6p,10a-8p,10a-8p,10a-8p,10a-6p,10a-5p,,985883.371065,192196.253781,Library,Entrance through Our Lady of Lebanon Church.
300,CC417,Carroll Gardens Library,396 Clinton St,Brooklyn,11231,(718) 596-6972,Yes,No,OPEN,10a-6p,10a-8p,1p-8p,10a-6p,10a-6p,10a-5p,,984789.0,188194.0,Library,
301,CC135,Eileen Dugan Amico NSC,378 Court St,Brooklyn,11231,(718) 596-1956,Yes,No,OPEN,8:30a-4:30p,8:30a-4:30p,8:30a-4:30p,8:30a-4:30p,8:30a-4:30p,,,985169.000119,187533.999982,Senior center,
302,CC862,J.H.S. 293 - BROOKLYN,284 BALTIC STREET,Brooklyn,11201,,No,Hours may be extended during a heat emergency.,OPEN,8a-6p,8a-6p,8a-6p,8a-6p,8a-6p,,,986104.0,188846.0,School,
303,CC861,P.S. 27 - BROOKLYN,27 HUNTINGTON STREET,Brooklyn,11231,,No,Hours may be extended during a heat emergency.,OPEN,8a-6p,8a-6p,8a-6p,8a-6p,8a-6p,,,982821.0,186259.0,School,
304,CC416,Red Hook Library,7 Wolcott St,Brooklyn,11231,(718) 935-0203,Yes,No,OPEN,10a-6p,1p-8p,10a-6p,10a-8p,10a-6p,10a-5p,,981373.0,185285.0,Library,
305,CC920,P.S. 172 Beacon School of Excellence,825 4 AVENUE,Brooklyn,11232,,No,Hours may be extended during a heat emergency.,OPEN,8a-6p,8a-6p,8a-6p,8a-6p,8a-6p,,,984196.0,178888.0,School,
306,CC889,P.S. 169 - BROOKLYN,4305 7 AVENUE,Brooklyn,11232,,No,Hours may be extended during a heat emergency.,OPEN,8a-6p,8a-6p,8a-6p,8a-6p,8a-6p,,,983779.0,174565.0,School,
307,CC867,P.S. 001 The Bergen,309 47 STREET,Brooklyn,11220,,No,Hours may be extended during a heat emergency.,OPEN,8a-6p,8a-6p,8a-6p,8a-6p,8a-6p,,,981080.0,175711.0,School,
308,CC147,Sunset Park Corps Community Center,520 50 St,Brooklyn,11220,(718) 438-1358,No,Hours may be extended during a heat emergency.,OPEN,9a-5p,9a-5p,9a-5p,9a-5p,9a-5p,,,981501.379805,174128.572137,Community center,
309,CC139,Sunset Park Library,4201 Fourth Ave,Brooklyn,11220,(718) 567-2806,Yes,No,OPEN,10a-6p,10a-8p,10a-8p,10a-8p,10a-6p,10a-5p,,982016.963,176245.050478,Library,
310,CC487,United Neighborhood NSC,475 53 St,Brooklyn,11220,(718) 439-8647,Yes,Hours may be extended during a heat emergency.,OPEN,8a-4p,8a-4p,8a-4p,8a-4p,8a-4p,,,980880.999836,173809.999871,Senior center,
311,CC873,P.S. 503: The School of Discovery,330 59 STREET,Brooklyn,11220,,No,Hours may be extended during a heat emergency.,OPEN,8a-6p,8a-6p,8a-6p,8a-6p,8a-6p,,,978878.0,173152.0,School,
312,CC879,M.S. 51 William Alexander,350 5 AVENUE,Brooklyn,11215,,No,Hours may be extended during a heat emergency.,OPEN,8a-6p,8a-6p,8a-6p,8a-6p,8a-6p,,,988398.0,184241.0,School,
313,CC369,Parkslope NSC,463A 7 St,Brooklyn,11215,(718) 832-3726,Yes,Hours may be extended during a heat emergency.,OPEN,9a-5p,9a-5p,9a-5p,9a-5p,9a-5p,,,989525.999935,182833.999867,Senior center,Basement - Entrance on 7th Street
314,CC274,Park Slope Library,431 6 Av,Brooklyn,11215,(718) 832-1853,Yes,No,OPEN,10a-6p,1p-8p,10a-8p,10a-6p,10a-6p,10a-5p,,988853.112934,182732.863735,Library,
315,CC780,P.S. 009 Teunis G. Bergen,80 UNDERHILL AVENUE,Brooklyn,11238,,No,Hours may be extended during a heat emergency.,OPEN,8a-6p,8a-6p,8a-6p,8a-6p,8a-6p,,,993590.0,186492.0,School,
316,CC371,Brooklyn Central Library,10 Grand Army Plz,Brooklyn,11238,(718) 230-2100,Yes,No,OPEN,9a-9p,9a-9p,9a-9p,9a-9p,9a-6p,9a-6p,1p-5p,993072.058083,184261.856001,Library,Entrance from street level at Eastern Parkway side of building
318,CC138,Ft Greene Grant Square NSC,19 Grant Sq,Brooklyn,11216,(718) 363-3133,Yes,Hours may be extended during a heat emergency.,OPEN,9a-5p,9a-5p,9a-5p,9a-5p,9a-5p,,,997471.39743,185830.695318,Senior center,
319,CC145,Fort Greene Albany NSC,196 Albany Av,Brooklyn,11213,(718) 773-2600,Yes,Hours may be extended during a heat emergency.,OPEN,9a-5p,9a-5p,9a-5p,9a-5p,9a-5p,,,1001094.00009,184836.000128,Senior center,
320,CC141,CCNS Saint Louis NSC,230 Kingston Av,Brooklyn,11213,(718) 771-7945,Yes,No,OPEN,9a-5p,9a-5p,9a-5p,9a-5p,9a-5p,,,1000249.7941,183947.404137,Senior center,
321,CC142,H Gilroy NSC,447 Kingsborough 4 Walk,Brooklyn,11233,(718) 756-8400,Yes,Hours may be extended during a heat emergency.,OPEN,8a-4p,8a-4p,8a-4p,8a-4p,8a-4p,,,1005164.46866,185243.652528,Senior center,
323,CC824,I.S. 390,1224 PARK PLACE,Brooklyn,11213,,No,Hours may be extended during a heat emergency.,OPEN,8a-6p,8a-6p,8a-6p,8a-6p,8a-6p,,,1001604.0,184196.0,School,
324,CC414,Eastern Parkway Library,1044 Eastern Pkwy,Brooklyn,11213,(718) 953-4225,Yes,No,OPEN,10a-6p,1p-8p,10a-6p,10a-8p,10a-6p,10a-5p,,1002666.0,182818.0,Library,
325,CC442,Shalom NSC,483 Albany Av,Brooklyn,11203,(718) 774-9213,Yes,Hours may be extended during a heat emergency.,OPEN,9a-5p,9a-5p,9a-5p,9a-5p,9a-5p,,,1000951.28811,180970.49572,Senior center,
326,CC888,Dr. Jacqueline Peek-Davis School,430 HOWARD AVENUE,Brooklyn,11233,,No,Hours may be extended during a heat emergency.,OPEN,8a-6p,8a-6p,8a-6p,8a-6p,8a-6p,,,1006419.0,184520.0,School,
327,CC618,Saratoga Village Community Center,940 Hancock Street,Brooklyn,11233,(347) 915-0862,Yes,Hours may be extended during a heat emergency.,OPEN,6p-10p,6p-10p,6p-10p,6p-10p,6p-10p,10a-5p,,1007221.92452,189269.314096,Cornerstone Program,
328,CC587,Saratoga Library,8 Thomas S Boyland St,Brooklyn,11233,(718) 573-5224,Yes,No,OPEN,10a-6p,10a-8p,1p-8p,10a-6p,10a-6p,10a-5p,,1007782.12189,188782.578193,Library,
329,CC906,P.S. 308 Clara Cardwell,616 QUINCY STREET,Brooklyn,11221,,No,Hours may be extended during a heat emergency.,OPEN,8a-6p,8a-6p,8a-6p,8a-6p,8a-6p,,,1002134.0,190058.0,School,
330,CC431,Stuyvesant Gardens,214 Stuyvesant Av,Brooklyn,11221,(718) 226-0481,Yes,Hours may be extended during a heat emergency.,OPEN,10a-6p,10a-6p,10a-6p,10a-6p,10a-6p,10a-5p,,1002775.12697,189874.191855,Cornerstone Program,
331,CC918,M.S. 267 Math Science & Technology,800 GATES AVENUE,Brooklyn,11221,,No,Hours may be extended during a heat emergency.,OPEN,8a-6p,8a-6p,8a-6p,8a-6p,8a-6p,,,1003090.0,189929.0,School,
332,CC600,Ft Stuyvesant Heights NSC,562-574 Madison St.,Brooklyn,11221,(718) 230-0824,Yes,No,OPEN,8a-4p,8a-4p,8a-4p,8a-4p,8a-4p,,,1002181.26334,189296.537795,Senior center,
333,CC366,Macon Library,361 Lewis Av,Brooklyn,11233,(718) 573-5606,Yes,No,OPEN,10a-6p,10a-8p,10a-8p,10a-8p,10a-6p,10a-5p,1p-5p,1002336.0,188125.0,Library,
334,CC846,P.S. 373- Brooklyn,185 ELLERY STREET,Brooklyn,11206,,No,Hours may be extended during a heat emergency.,OPEN,8a-6p,8a-6p,8a-6p,8a-6p,8a-6p,,,999442.0,194024.0,School,
335,CC562,Marcy Library,617 DeKalb Av,Brooklyn,11216,(718) 935-0032,Yes,No,OPEN,"10a-6p

",1p-8p,"10a-6p

",10a-8p,"10a-6p

","10a-5p

",,997759.083206,191256.747786,Library,
336,CC266,Bedford Temple Corps Comm Center,601 Lafayette Av,Brooklyn,11216,(718) 622-0614,Yes,Hours may be extended during a heat emergency.,OPEN,,9a-5p,9a-5p,9a-5p,9a-5p,,,997908.0,190828.0,Community center,
337,CC437,Tompkins Park NSC,550 Greene Av,Brooklyn,11216,(718) 638-3000,Yes,Hours may be extended during a heat emergency.,OPEN,8a-4p,8a-4p,8a-4p,8a-4p,8a-4p,,,998535.999959,190060.999849,Senior center,
338,CC126,Clinton Hill Library,380 Washington Av,Brooklyn,11238,(718) 398-8713,Yes,No,OPEN,10a-6p,10a-8p,1p-8p,10a-6p,10a-6p,10a-5p,,993680.994677,189714.068193,Library,
339,CC586,Bedford Library,496 Franklin Avenue,Brooklyn,11238,(718) 623-0012,Yes,No,OPEN,10a-6p,10a-6p,1p-8p,10a-8p,10a-6p,10a-5p,,996407.498967,187683.895023,Library,Handicap accessible side entrance
340,CC269,Atlantic Terminal,501 Carlton Av,Brooklyn,11238,(718) 783-7329,Yes,Hours may be extended during a heat emergency.,OPEN,6p-10p,6p-10p,6p-10p,6p-10p,6p-10p,10a-5p,,992527.166667,188054.916667,Cornerstone Program,
341,CC364,Grace Agard Harewood NSC,966 Fulton St,Brooklyn,11238,(718) 638-6910,Yes,No,OPEN,9a-5p,9a-5p,9a-7p,9a-7p,9a-5p,,,994728.000029,187843.00002,Senior center,
342,CC273,Walt Whitman Library,93 St Edwards St,Brooklyn,11205,(718) 935-0244,No,No,OPEN,10a-6p,10a-8p,1p-8p,10a-6p,10a-6p,10a-5p,,990423.0,192292.0,Library,
343,CC131,Independence Towers Active Adults NSC,114 Taylor St,Brooklyn,11211,(718) 388-9242,Yes,No,OPEN,8a-4:30p,8a-4:30p,8a-4:30p,8a-4:30p,8a-4:30p,,,994402.767084,196289.762326,Senior center,
344,CC522,Independence Towers,114 Taylor St,Brooklyn,11211,(718) 408-6374,Yes,Hours may be extended during a heat emergency.,OPEN,6p-10p,6p-10p,6p-10p,6p-10p,6p-10p,10a-5p,,994420.783891,196270.525158,Cornerstone Program,
345,CC267,Williamsburg Library,240 Division Av,Brooklyn,11211,(718) 302-3485,Yes,No,OPEN,10a-6p,1p-8p,10a-6p,10a-8p,10a-6p,10a-5p,,996007.0,196834.0,Library,
346,CC365,Williamsburg Satmar NSC,125 Heyward St,Brooklyn,11206,(718) 625-1608,Yes,Hours may be extended during a heat emergency.,OPEN,8a-4p,8a-4p,8a-4p,8a-4p,,,9a-5p,996300.999836,194933.999946,Senior center,
347,CC476,CCNS Northside NSC,179 North 6 St,Brooklyn,11211,(718) 387-2316,No,No,OPEN,8a-4p,8a-4p,8a-4p,8a-4p,8a-4p,,,996125.999858,200442.000084,Senior center,
348,CC363,Krakus Luncheon Club NSC,176 Java St,Brooklyn,11222,(718) 383-3434,Yes,Hours may be extended during a heat emergency.,OPEN,8a-4p,8a-4p,8a-4p,8a-4p,8a-4p,,,997135.000137,205780.999905,Senior center,
349,CC127,Greenpoint Library,107 Norman Av,Brooklyn,11222,(718) 349-8504,Yes,No,OPEN,10a-6p,10a-8p,10a-8p,10a-8p,10a-6p,10a-5p,,997915.993011,203791.975573,Library,
350,CC886,John Ericsson Middle School 126,424 LEONARD STREET,Brooklyn,11222,,No,Hours may be extended during a heat emergency.,OPEN,8a-6p,8a-6p,8a-6p,8a-6p,8a-6p,,,998644.0,201570.0,School,
351,CC268,Leonard Library,81 Devoe St,Brooklyn,11211,(718) 486-3365,No,No,OPEN,10a-6p,1p-8p,10a-6p,10a-8p,10a-6p,10a-5p,,998668.0,199285.0,Library,
352,CC270,Williamsburg,195 Graham Av,Brooklyn,11206,(718) 387-7482,Yes,Hours may be extended during a heat emergency.,OPEN,10a-6p,10a-6p,10a-6p,10a-6p,10a-6p,,,999816.19101,197653.540062,Cornerstone Program,
353,CC820,P.S. 250 George H. Lindsay,108 MONTROSE AVENUE,Brooklyn,11206,,No,Hours may be extended during a heat emergency.,OPEN,8a-6p,8a-6p,8a-6p,8a-6p,8a-6p,,,999316.0,196754.0,School,
354,CC480,Borinquen Plz Nutrition NSC,80 Seigel St,Brooklyn,11206,(718) 782-6334,No,No,OPEN,8a-4p,8a-4p,8a-4p,8a-4p,8a-4p,,,999964.361276,195742.506859,Senior center,
355,CC053,Bushwick Library,340 Bushwick Av,Brooklyn,11206,(718) 602-1348,Yes,No,OPEN,10a-6p,10a-6p,10a-8p,1p-8p,10a-6p,10a-5p,,1000986.22636,195970.109094,Library,
356,CC051,Dekalb Library,790 Bushwick Av,Brooklyn,11221,(718) 455-3898,Yes,No,OPEN,10a-6p,10a-8p,1p-8p,10a-6p,10a-6p,10a-5p,,1004102.0,192414.0,Library,
357,CC411,Ridgewood Bushwick NSC,319 Stanhope St,Brooklyn,11237,(718) 366-3038,Yes,Hours may be extended during a heat emergency.,OPEN,8a-4p,8a-4p,8a-4p,8a-4p,8a-4p,,,1006805.00015,195448.9999,Senior center,
358,CC708,P.S. 376A - Brooklyn,194 Harman St,Brooklyn,11237,,No,Hours may be extended during a heat emergency.,OPEN,8a-6p,8a-6p,8a-6p,8a-6p,8a-6p,9a-5p,9a-5p,1006322.5605,193588.633214,School,
359,CC827,J.H.S. 383 Philippa Schuyler,1300 GREENE AVENUE,Brooklyn,11237,,No,Hours may be extended during a heat emergency.,OPEN,8a-6p,8a-6p,8a-6p,8a-6p,8a-6p,,,1006684.0,193545.0,School,
360,CC478,Roundtable NSC,1175 Gates Av,Brooklyn,11221,(718) 443-1903,No,Hours may be extended during a heat emergency.,OPEN,9a-5:30p,9a-5:30p,9a-5:30p,9a-5:30p,9a-5:30p,,,1006386.00001,191323.999948,Senior center,
361,CC786,J.H.S. 291 Roland Hayes,231 PALMETTO STREET,Brooklyn,11221,,No,Hours may be extended during a heat emergency.,OPEN,8a-6p,8a-6p,8a-6p,8a-6p,8a-6p,,,1007756.0,192809.0,School,
362,CC432,Hope Gardens,422 Central Av,Brooklyn,11221,(718) 919-1603 ext 22,Yes,Hours may be extended during a heat emergency.,OPEN,6p-10p,6p-10p,6p-10p,6p-10p,6p-10p,10a-5p,,1007314.0,191761.0,Cornerstone Program,
363,CC788,P.S. 377 Alejandrina B. De Gautier,200 WOODBINE STREET,Brooklyn,11221,,No,Hours may be extended during a heat emergency.,OPEN,8a-6p,8a-6p,8a-6p,8a-6p,8a-6p,,,1007777.0,191963.0,School,
364,CC052,Washington Irving Library,360 Irving Av,Brooklyn,11237,(718) 628-8378,Yes,No,OPEN,10a-6p,10a-6p,10a-8p,1p-8p,10a-6p,10a-5p,,1008586.0,193403.0,Library,
365,CC450,Bushwick Corps Comm Center,1151 Bushwick Av,Brooklyn,11221,(718) 455-4102,Yes,Hours may be extended during a heat emergency.,OPEN,10a-4p,10a-4p,10a-4p,10a-4p,10a-4p,,,1007221.23489,190421.742339,Community center,
366,CC789,P.S. /I.S. 384 Frances E. Carter,242 COOPER STREET,Brooklyn,11207,,No,Hours may be extended during a heat emergency.,OPEN,8a-6p,8a-6p,8a-6p,8a-6p,8a-6p,,,1010680.0,190633.0,School,
367,CC588,Brownsville Library,61 Glenmore Ave,Brooklyn,11212,(718) 498-9721,Yes,No,OPEN,10a-6p,1a-8p,10a-8p,10a-6p,10a-6p,10a-5p,,1009603.63727,183944.32934,Library,
368,CC556,Glenmore Senior Center,1777 Pitkin Avenue,Brooklyn,11212,(718) 485-5013,Yes,Hours may be extended during a heat emergency.,OPEN,9a-5p,9a-5p,9a-5p,9a-5p,9a-5p,,,1009926.00802,183541.25928,Senior center,
369,CC821,P.S. K396,110 Chester St,Brooklyn,11218,,No,Hours may be extended during a heat emergency.,OPEN,8a-6p,8a-6p,8a-6p,8a-6p,8a-6p,,,1008739.73218,182642.688242,School,
370,CC428,Brownsville Corps Comm Center,280 Riverdale Av,Brooklyn,11212,(718) 345-7050,Yes,No,OPEN,8:30a-4p,8:30a-4p,8:30a-4p,8:30a-4p,8:30a-4p,,,1010274.59403,180160.970314,Community center,
371,CC893,Christopher Avenue Community School,51 CHRISTOPHER AVENUE,Brooklyn,11212,,No,Hours may be extended during a heat emergency.,OPEN,8a-6p,8a-6p,8a-6p,8a-6p,8a-6p,,,1010320.0,184194.0,School,
372,CC865,J.H.S. 292 Margaret S. Douglas,301 VERMONT STREET,Brooklyn,11207,,No,Hours may be extended during a heat emergency.,OPEN,8a-6p,8a-6p,8a-6p,8a-6p,8a-6p,,,1013842.0,183976.0,School,
373,CC407,Stone Avenue Library,581 Mother Gaston Blvd,Brooklyn,11212,(718) 485-8347,Yes,No,OPEN,10a-6p,10a-6p,1p-8p,10a-8p,10a-6p,10a-5p,,1010545.4556,181373.088419,Library,
374,CC781,P.S. 013 Roberto Clemente,557 PENNSYLVANIA AVENUE,Brooklyn,11207,,No,Hours may be extended during a heat emergency.,OPEN,8a-6p,8a-6p,8a-6p,8a-6p,8a-6p,,,1013844.0,181233.0,School,
375,CC230,Arlington Library,203 Arlington Av,Brooklyn,11207,(718) 277-6105,No,No,OPEN,10a-6p,10a-6p,1p-8p,10a-8p,10a-6p,10a-5p,,1015526.06616,187289.906609,Library,
376,CC075,New Lots Library,665 New Lots Av,Brooklyn,11207,(718) 649-0311,Yes,No,OPEN,10a-6p,10a-8p,10a-8p,10a-8p,10a-6p,10a-5p,1p-5p,1015859.0,181645.0,Library,
377,CC895,I.S. 171 Abraham Lincoln,528 RIDGEWOOD AVENUE,Brooklyn,11208,,No,Hours may be extended during a heat emergency.,OPEN,8a-6p,8a-6p,8a-6p,8a-6p,8a-6p,,,1020462.0,189177.0,School,
378,CC347,Cypress Hills Fulton St NSC,3208 Fulton St,Brooklyn,11208,(718) 235-0064,Yes,Hours may be extended during a heat emergency.,OPEN,8:15a-4:15p,8:15a-4:15p,8:15a-4:15p,8:15a-4:15p,8:15a-4:15p,,,1018396.99994,187787.000132,Senior center,
379,CC564,Spring Creek Library,12143 Flatlands Ave,Brooklyn,11207,(718) 257-6571,Yes,No,OPEN,10a-6p,10a-6p,1p-8p,10a-8p,10a-6p,10a-5p,,1015907.97014,177298.989612,Library,
380,CC787,P.S. 346 Abe Stark,1400 PENNSYLVANIA AVENUE,Brooklyn,11239,,No,Hours may be extended during a heat emergency.,OPEN,8a-6p,8a-6p,8a-6p,8a-6p,8a-6p,,,1016995.0,174887.0,School,
381,CC829,P.S. 268 Emma Lazarus,133 EAST 53 STREET,Brooklyn,11203,,No,Hours may be extended during a heat emergency.,OPEN,8a-6p,8a-6p,8a-6p,8a-6p,8a-6p,,,1004327.0,178786.0,School,
382,CC901,I.S. 285 Meyer Levin,5909 BEVERLY ROAD,Brooklyn,11203,,No,Hours may be extended during a heat emergency.,OPEN,8a-6p,8a-6p,8a-6p,8a-6p,8a-6p,,,1006235.0,175270.0,School,
383,CC055,Crown Heights Library,560 New York Av,Brooklyn,11225,(718) 773-1180,Yes,No,OPEN,10a-6p,1p-8p,10a-8p,10a-6p,10a-6p,10a-5p,,998623.0,180171.0,Library,
384,CC140,Christopher C Blenman NSC,720 East New York Av,Brooklyn,11203,(718) 773-7400,Yes,Hours may be extended during a heat emergency.,OPEN,8a-4p,8a-4p,8a-4p,8a-4p,8a-4p,10a-3p,,1001343.99992,180448.000046,Senior center,
385,CC916,New Heights Middle School,790 EAST NEW YORK AVENUE,Brooklyn,11203,,No,Hours may be extended during a heat emergency.,OPEN,8a-6p,8a-6p,8a-6p,8a-6p,8a-6p,,,1001912.0,180498.0,School,
386,CC740,George W. Wingate Hs - K,600 Kingston Av,Brooklyn,11203,,No,Hours may be extended during a heat emergency.,OPEN,8a-6p,8a-6p,8a-6p,8a-6p,8a-6p,9a-5p,9a-5p,1000040.32996,179288.762863,School,
387,CC089,Remsen Neighborhood NSC,3304 Clarendon Rd,Brooklyn,11203,(718) 282-1259,Yes,No,OPEN,8a-4p,8a-4p,8a-4p,8a-4p,8a-4p,,,999349.038031,173607.850997,Senior center,Entrance on New York Ave.
388,CC783,P.S. 198 Brooklyn,4105 FARRAGUT ROAD,Brooklyn,11210,,No,Hours may be extended during a heat emergency.,OPEN,8a-6p,8a-6p,8a-6p,8a-6p,8a-6p,,,1001711.0,171577.0,School,
389,CC785,P.S. 361 East Flatbush Early Childho,1957 NOSTRAND AVENUE,Brooklyn,11210,,No,Hours may be extended during a heat emergency.,OPEN,8a-6p,8a-6p,8a-6p,8a-6p,8a-6p,,,998769.0,171602.0,School,
390,CC563,Flatbush Library,22 Linden Blvd,Brooklyn,11226,(718) 856-0813,Yes,No,OPEN,10a-6p,1p-8p,10a-6p,10a-8p,10a-6p,10a-5p,,995838.05424,176792.677304,Library,
391,CC887,Norma Adams Clemons Academy,43 SNYDER AVENUE,Brooklyn,11226,,No,Hours may be extended during a heat emergency.,OPEN,8a-6p,8a-6p,8a-6p,8a-6p,8a-6p,,,996382.0,175718.0,School,
392,CC343,Cortelyou Library,1305 Cortelyou Rd,Brooklyn,11226,(718) 693-7763,Yes,No,OPEN,10a-6p,1p-8p,10a-8p,10a-6p,10a-6p,10a-5p,,993693.969676,172733.830234,Library,
393,CC419,Dorchester NSC,1419 Dorchester Rd,Brooklyn,11226,(718) 941-6700,No,Hours may be extended during a heat emergency.,OPEN,8a-4p,8a-4p,8a-4p,8a-4p,8a-4p,,,994157.999857,172235.000068,Senior center,
394,CC594,Ft Hazel Brooks NSC,961 Ocean Ave.,Brooklyn,11226,(347) 435-3287,No,No,OPEN,8a-4p,8a-4p,8a-4p,8a-4p,8a-4p,,,995730.091529,172078.805827,Senior center,
395,CC278,Mapleton Library,1702 60 St,Brooklyn,11204,(718) 256-2117,Yes,No,OPEN,10a-6p,10a-6p,10a-8p,1p-8p,10a-6p,10a-5p,1p-5p,987164.0,166245.0,Library,
396,CC231,Borough Park Library,1265 43 St,Brooklyn,11219,(718) 437-4085,No,No,OPEN,10a-6p,10a-8p,10a-6p,10a-8p,10a-6p,,1p-5p,987302.052349,172041.058896,Library,
397,CC151,Boro Park NSC,5602 11 Av,Brooklyn,11219,(718) 854-7430,Yes,No,OPEN,8:30a-4p,8:30a-4p,8:30a-4p,8:30a-4p,8:30a-4p,,9a-4p,983964.999902,170166.999939,Senior center,
398,CC282,Amico 59 St NSC,5901 13 Av,Brooklyn,11219,(718) 972-1558,Yes,Hours may be extended during a heat emergency.,OPEN,8:30a-4:30p,8:30a-4:30p,8:30a-4:30p,8:30a-4:30p,8:30a-4:30p,,,984841.000118,168476.00004,Senior center,
399,CC485,McKinley Park Library,6802 Fort Hamilton Pkwy,Brooklyn,11219,(718) 748-8001,No,No,OPEN,10a-6p,10a-6p,1p-8p,10a-8p,10a-6p,10a-5p,,980940.0,168520.0,Library,
400,CC880,High School of Telecommunication Arts and Technology,350 67 STREET,Brooklyn,11220,,No,Hours may be extended during a heat emergency.,OPEN,8a-6p,8a-6p,8a-6p,8a-6p,8a-6p,,,977752.0,171250.0,School,
401,CC489,Bay Ridge NSC,6935 4 Av,Brooklyn,11209,(718) 748-0650,Yes,Hours may be extended during a heat emergency.,OPEN,8a-4p,8a-4p,8a-4p,8a-4p,8a-4p,,,977734.20298,170179.810609,Senior center,
402,CC782,Ralph A. Fabrizio School,619 72ND STREET,Brooklyn,11209,,No,Hours may be extended during a heat emergency.,OPEN,8a-6p,8a-6p,8a-6p,8a-6p,8a-6p,,,979043.0,168953.0,School,
403,CC277,Bay Ridge Library,7223 Ridge Blvd,Brooklyn,11209,(718) 748-5709,Yes,No,OPEN,10a-6p,10a-6p,10a-8p,1p-8p,10a-6p,10a-5p,,976060.0,170114.0,Library,
404,CC276,Bay Ridge Corps Comm Center,252 86 St,Brooklyn,11209,(718) 238-2991,Yes,No,OPEN,8:30a-4p,8:30a-4p,8:30a-4p,8:30a-4p,8:30a-4p,,,975310.0,166361.0,Community center,
405,CC486,Fort Hamilton Library,9424 4 Av,Brooklyn,11209,(718) 748-6919,Yes,No,OPEN,10a-6p,1p-8p,10a-8p,10a-6p,10a-6p,10a-5p,,975550.556582,163831.213859,Library,
406,CC547,Bensonhurst Corps Community Center,7307 18 Av,Brooklyn,11204,(718) 975-4653,Yes,Hours may be extended during a heat emergency.,OPEN,9a-4p,9a-4p,9a-4p,9a-4p,9a-4p,,,985667.0,162996.0,Community center,
407,CC149,CCNS Moose Lodge NSC,77-11 18 Av,Brooklyn,11214,(718) 621-1081,Yes,No,OPEN,8a-4p,8a-4p,8a-4p,8a-4p,8a-4p,,,985026.352898,162198.213061,Senior center,
408,CC153,Bensonhurst NSC,7802 Bay Pkwy,Brooklyn,11214,(718) 331-6800,Yes,No,OPEN,8:30a-4:30p,8:30a-4:30p,8:30a-4:30p,8:30a-4:30p,8:30a-4:30p,,,987099.999865,160188.999882,Senior center,
409,CC837,New Utrecht High School,1601 80 STREET,Brooklyn,11214,,No,Hours may be extended during a heat emergency.,OPEN,8a-6p,8a-6p,8a-6p,8a-6p,8a-6p,,,983619.0,162615.0,School,
410,CC280,Homecrest Bensonhurst NSC,7907 New Utrecht Av,Brooklyn,11214,(718) 621-7960,Yes,No,OPEN,7:30a-2:30p,7:30a-2:30p,7:30a-2:30p,7:30a-2:30p,7:30a-2:30p,,,984060.00004,162317.999889,Senior center,
411,CC919,J.H.S. 201 The Dyker Heights,8010 12 AVENUE,Brooklyn,11228,,No,Hours may be extended during a heat emergency.,OPEN,8a-6p,8a-6p,8a-6p,8a-6p,8a-6p,,,980451.0,164786.0,School,
412,CC058,Dyker Library,8202 13 Av,Brooklyn,11228,(718) 748-6261,Yes,No,OPEN,10a-6p,1p-8p,10a-6p,10a-8p,10a-6p,10a-5p,,980907.0,163823.0,Library,
413,CC059,New Utrecht Library,1743 86 St,Brooklyn,11214,(718) 236-4086,Yes,No,OPEN,10a-6p,10a-8p,10a-8p,10a-8p,10a-6p,10a-5p,,983316.0,160792.0,Library,
414,CC150,Brookdale NSC,817 Av H,Brooklyn,11230,(718) 434-8670,Yes,No,OPEN,8a-4p,8a-4p,8a-4p,8a-4p,8a-4p,,,993032.000141,168632.000056,Senior center,
415,CC418,Sr Citizens League of Flatbush NSC,870 Ocean Pkwy,Brooklyn,11230,(718) 438-7771,Yes,Hours may be extended during a heat emergency.,OPEN,8:30a-4p,8:30a-4p,8:30a-4p,8:30a-4p,8:30a-4p,,,992653.096995,166144.831779,Senior center,
416,CC406,Ryder Library,5902 23 Av,Brooklyn,11204,(718) 331-2962,Yes,No,OPEN,10a-6p,10a-8p,10a-6p,10a-8p,10a-6p,,1p-5p,990901.611685,163670.602827,Library,
417,CC544,House of Jacob,6222 23 Av,Brooklyn,11204,(718) 259-0100,Yes,No,OPEN,9a-4p,9a-4p,9a-4p,9a-4p,9a-4p,,,990328.0,162950.0,Senior center,
418,CC152,Highlawn Library,1664 W 13 St,Brooklyn,11223,(718) 234-7208,Yes,No,OPEN,10a-6p,10a-8p,10a-6p,1p-8p,10a-6p,10a-5p,,988067.0,159941.0,Library,
419,CC374,Council Center for Senior Citizens NSC,1001 Quentin Rd,Brooklyn,11223,(718) 627-7680,Yes,Hours may be extended during a heat emergency.,OPEN,8:30a-4:30p,8:30a-4:30p,8:30a-4:30p,8:30a-4:30p,8:30a-4:30p,,,994573.000011,160798.999974,Senior center,
420,CC376,Sephardic Multi Service NSC,485 Kings Hwy,Brooklyn,11223,(718) 336-1300,Yes,No,OPEN,9a-5p,9a-5p,9a-5p,9a-5p,,,,992152.99993,159511.999924,Senior center,
421,CC154,Ocean Parkway NSC,1960 E 7 St,Brooklyn,11223,(347)962-3631 X2860,Yes,Hours may be extended during a heat emergency.,OPEN,8a-4p,8a-4p,8a-4p,8a-4p,8a-4p,,,993911.471807,158910.699945,Senior center,
422,CC493,Midwood Library,975 E 16 St,Brooklyn,11230,(718) 252-0967,Yes,No,OPEN,10a-6p,10a-8p,10a-6p,10a-8p,10a-6p,,1p-5p,995279.0,167294.0,Library,
423,CC161,Young Israel Sr Services NBH Sr Ctr,1694 Ocean Av,Brooklyn,11230,(718) 253-7800,Yes,No,OPEN,8:30a-4:30p,8:30a-4:30p,8:30a-4:30p,8:30a-4:30p,8:30a-4:30p,,8:30a-4:30p,996509.000076,165377.000005,Senior center,In basement. Entrance thru driveway.
424,CC408,Kings Highway Library,2115 Ocean Av,Brooklyn,11229,(718) 375-3037,Yes,No,OPEN,10a-6p,10a-8p,10a-8p,10a-8p,10a-6p,10a-5p,1p-5p,997269.277868,161608.67875,Library,
425,CC921,I.S. 281 Joseph B Cavallaro,8787 24 AVENUE,Brooklyn,11214,,No,Hours may be extended during a heat emergency.,OPEN,8a-6p,8a-6p,8a-6p,8a-6p,8a-6p,,,986036.0,155922.0,School,
426,CC591,Ulmer Park Library,2602 Bath Ave,Brooklyn,11214,(718) 265-3443,Yes,No,OPEN,10a-6p,10a-8p,10a-6p,1p-8p,10a-6p,10a-5p,,987402.041912,155189.043346,Library,
427,CC157,Coney Island Library,1901 Mermaid Av,Brooklyn,11224,(718) 265-3220,Yes,No,OPEN,10a-6p,10a-6p,1p-8p,10a-8p,10a-6p,10a-5p,,988081.041616,149451.140178,Library,
428,CC572,P.S. 320 Surfside,2929 West 30 Street,Brooklyn,11224,,No,Hours may be extended during a heat emergency.,OPEN,8a-6p,8a-6p,8a-6p,8a-6p,8a-6p,,,985414.056715,148647.413385,School,
429,CC779,Surfside Gardens,2950 W 25 St,Brooklyn,11224,(347) 633-1341,Yes,,OPEN,10a-6p,10a-6p,10a-6p,10a-6p,10a-6p,,,986350.07584,148493.488824,Cornerstone Program,
430,CC863,P.S. 288 The Shirley Tanyhill,2950 WEST 25 STREET,Brooklyn,11224,,No,Hours may be extended during a heat emergency.,OPEN,8a-6p,8a-6p,8a-6p,8a-6p,8a-6p,,,986362.0,148408.0,School,
431,CC156,JCCGCI ISC,3001 W 37 St ,Brooklyn,11224,(718) 449-5000 ext. 2350,Yes,Hours may be extended during a heat emergency.,OPEN,8:30a-4:30p,8:30a-4:30p,8:30a-7p,8:30a-4:30p,8:30a-4p,,,983652.99987,147949.000084,Senior center,Enter on second (2nd floor)
432,CC377,Gravesend Library,303 Av X,Brooklyn,11223,(718) 382-5792,Yes,No,OPEN,10a-6p,1p-8p,10a-6p,10a-8p,10a-6p,10a-5p,,992081.961015,154425.383938,Library,
433,CC881,P.S. 216 Arturo Toscanini,350 AVENUE X,Brooklyn,11223,,No,Hours may be extended during a heat emergency.,OPEN,8a-6p,8a-6p,8a-6p,8a-6p,8a-6p,,,992679.0,154230.0,School,
435,CC283,Jay-Harama NSC,2600 Ocean Av,Brooklyn,11229,(718) 891-1110,Yes,Hours may be extended during a heat emergency.,OPEN,8a-4p,8a-4p,8a-4p,8a-4p,8a-4p,,,997723.999943,157119.000116,Senior center,
436,CC318,Homecrest Library,2525 Coney Is Av,Brooklyn,11223,(718) 382-5924,Yes,No,OPEN,10a-6p,10a-8p,1p-8p,10a-6p,10a-6p,10a-5p,,995191.493853,156138.184821,Library,
437,CC449,Kings Bay Library,3650 Nostrand Av,Brooklyn,11229,(718) 368-1709,Yes,No,OPEN,10a-6p,10a-8p,10a-6p,1p-8p,10a-6p,10a-5p,,1000589.96066,156006.678467,Library,
438,CC491,Sheepshead Bay Library,2636 E 14 St,Brooklyn,11235,(718) 368-1815,No,No,OPEN,10a-6p,10a-6p,10a-8p,1p-8p,10a-6p,10a-5p,,996632.0,153147.0,Library,
439,CC585,Sheepshead Bay Library,2636 E 14th St,Brooklyn,11235,(718) 368-1815,No,No,OPEN,10a-6p,10a-6p,10a-8p,1p-8p,10a-6p,10a-5p,,996629.928312,153139.646855,Library,
440,CC284,Midwood Senior League NSC,1625 Ocean Avenue,Brooklyn,11230,(718) 253-0508,Yes,Hours may be extended during a heat emergency.,OPEN,9a-4p,9a-4p,9a-4p,9a-4p,9a-4p,,,996639.000144,166009.000053,Senior center,
441,CC858,I.S. 240 Andries Hudde,2500 NOSTRAND AVENUE,Brooklyn,11210,,No,Hours may be extended during a heat emergency.,OPEN,8a-6p,8a-6p,8a-6p,8a-6p,8a-6p,,,999008.0,166543.0,School,
442,CC056,Paerdegat Library,850 E 59 St,Brooklyn,11234,(718) 241-3994,Yes,No,OPEN,10a-6p,10a-8p,1p-8p,10a-6p,10a-6p,10a-5p,,1006460.0,169766.0,Library,
443,CC592,Paerdegat Library,850 E 59th St,Brooklyn,11234,(718) 241-3994,No,No,OPEN,10a-6p,10a-8p,1p-8p,10a-6p,10a-6p,10a-5p,,1006459.39783,169772.552237,Library,
444,CC845,P.S. 326,1800 UTICA AVENUE,Brooklyn,11234,,No,Hours may be extended during a heat emergency.,OPEN,8a-6p,8a-6p,8a-6p,8a-6p,8a-6p,,,1004165.0,168233.0,School,
445,CC595,Midwood NSC,2164 Ralph Av,Brooklyn,11234,(718) 253-5557,No,No,OPEN,8a-4p,8a-4p,8a-4p,8a-4p,8a-4p,,,1006975.65664,166783.488661,Senior center,
446,CC738,P.S. 203 - Brooklyn,5101 Av M,Brooklyn,11234,,No,Hours may be extended during a heat emergency.,OPEN,8a-6p,8a-6p,8a-6p,8a-6p,8a-6p,9a-5p,9a-5p,1004922.24801,165862.894046,School,
447,CC317,Flatlands Library,2065 Flatbush Av,Brooklyn,11234,(718) 253-4409,Yes,No,OPEN,10a-6p,1p-8p,10a-6p,10a-8p,10a-6p,10a-5p,,1002791.81986,165083.681694,Library,
448,CC819,P.S. 276 Louis Marshall,1070 EAST 83 STREET,Brooklyn,11236,,No,Hours may be extended during a heat emergency.,OPEN,8a-6p,8a-6p,8a-6p,8a-6p,8a-6p,,,1009663.0,170275.0,School,
449,CC087,Abe Stark NSC,10315 Farragut Rd,Brooklyn,11236,(718) 272-9515,Yes,Hours may be extended during a heat emergency.,OPEN,8a-4p,8a-4p,8a-4p,8a-4p,8a-4p,,,1012165.99993,176109.999864,Senior center,
450,CC589,Canarsie Library,1580 Rockaway Pkwy,Brooklyn,11236,(718) 257-6547,Yes,No,OPEN,10a-6p,10a-8p,10a-8p,10a-8p,10a-6p,10a-5p,,1012134.71095,173266.154502,Library,
451,CC833,P.S. 115 Daniel Mucatel School,1500 EAST  92 STREET,Brooklyn,11236,,No,Hours may be extended during a heat emergency.,OPEN,8a-6p,8a-6p,8a-6p,8a-6p,8a-6p,,,1012584.0,170597.0,School,
452,CC373,Jamaica Bay Library,9727 Seaview Av,Brooklyn,11236,(718) 241-3571,Yes,No,OPEN,10a-6p,10a-6p,1p-8p,10a-8p,10a-6p,10a-5p,,1014964.0,170450.0,Library,
453,CC088,JASA HES NSC,9502 Seaview Av,Brooklyn,11236,(718) 251-3700,Yes,No,OPEN,8a-4p,8a-4p,8a-4p,8a-4p,8a-4p,,,1014575.00003,169767.000083,Senior center,
454,CC565,Mill Basin Library,2385 Ralph Ave,Brooklyn,11234,(718) 241-3973,Yes,No,OPEN,10a-6p,10a-6p,10a-8p,1p-8p,10a-6p,10a-5p,,1007277.65144,165110.563201,Library,
455,CC911,P.S. 312 Bergen Beach,7103 AVENUE T,Brooklyn,11234,,No,Hours may be extended during a heat emergency.,OPEN,8a-6p,8a-6p,8a-6p,8a-6p,8a-6p,,,1009366.0,166067.0,School,
456,CC537,Mill Basin Senior Center,2075 E 68 St,Brooklyn,11234,(718) 444-3850,Yes,No,OPEN,8:30a-3:30p,8:30a-3:30p,8:30a-3:30p,8:30a-3:30p,8:30a-3:30p,,,1009338.0,164760.0,Senior center,
457,CC285,Marine Park Active Adults NSC,3000 Fillmore Av,Brooklyn,11234,(718) 336-0275,Yes,No,OPEN,8a-4p,8a-4p,8a-4p,8a-4p,8a-4p,,,1001616.88356,160742.998118,Senior center,
458,CC849,J.H.S. 278 Marine Park,1925 STUART STREET,Brooklyn,11229,,No,Hours may be extended during a heat emergency.,OPEN,8a-6p,8a-6p,8a-6p,8a-6p,8a-6p,,,1001280.0,160334.0,School,
459,CC859,P.S. 277 Gerritsen Beach,2529 GERRITSEN AVENUE,Brooklyn,11234,,No,Hours may be extended during a heat emergency.,OPEN,8a-6p,8a-6p,8a-6p,8a-6p,8a-6p,,,1004289.0,156358.0,School,
460,CC552,Brighton Beach,16 Brighton First Road,Brooklyn,11235,(718) 946 2917,Yes,No,OPEN,10a-6p,1p-8p,10a-8p,10a-6p,10a-6p,10a-5p,,993481.56786,149188.253725,Library,
461,CC155,JASA Senior Alliance NSC,161 Corbin Pl,Brooklyn,11235,(718) 646-4100,Yes,No,OPEN,9a-4p,9a-4p,9a-4p,9a-4p,9a-4p,,,997074.252227,149748.828177,Senior center,
462,CC617,Taylor-ÂWythe Community Center,80 Clymer St.,Brooklyn,11211,(718) 782-5553,Yes,Hours may be extended during a heat emergency.,OPEN,6p-10p,6p-10p,6p-10p,6p-10p,6p-10p,10a-5p,,993775.067552,196092.774203,Cornerstone Program,
463,CC015,Marcus Garvey,20 Amboy St,Brooklyn,11212,(718) 649-3972,No,Hours may be extended during a heat emergency.,OPEN,10a-6p,10a-6p,10a-6p,10a-6p,10a-6p,10a-5p,,1007833.64519,183359.214524,Cornerstone Program,
464,CC300,Cypress Hills Library,1197 Sutter Av,Brooklyn,11208,(718) 277-6004,Yes,No,OPEN,10a-6p,1p-8p,10a-8p,10a-6p,10a-6p,10a-5p,,1019187.0,184385.0,Library,
465,CC623,Ingersoll  Community Center,177 Myrtle Av,Brooklyn,11201,(718) 522-5051,Yes,Hours may be extended during a heat emergency.,OPEN,10a-6p,10a-6p,10a-6p,10a-6p,10a-6p,10a-5p,,989234.801698,192039.696023,Cornerstone Program,
466,CC907,P.S. 77 ANNEX - BROOKLYN,62 PARK PLACE,Brooklyn,11217,,No,Hours may be extended during a heat emergency.,OPEN,8a-6p,8a-6p,8a-6p,8a-6p,8a-6p,,,990720.0,186554.0,School,
467,CC137,Saint Gabriels NSC,331 Hawthorne St,Brooklyn,11225,(718) 773-4049,Yes,No,OPEN,9a-5p,9a-5p,9a-5p,9a-5p,9a-5p,,,998394.591778,179053.980196,Senior center,
468,CC477,Los Sures David Santiago NSC,201 South 4 St,Brooklyn,11211,(718) 384-2314,Yes,Hours may be extended during a heat emergency.,OPEN,9a-4p,9a-4p,9a-4p,9a-4p,9a-4p,,,995333.000132,198343.000017,Senior center,
469,CC424,Breukelen,715 E 105 St,Brooklyn,11236,(718) 257-0159,Yes,Hours may be extended during a heat emergency.,OPEN,10a-6p,10a-6p,10a-6p,10a-6p,10a-6p,10a-5p,,1013266.6149,175683.428546,Cornerstone Program,
470,CC379,JASA Sheuer House of Coney Isl NSC,3601 Surf Av,Brooklyn,11224,(718) 373-3954,Yes,No,OPEN,10a-6p,10a-6p,10a-6p,10a-6p,10a-6p,,,983612.605594,148275.625415,Senior center,Main entrance on W 37 St
471,CC492,O'Dwyer,2945 W 33 St,Brooklyn,11224,(718) 310-5677,Yes,Hours may be extended during a heat emergency.,OPEN,6p-10p,6p-10p,6p-10p,6p-10p,6p-10p,10a-5p,,984594.514624,148310.436186,Cornerstone Program,
472,CC628,Carey Garden Community Center,2315 Surf Avenue,Brooklyn,11224,(718) 758-5068,Yes,Hours may be extended during a heat emergency.,OPEN,10a-6p,10a-6p,10a-6p,10a-6p,10a-6p,10a-5p,,987002.998419,148552.735425,Cornerstone Program,
473,CC016,Lafayette,442 Dekalb Av,Brooklyn,11238,(347) 384-8880,Yes,Hours may be extended during a heat emergency.,OPEN,10a-6p,10a-6p,10a-6p,10a-6p,10a-6p,10a-5p,,995406.84985,190646.029115,Cornerstone Program,
474,CC378,Haber House NSC,3024 W 24 St,Brooklyn,11224,(718) 372-5775,Yes,Hours may be extended during a heat emergency.,OPEN,8:30a-4:30p,8:30a-4:30p,8:30a-4:30p,8:30a-4:30p,8:30a-4:30p,,,986779.740335,148066.422421,Senior center,
475,CC375,Marlboro NSC,2298 W 8 St,Brooklyn,11223,(718) 373-6161,Yes,Hours may be extended during a heat emergency.,OPEN,8a-4p,8a-4p,8a-4p,8a-4p,8a-4p,,,990156.282139,154901.697136,Senior center,
476,CC627,Marlboro Community Center,2298 West 8th St.,Brooklyn,11223,(718) 333-0575,Yes,Hours may be extended during a heat emergency.,OPEN,10a-6p,10a-6p,10a-6p,10a-6p,10a-6p,10a-5p,,990154.869084,154904.696146,Cornerstone Program,
477,CC490,Shore Hill NSC,9000 Shore Rd,Brooklyn,11209,(718) 630-7588,Yes,Hours may be extended during a heat emergency.,OPEN,9a-5p,9a-5p,9a-5p,9a-5p,9a-5p,,,973177.375808,165863.074492,Senior center,Entrance on 91st Street side of the building.
478,CC187,Penn Wortman NSC,895 Pennsylvania Av,Brooklyn,11207,(347) 318-3770,Yes,No,OPEN,7a-3p,7a-3p,7a-3p,7a-3p,7a-3p,,,1015348.37217,178293.994184,Senior center,
479,CC345,Penn-Wortman,895 Pennsylvania Av,Brooklyn,11207,(718) 649-1371,Yes,Hours may be extended during a heat emergency.,OPEN,10a-6p,10a-6p,10a-6p,10a-6p,10a-6p,10a-5p,,1015265.54755,178452.838159,Cornerstone Program,
480,CC839,District 20 Pre-K Center,1668 46TH STREET,Brooklyn,11204,,No,Hours may be extended during a heat emergency.,OPEN,8a-6p,8a-6p,8a-6p,8a-6p,8a-6p,,,989222.0,169304.0,School,
481,CC021,Tompkins,736 Park Av,Brooklyn,11206,(718) 420-1966,Yes,Hours may be extended during a heat emergency.,OPEN,10a-6p,10a-6p,10a-6p,10a-6p,10a-6p,10a-5p,,999229.62954,193463.533921,Cornerstone Program,
482,CC346,Boulevard,726 Stanley Av,Brooklyn,11207,(718) 272-0050,Yes,Hours may be extended during a heat emergency.,OPEN,10a-6p,10a-6p,10a-6p,10a-6p,10a-6p,10a-5p,,1017114.76255,179728.998912,Cornerstone Program,
483,CC488,Sunset Park NSC,4520 Fourth Av,Brooklyn,11220,(718) 210-1050,Yes,No,OPEN,8a-4p,8a-4p,8a-4p,8a-4p,8a-4p,,,981370.999841,175806.000144,Senior center,
484,CC017,Kingsborough,129 Kings 1st Walk,Brooklyn,11233,(718) 859-3800,Yes,Hours may be extended during a heat emergency.,OPEN,10a-6p,10a-6p,10a-6p,10a-6p,10a-6p,10a-5p,,1004514.69074,185387.386714,Cornerstone Program,
485,CC626,Albany Community Center,164 Troy Avenue,Brooklyn,11213,(718) 226-0482,Yes,Hours may be extended during a heat emergency.,OPEN,10a-6p,10a-6p,10a-6p,10a-6p,10a-6p,10a-5p,,1001792.50755,184815.27412,Cornerstone Program,
486,CC619,Sumner Community Center,862 Park Ave.,Brooklyn,11206,(718) 919-3938,No,Hours may be extended during a heat emergency.,OPEN,10a-6p,10a-6p,10a-6p,10a-6p,10a-6p,10a-5p,,1000732.00967,193638.519597,Cornerstone Program,
487,CC008,Brevoort,280 Ralph Av,Brooklyn,11233,(718) 226-0415,Yes,Hours may be extended during a heat emergency.,OPEN,10a-6p,10a-6p,10a-6p,10a-6p,10a-6p,10a-5p,,1005501.73088,186994.425854,Cornerstone Program,
488,CC320,Brownsville Houses Senior Center,528 Mother Gaston Blvd,Brooklyn,11212,(718) 345-3221 ,Yes,Hours may be extended during a heat emergency.,OPEN,9a-5p,9a-5p,9a-5p,9a-5p,9a-5p,,,1010256.44796,181884.97715,Community center,
489,CC484,Farragut NSC,228 York St,Brooklyn,11217,(718) 422-1069,No,Hours may be extended during a heat emergency.,OPEN,8a-4p,8a-4p,8a-4p,8a-4p,8a-4p,,,989345.122344,194565.966889,Senior center,
490,CC622,Farragut Community Center,228 York St.,Brooklyn,11201,(347) 529-6216,Yes,Hours may be extended during a heat emergency.,OPEN,10a-6p,10a-6p,10a-6p,10a-6p,10a-6p,10a-5p,,989336.511469,194559.93278,Cornerstone Program,
491,CC144,Tilden NSC,630 Mother Gaston Blvd,Brooklyn,11212,(718) 498-2990,Yes,No,OPEN,9a-5p,9a-5p,9a-5p,9a-5p,9a-5p,,,1010386.94804,180997.56358,Senior center,
492,CC439,Tilden,630 Mother Gaston Blvd,Brooklyn,11212,(718) 485-4970,Yes,Hours may be extended during a heat emergency.,OPEN,6p-10p,6p-10p,6p-10p,6p-10p,6p-10p,10a-5p,,1010370.85465,180988.711965,Cornerstone Program,
493,CC380,JASA ShoreFront NSC,3300 Coney Island Av,Brooklyn,11235,(718) 646-1444 X312,Yes,No,OPEN,9a-4p,9a-5p,9a-5p,9a-5p,9a-5p,,,995367.255969,148989.970443,Senior center,
494,CC158,JASA Manhattan Beach NSC,60 West End Av,Brooklyn,11235,(718) 646-1118,Yes,No,OPEN,8a-4p,8a-4p,8a-4p,8a-4p,8a-4p,,,997067.653815,150661.131142,Senior center,
495,CC632,Pink Houses Community Center,2702 Linden Blvd.,Brooklyn,11208,(718) 226-0483,Yes,Hours may be extended during a heat emergency.,OPEN,10a-6p,10a-6p,10a-6p,10a-6p,10a-6p,10a-5p,,1021821.22209,182953.063606,Cornerstone Program,
496,CC642,Ft. Greene Teresa Moore NSC,2702 Linden Blvd,Brooklyn,11208,(347) 663-7770,Yes,No,OPEN,8a-4p,8a-4p,8a-4p,8a-4p,8a-4p,,,1021821.22209,182953.063606,Senior center,
497,CC440,Seth Low,137 Belmont Av,Brooklyn,11212,(718) 495-8301,Yes,Hours may be extended during a heat emergency.,OPEN,10a-6p,10a-6p,10a-6p,10a-6p,10a-6p,10a-5p,,1010462.10833,183194.774863,Cornerstone Program,
498,CC232,Clarendon Library,2035 Nostrand Av,Brooklyn,11210,(718) 421-1159,Yes,No,OPEN,10a-6p,1p-8p,10a-8p,10a-6p,10a-6p,10a-5p,,998784.082604,170897.94578,Library,
499,CC143,Van Dyke NSC,430 Dumont Av,Brooklyn,11212,(718) 385-1110,Yes,Hours may be extended during a heat emergency.,OPEN,8a-4:30p,8a-4:30p,8a-4:30p,8a-4:30p,8a-4:30p,,,1011141.97343,181469.107256,Senior center,
500,CC146,Rosetta Gaston NSC,460 Dumont Av,Brooklyn,11212,(718) 345-5665,Yes,Hours may be extended during a heat emergency.,OPEN,9a-5p,9a-5p,9a-5p,9a-5p,9a-5p,,,1011380.07827,181559.777678,Senior center,
501,CC279,Boro Park YM-YWHA NSC,4912 14 Av,Brooklyn,11219,(718) 435-3804,Yes,No,OPEN,9a-4p,9a-4p,9a-4p,9a-4p,9a-4p,,,986871.999993,170071.000131,Senior center,
502,CC427,Glenwood,5816 Farragut Rd,Brooklyn,11234,(347) 492-4813,Yes,Hours may be extended during a heat emergency.,OPEN,10a-6p,10a-6p,10a-6p,10a-6p,10a-6p,10a-5p,,1006309.95176,171170.15918,Cornerstone Program,
503,CC090,CCNS Glenwood NSC,5701 Avenue H,Brooklyn,11234,(718) 241-7711,Yes,Hours may be extended during a heat emergency.,OPEN,8a-4p,8a-4p,8a-4p,8a-4p,8a-4p,,,1005985.62253,170149.245053,Senior center,
504,CC271,Cooper Park,76 Kingsland Av,Brooklyn,11211,(929) 266-0817,Yes,Hours may be extended during a heat emergency.,OPEN,10a-6p,10a-6p,10a-6p,10a-6p,10a-6p,10a-5p,,1000868.95086,200972.012578,Cornerstone Program,
505,CC438,CCNS Pete McGuinness NSC,715 Leonard St,Brooklyn,11222,(718) 383-1940,Yes,No,OPEN,8a-4p,8a-4p,8a-4p,8a-4p,8a-4p,,,997277.162582,204855.642504,Senior center,
506,CC132,Willoughby NSC,105 North Portland Av,Brooklyn,11205,(718) 875-1011,Yes,No,OPEN,8a-4p,8a-4p,8a-4p,8a-4p,8a-4p,,,990941.058128,192461.088225,Senior center,
508,CC482,Wyckoff Gardens NSC,280 Wyckoff St,Brooklyn,11217,(718) 237-1802,Yes,Hours may be extended during a heat emergency.,OPEN,8a-4p,8a-4p,8a-4p,8a-4p,8a-4p,,,988822.057445,188088.134044,Senior center,
509,CC560,Raices Gowanus NSC,420 Baltic St,Brooklyn,11201,(718) 797-2472,Yes,Hours may be extended during a heat emergency.,OPEN,10a-2p,10a-2p,10a-2p,10a-2p,10a-2p,,,987320.0,188075.0,Senior center,
510,CC344,Unity Plaza,576 Blake Av,Brooklyn,11207,(347) 425-9349,Yes,Hours may be extended during a heat emergency.,OPEN,10a-6p,10a-6p,10a-6p,10a-6p,10a-6p,10a-5p,,1012617.54475,182302.633758,Cornerstone Program,
511,CC633,Cypress Community Center,475 Fountain Ave.,Brooklyn,11208,(718) 226-0484,Yes,Hours may be extended during a heat emergency.,OPEN,10a-6p,10a-6p,10a-6p,10a-6p,10a-6p,10a-5p,,1019609.74095,182828.432949,Cornerstone Program,
512,CC148,BCA 6 Avenue NSC,545 60 St,Brooklyn,11220,(718) 567-9311,No,No,OPEN,8:30a-4:30p,8:30a-4:30p,8:30a-4:30p,8:30a-4:30p,8:30a-4:30p,,,980065.937162,172198.697975,Senior center,
513,CC370,Prospect Hill NSC,283 Prospect Av,Brooklyn,11215,(718) 499-9574,Yes,Hours may be extended during a heat emergency.,OPEN,8a-4p,8a-4p,8a-4p,8a-4p,8a-4p,,,987365.99999,181020.999884,Senior center,
514,CC620,Bushwick Community Center,50 Humboldt St.,Brooklyn,11206,(718) 453-8116,Yes,Hours may be extended during a heat emergency.,OPEN,6p-10p,6p-10p,6p-10p,6p-10p,6p-10p,10a-5p,,1000777.70906,195455.683285,Cornerstone Program,
515,CC828,P.S. 058 The Carroll,131 UNION STREET,Brooklyn,11231,,No,Hours may be extended during a heat emergency.,OPEN,8a-6p,8a-6p,8a-6p,8a-6p,8a-6p,,,983564.0,188648.0,School,
516,CC479,Saratoga Square Senior Center,930 Halsey St,Brooklyn,11233,(347) 425-0676,Yes,Hours may be extended during a heat emergency.,OPEN,9a-5p,9a-5p,9a-5p,9a-5p,9a-5p,,,1007309.04147,188993.072195,Senior center,
517,CC621,Red Hook East/Miccio Community Center,110 West 9th Street,Brooklyn,10011,(718) 243-1528,Yes,Hours may be extended during a heat emergency.,OPEN,10a-6p,10a-6p,10a-6p,10a-6p,10a-6p,10a-5p,,983582.862215,185460.168828,Cornerstone Program,
518,CC481,RAICES Red Hook Neighborhood Center,120 W 9 St,Brooklyn,11231,(917) 769-7518,Yes,Hours may be extended during a heat emergency.,OPEN,9a-5p,9a-5p,9a-5p,9a-5p,9a-5p,,,983694.015208,185436.596368,Senior center,
519,CC272,Roosevelt II,400 Hart St,Brooklyn,11206,(718) 919-5623,Yes,Hours may be extended during a heat emergency.,OPEN,10a-6p,10a-6p,10a-6p,10a-6p,10a-6p,10a-5p,,1002382.29167,192278.229167,Cornerstone Program,
520,CC413,Maria Lawton NSC,400 Hart St,Brooklyn,11206,(718) 452-7474,Yes,No,OPEN,8a-4p,8a-4p,8a-4p,8a-4p,8a-4p,,,1002365.92143,192272.484927,Senior center,
521,CC010,Williams Plaza,321 Roebling St,Brooklyn,11211,(718) 408-6792,Yes,Hours may be extended during a heat emergency.,OPEN,10a-6p,10a-6p,10a-6p,10a-6p,10a-6p,10a-5p,,995163.446159,197283.256028,Cornerstone Program,
522,CC601,CCNS Narrows NSC,930 53rd St.,Brooklyn,11219,(718) 232-3211,No,No,OPEN,8a-4p,8a-4p,8a-4p,8a-4p,8a-4p,,,983491.454261,171521.408647,Senior center,
523,CC186,JASA Starrett City NSC,1540 Van Siclen Av,Brooklyn,11239,(718) 642-1010,Yes,No,OPEN,8a-3p,8a-3p,8a-3p,8a-3p,8a-3p,,,1018121.95127,175216.09614,Senior center,
524,CC160,Gerritsen Beach Library,2808 Gerritsen Av,Brooklyn,11229,(718) 368-1435,Yes,No,OPEN,10a-6p,1p-8p,10a-6p,10a-8p,10a-6p,10a-5p,,1005374.89752,154736.894404,Library,
525,CC494,Sheepshead/Nostrand,3679 Nostrand Av,Brooklyn,11229,(718) 226-0429,Yes,Hours may be extended during a heat emergency.,OPEN,10a-6p,10a-6p,10a-6p,10a-6p,10a-6p,10a-5p,,1000806.56184,155798.012908,Cornerstone Program,
526,CC162,CCNS the Bay NSC,3643 Nostrand Av,Brooklyn,11229,(718) 648-2053,Yes,No,OPEN,8a-4p,8a-4p,8a-4p,8a-4p,8a-4p,,,1000762.21171,156113.095304,Senior center,
527,CC368,JASA Williamsburg NSC,202 Graham Av,Brooklyn,11206,(718) 388-6865,Yes,No,OPEN,8a-4p,8a-4p,8a-4p,8a-4p,8a-4p,,,999975.822539,197644.403317,Senior center,
528,CC727,P.S. 24 - Brooklyn,427 38 St,Brooklyn,11232,,No,Hours may be extended during a heat emergency.,OPEN,8a-6p,8a-6p,8a-6p,8a-6p,8a-6p,9a-5p,9a-5p,982990.451982,177111.073977,School,
529,CC625,Howard Community Center,90 Watkins Street,Brooklyn,11212,(718) 266-0485,Yes,Hours may be extended during a heat emergency.,OPEN,10a-6p,10a-6p,10a-6p,10a-6p,10a-6p,10a-5p,,1009585.02675,183707.150024,Cornerstone Program,
530,CC020,Langston Hughes,301 Sutter Av,Brooklyn,11212,(917) 893-8215,Yes,Hours may be extended during a heat emergency.,OPEN,10a-6p,10a-6p,10a-6p,10a-6p,10a-6p,10a-5p,,1009488.93932,182563.26905,Cornerstone Program,
531,CC557,Langston Hughes Senior Center,301 Sutter Avenue,Brooklyn,11212,(718) 498-7752,Yes,Hours may be extended during a heat emergency.,OPEN,9a-5p,9a-5p,9a-5p,9a-5p,9a-5p,,,1009487.52957,182517.95424,Senior center,
532,CC185,Vandalia NSC,47 Vandalia Av,Brooklyn,11239,(718) 272-3949,Yes,No,OPEN,8a-4p,8a-4:30p,8a-4p,8a-4:30p,8a-4p,,,1015587.99998,176154.000104,Senior center,
533,CC909,Parkside Preparatory Academy,655 PARKSIDE AVENUE,Brooklyn,11225,,No,Hours may be extended during a heat emergency.,OPEN,8a-6p,8a-6p,8a-6p,8a-6p,8a-6p,,,997704.0,178431.0,School,
534,CC133,Ridgewood Bushwick ISC (Diana H. Jones),9 Noll St,Brooklyn,11206,(718) 782-3601,Yes,Hours may be extended during a heat emergency.,OPEN,8a-4p,8a-4p,8a-4p,8a-4p,8a-4p,,,1002004.99991,194470.999887,Senior center,
535,CC624,Bayview Community Center,5955 Shore Parkway,Brooklyn,11236,(718) 968-9621,Yes,Hours may be extended during a heat emergency.,OPEN,10a-6p,10a-6p,6p-10p,6p-10p,10a-6p,10a-5p,,1016226.59581,169672.236493,Cornerstone Program,
536,CC597,Hope Gardens Multi Service NSC,195 Linden St.,Brooklyn,11221,(718) 455-1100,No,No,OPEN,8a-4p,8a-4p,8a-4p,8a-4p,8a-4p,,,1007210.80873,192661.92739,Senior center,
537,CC441,Van Dyke I,392 Blake Av,Brooklyn,11212,(347) 295-2054,Yes,Hours may be extended during a heat emergency.,OPEN,6p-10p,6p-10p,6p-10p,6p-10p,6p-10p,10a-5p,,1010738.42833,181950.671901,Cornerstone Program,
538,CC892,P.S. 370,50 AVENUE P,Brooklyn,11223,,No,Hours may be extended during a heat emergency.,OPEN,8a-6p,8a-6p,8a-6p,8a-6p,8a-6p,,,987934.0,160366.0,School,
539,CC910,P.S. 065,696 JAMAICA AVENUE,Brooklyn,11208,,No,Hours may be extended during a heat emergency.,OPEN,8a-6p,8a-6p,8a-6p,8a-6p,8a-6p,,,1018027.0,189534.0,School,
540,CC523,Fort Hamilton Recreation Center,9941 Fort Hamilton Pkwy,Brooklyn,11209,(718) 439-4296,Yes,No,OPEN,9a-5p,9a-5p,9a-5p,9a-5p,9a-5p,9a-5p,,975458.460294,162181.526086,Community center,
541,CC275,CCNS Riverway ISC,230 Riverdale Av,Brooklyn,11212,(718) 942-5345,Yes,Hours may be extended during a heat emergency.,OPEN,8:30a-4:30p,8:30a-4:30p,8:30a-4:30p,8:30a-4:30p,8:30a-4:30p,,,1009777.17072,180084.645458,Senior center,
542,CC342,Kensington Library,4207 18th Av,Brooklyn,11218,(718) 436-0545,Yes,No,OPEN,10a-6p,10a-8p,10a-6p,1p-8p,10a-6p,10a-5p,,991077.847041,169277.231558,Library,
543,CC199,CPC Queens Nan Shan NSC,133-14 41 Avenue,Queens,11354,(718) 358-3030,Yes,No,OPEN,8a-4p,8a-4p,8a-4p,8a-4p,8a-4p,,,1030992.06385,215186.880236,Senior center,
544,CC512,Sunnyside Library,43-06 Greenpoint Av,Queens,11104,(718) 784-3033,Yes,No,OPEN,9a-8p,1p-6p,10a-6p,12p-8p,10a-6p,10a-5p,,1005952.0,209179.0,Library,
545,CC239,Astoria Library,14-01 Astoria Blvd,Queens,11102,(718) 278-2220,No,No,OPEN,12p-8p,1p-6p,10a-6p,12p-8p,10a-6p,10a-5p,,1003981.0,220678.0,Library,
546,CC210,Raices Astoria NSC,21-21 30 Drive,Queens,11102,(718) 726-9642,Yes,Hours may be extended during a heat emergency.,OPEN,8a-4p,8a-4p,8a-4p,8a-4p,8a-4p,,,1004141.74925,219159.758909,Senior center,
547,CC209,CCNS Dellamonica-Steinway NSC,23-56 Broadway,Queens,11106,(718) 626-1500,Yes,Hours may be extended during a heat emergency.,OPEN,8a-4p,8a-4p,8a-4p,8a-4p,8a-4p,,,1003970.99992,217386.999987,Senior center,
548,CC327,Broadway Library,40-20 Broadway,Queens,11103,(718) 721-2462,Yes,No,OPEN,9a-8p,1p-6p,10a-6p,12p-8p,10a-6p,10a-5p,,1006783.0,215619.0,Library,
549,CC329,Astoria Corps Comm Center,45-18 Broadway,Queens,11103,(718) 721-9046,Yes,Hours may be extended during a heat emergency.,OPEN,9:30a-5:30p,9:30a-5:30p,9:30a-5:30p,9:30a-5:30p,9:30a-5:30p,,,1007896.0,214943.0,Community center,
550,CC882,P.S. Q255,35-59 81ST STREET,Queens,11372,,No,Hours may be extended during a heat emergency.,OPEN,8a-6p,8a-6p,8a-6p,8a-6p,8a-6p,,,1016163.0,212519.0,School,
551,CC061,Jackson Heights Library,35-51 81 St,Queens,11372,(718) 899-2500,Yes,No,OPEN,9a-8p,1p-6p,10a-6p,12p-8p,10a-6p,10a-5p,,1016096.0,212610.0,Library,
552,CC914,P.S. 069 Jackson Heights,77-02 37 AVENUE,Queens,11372,,No,Hours may be extended during a heat emergency.,OPEN,8a-6p,8a-6p,8a-6p,8a-6p,8a-6p,,,1015157.0,212106.0,School,
553,CC023,Woodside Library,54-22 Skillman Av,Queens,11377,(718) 429-4700,Yes,No,OPEN,12p-8p,1p-6p,10a-6p,12p-8p,10a-6p,10a-5p,,1009232.0,210833.0,Library,
554,CC871,I.S. 227 Louis Armstrong,32-02 JUNCTION BOULEVARD,Queens,11369,,No,Hours may be extended during a heat emergency.,OPEN,8a-6p,8a-6p,8a-6p,8a-6p,8a-6p,,,1018991.0,215326.0,School,
555,CC163,Elmhurst Jackson Heights NSC,75-01 Broadway ,Queens,11373,(718) 478-7171,Yes,No,OPEN,8a-4p,8a-4p,8a-4p,8a-4p,8a-4p,,,1014747.00002,211227.999838,Senior center,3rd Floor
556,CC496,Elmcor's Golden Phoenix Club Two,95-18 Northern Blvd,Queens,11372,(718) 271-1222,No,No,OPEN,9a-5p,9a-5p,9a-5p,9a-5p,9a-5p,,,1019599.32561,214953.965155,Senior center,
557,CC384,Florence E Smith NSC,102-19 34 Av,Queens,11368,(718) 899-0553,Yes,Hours may be extended during a heat emergency.,OPEN,8a-4p,8a-4p,8a-4p,8a-4p,8a-4p,,,1021419.00012,214740.000032,Senior center,
558,CC383,Elmcor NSC,98-19 Astoria Blvd,Queens,11368,(718) 457-9757,Yes,Hours may be extended during a heat emergency.,OPEN,9a-5p,9a-5p,9a-5p,9a-5p,9a-5p,,,1022662.0,215195.0,Senior center,
559,CC166,Corona Library,38-23 104 St,Queens,11368,(718) 426-2844,No,No,OPEN,12p-8p,1p-6p,10a-6p,12p-8p,10a-6p,10a-5p,,1022471.0,212869.0,Library,
560,CC167,LeFrak City Library,98-30 57 Avenue,Queens,11368,(718) 592-7677,Yes,No,OPEN,12p-8p,1p-6p,10a-6p,12p-8p,10a-6p,10a-5p,,1022586.0,207986.0,Library,
561,CC290,Rego Park NSC,93-29 Queens Blvd,Queens,11374,(718) 896-8511,Yes,No,OPEN,9a-4p,9a-4p,9a-4p,9a-4p,9a-4p,,,1021507.70927,205895.63944,Senior center,
562,CC905,P.S. 206 The Horace Harding School,61-21 97 PLACE,Queens,11374,,No,Hours may be extended during a heat emergency.,OPEN,8a-6p,8a-6p,8a-6p,8a-6p,8a-6p,,,1022779.0,206747.0,School,
563,CC168,Forest Hills Library,108-19 71 Av,Queens,11375,(718) 268-7934,Yes,No,OPEN,9a-8p,1p-6p,10a-6p,12p-8p,10a-6p,10a-5p,,1027759.0,202392.0,Library,
564,CC811,Queens Borough Hall Atrium,120-55 Queens Blvd,Queens,11415,(347) 245-4360,No,,OPEN,9a-5p,9a-5p,9a-5p,9a-5p,9a-5p,,,1031933.0,199455.0,Other,
565,CC171,Newtown Italian NSC,83-20 Queens Blvd,Queens,11373,(718) 335-7272,Yes,Hours may be extended during a heat emergency.,OPEN,9a-4p,9a-4p,9a-4p,9a-4p,9a-4p,,,1017575.99994,207735.999932,Senior center,
566,CC291,Selfhelp Maspeth NSC,69-61 Grand Av,Queens,11378,(718) 429-3636,Yes,No,OPEN,8:30a-4p,8:30a-4p,8:30a-4p,8:30a-4p,8:30a-4p,,,1013713.00012,204241.000032,Senior center,
567,CC902,P.S. 153 Maspeth Elem,60-02 60 LANE,Queens,11378,,No,Hours may be extended during a heat emergency.,OPEN,8a-6p,8a-6p,8a-6p,8a-6p,8a-6p,,,1010740.0,200259.0,School,
568,CC387,Rego Park Library,91-41 63 Dr,Queens,11374,(718) 459-5140,Yes,No,OPEN,12p-8p,1p-6p,10a-6p,12p-8p,10a-6p,10a-5p,,1021800.0,204280.0,Library,
569,CC064,North Forest Park Library,98-27 Metropolitan Av,Queens,11375,(718) 261-5512,Yes,No,OPEN,12p-8p,1p-6p,10a-6p,12p-8p,10a-6p,10a-5p,,1024813.0,198403.0,Library,
570,CC289,Young Israel Forest Hills NSC,68-07 Burns St,Queens,11375,(718) 520-2305,Yes,No,OPEN,8:30a-4:30p,8:30a-4:30p,8:30a-4:30p,8:30a-4:30p,8:30a-1:30p,,,1025339.00016,202227.000123,Senior center,
571,CC066,Selfhelp Austin Street NSC,106-06 Queens Blvd,Queens,11375,(718) 520-8197,Yes,No,OPEN,8:30a-4p,8:30a-4p,8:30a-4p,8:30a-4p,8:30a-4p,,,1026524.00009,202259.000059,Senior center,
572,CC286,Ridgewood Library,20-12 Madison St,Queens,11385,(718) 821-4770,Yes,No,OPEN,9a-8p,1p-6p,10a-6p,12p-8p,10a-6p,10a-5p,,1011264.0,196206.0,Library,
573,CC170,Ridgewood Older Adult NSC,59-14 70 Av,Queens,11385,(718) 456-2000,Yes,Hours may be extended during a heat emergency.,OPEN,9a-4p,9a-4p,9a-4p,9a-4p,9a-4p,,,1012063.00014,194708.000069,Senior center,
574,CC067,Peter Cardella NSC,68-52 Fresh Pond Rd,Queens,11385,(718) 497-2908,Yes,Hours may be extended during a heat emergency.,OPEN,8a-4p,8a-4p,8a-4p,8a-4p,8a-4p,,,1013095.00004,195657.00014,Senior center,2nd Floor
575,CC065,Ridgewood Citadel Corps Comm Center,69-23 Cypress Hills St,Queens,11385,(718) 497-4356,No,Hours may be extended during a heat emergency.,OPEN,9a-3p,9a-5p,9a-3p,9a-3p,9a-3p,,,1013483.88782,195411.07664,Community center,
576,CC288,Middle Village NSC,69-10 75 St,Queens,11379,(718) 894-3441,No,Hours may be extended during a heat emergency.,OPEN,8a-4p,8a-4p,8a-4p,8a-4p,8a-4p,,,1018368.99999,197686.000019,Senior center,
577,CC826,P.S. 129 Patricia Larkin,128-02 7 AVENUE,Queens,11356,,No,Hours may be extended during a heat emergency.,OPEN,8a-6p,8a-6p,8a-6p,8a-6p,8a-6p,,,1028692.0,227108.0,School,
578,CC198,Hanac Angelo Petromelis NSC,13-28 123 St,Queens,11356,(718) 961-0344,Yes,Hours may be extended during a heat emergency.,OPEN,8:30a-7p,8:30a-7p,8:30a-7p,8:30a-7p,8:30a-7p,,,1027157.00013,225598.999967,Senior center,
579,CC192,Poppenhusen Library,121-23 14 Av,Queens,11356,(718) 359-1102,Yes,No,OPEN,12p-8p,1p-6p,10a-6p,12p-8p,10a-6p,10a-5p,,1026875.91012,225756.0,Library,
580,CC868,P.S. 214 Cadwallader Colden,31-15 140 STREET,Queens,11354,,No,Hours may be extended during a heat emergency.,OPEN,8a-6p,8a-6p,8a-6p,8a-6p,8a-6p,,,1031978.0,219931.0,School,
581,CC832,P.S. 079 Francis Lewis,147-27 15 DRIVE,Queens,11357,,No,Hours may be extended during a heat emergency.,OPEN,8a-6p,8a-6p,8a-6p,8a-6p,8a-6p,,,1034833.0,225764.0,School,
582,CC392,Whitestone Library,151-10 14 Rd,Queens,11357,(718) 767-8010,Yes,No,OPEN,12p-8p,1p-6p,10a-6p,12p-8p,10a-6p,10a-5p,,1036687.0,226617.0,Library,
583,CC505,Flushing Corps Comm Center,142-50 32 Av,Queens,11354,(347) 844-3466,Yes,Hours may be extended during a heat emergency.,OPEN,,9a-4p,9a-4p,9a-4p,9a-4p,,,1032785.27702,219463.15594,Community center,
584,CC193,Flushing Library,41-17 Main St,Queens,11355,(718) 661-1200,Yes,No,OPEN,9a-9p,9a-9p,9a-9p,9a-9p,9a-7p,10a-5p,12p-5p,1031650.0,215412.0,Library,
585,CC196,Selfhelp ISC,45-25 Kissena Blvd,Queens,11355,(718) 886-5777,Yes,Hours may be extended during a heat emergency.,OPEN,8:30a-4p,8:30a-4p,8:30a-4p,8:30a-4p,8:30a-4p,8:30a-4p,,1034191.8545,213236.198249,Senior center,
586,CC841,P.S. 032 State Street,171-11 35 AVENUE,Queens,11358,,No,Hours may be extended during a heat emergency.,OPEN,8a-6p,8a-6p,8a-6p,8a-6p,8a-6p,,,1041223.0,218221.0,School,
587,CC877,I.S. 025 Adrien Block,34-65 192 STREET,Queens,11358,,No,Hours may be extended during a heat emergency.,OPEN,8a-6p,8a-6p,8a-6p,8a-6p,8a-6p,,,1042552.0,218050.0,School,
588,CC393,McGoldrick Library,155-06 Roosevelt Av,Queens,11354,(718) 461-1616,Yes,No,OPEN,12p-8p,1p-6p,10a-6p,12p-8p,10a-6p,10a-5p,,1036937.0,217580.0,Library,
589,CC077,East Flushing Library,196-36 Northern Blvd,Queens,11358,(718) 357-6643,Yes,No,OPEN,12p-8p,1p-6p,10a-6p,12p-8p,10a-6p,10a-5p,,1044014.0,215342.0,Library,
590,CC076,Auburndale-Clearview Library,25-55 Francis Lewis Blvd,Queens,11358,(718) 352-2027,Yes,No,OPEN,12p-8p,1p-6p,10a-6p,12p-8p,10a-6p,10a-5p,,1040654.0,221228.0,Library,
591,CC194,Selfhelp Clearview NSC,208-11 26 Av,Queens,11360,(718) 224-7888,Yes,Hours may be extended during a heat emergency.,OPEN,8:30a-4p,8:30a-4p,8:30a-4p,8:30a-4p,8:30a-4p,,,1044224.72485,222356.185587,Senior center,
592,CC078,Bay Terrace Library,18-36 Bell Blvd,Queens,11360,(718) 423-7004,Yes,No,OPEN,12p-8p,1p-6p,10a-6p,12p-8p,10a-6p,10a-5p,,1046013.0,224422.0,Library,
593,CC900,P.S. 120 Queens,58-01 136 STREET,Queens,11355,,No,Hours may be extended during a heat emergency.,OPEN,8a-6p,8a-6p,8a-6p,8a-6p,8a-6p,,,1031722.0,210824.0,School,
594,CC549,Queensboro Hill Library,60-05 Main Street,Queens,11355,(718) 359-8332,Yes,No,OPEN,12p-8p,1p-6p,10a-6p,12p-8p,10a-6p,10a-5p,,1032695.09831,209994.706701,Library,
595,CC292,Kew Gardens Hills Library,71-34 Main St,Queens,11367,(718) 261-6654,Yes,No,OPEN,12p-8p,1p-6p,10a-6p,12p-8p,10a-6p,,12p-5p,1033505.01853,204152.919391,Library,
596,CC497,Young Israel Queens Valley NSC,141-55 77 Av ,Queens,11367,(718) 263-6995,Yes,Hours may be extended during a heat emergency.,OPEN,9a-4p,9a-4p,9a-4p,9a-4p,9a-4p,,,1034303.99995,202176.999895,Senior center,Located in the Basement
597,CC836,P.S. 163 Flushing Heights,159-01 59 AVENUE,Queens,11365,,No,Hours may be extended during a heat emergency.,OPEN,8a-6p,8a-6p,8a-6p,8a-6p,8a-6p,,,1037242.0,209339.0,School,
598,CC173,Hillcrest Library,187-05 Union Turnpike,Queens,11366,(718) 454-2786,Yes,No,OPEN,9a-8p,1p-6p,10a-6p,12p-8p,10a-6p,10a-5p,,1044689.0,205029.0,Library,
599,CC301,Bayside Library,214-20 Northern Blvd,Queens,11361,(718) 229-1834,Yes,No,OPEN,9a-8p,1p-6p,10a-6p,12p-8p,10a-6p,10a-5p,,1048413.0,216287.0,Library,
600,CC852,P.S. 162 John Golden,201-02 53 AVENUE,Queens,11364,,No,Hours may be extended during a heat emergency.,OPEN,8a-6p,8a-6p,8a-6p,8a-6p,8a-6p,,,1046155.0,212019.0,School,
601,CC303,CCNS Bayside NSC,221-15 Horace Harding Exwy,Queens,11364,(718) 225-1144,Yes,No,OPEN,8a-4p,8a-4p,8a-4p,8a-4p,8a-4p,9:30a-4p,,1051649.00003,212566.000115,Senior center,
602,CC904,J.H.S. 074 Nathaniel Hawthorne,61-15 OCEANIA STREET,Queens,11364,,No,Hours may be extended during a heat emergency.,OPEN,8a-6p,8a-6p,8a-6p,8a-6p,8a-6p,,,1048910.0,210670.0,School,
603,CC551,Windsor Park Library,79-50 Bell Boulevard,Queens,11364,(718) 468-8300,Yes,No,OPEN,12p-8p,1p-6p,10a-6p,12p-8p,10a-6p,10a-5p,,1051958.40238,206964.378765,Library,
604,CC503,Douglaston-Little Neck Library,249-01 Northern Blvd,Queens,11362,(718) 225-8414,No,No,OPEN,12p-8p,1p-6p,10a-6p,12p-8p,10a-6p,10a-5p,,1056779.0,219229.0,Library,
605,CC504,North Hills Library,57-04 Marathon Pkwy,Queens,11362,(718) 225-3550,No,No,OPEN,12p-8p,1p-6p,10a-6p,12p-8p,10a-6p,10a-5p,,1058554.0,216055.0,Library,
606,CC195,Samuel Field NSC,58-20 Little Neck Pkwy,Queens,11362,(718) 225-6750,Yes,No,OPEN,8a-6p,8a-6p,8a-6p,8a-6p,8a-6p,,,1060912.95165,216576.582645,Senior center,
607,CC295,Bellerose Library,250-06 Hillside Av,Queens,11426,(718) 831-8644,Yes,No,OPEN,12p-8p,1p-6p,10a-6p,12p-8p,10a-6p,10a-5p,,1062647.0,207233.0,Library,
608,CC181,Woodhaven Library,85-41 Forest Pkwy,Queens,11421,(718) 849-1010,Yes,No,OPEN,12p-8p,1p-6p,10a-6p,12p-8p,10a-6p,10a-5p,,1022662.0,192339.0,Library,
609,CC189,CCNS Woodhaven Richmond Hill NSC,89-02 91 St,Queens,11421,(718) 847-9200,Yes,No,OPEN,8:30a-4:30p,8:30a-4:30p,8:30a-4:30p,8:30a-4:30p,8:30a-4:30p,,,1024951.99995,190855.999899,Senior center,
610,CC183,Ozone Park Library,92-24 Rockaway Blvd,Queens,11417,(718) 845-3127,Yes,No,OPEN,12p-8p,1p-6p,10a-6p,12p-8p,10a-6p,10a-5p,,1026826.0,187376.0,Library,
611,CC799,P.S. 254 - The Rosa Parks School,84-40 101 STREET,Queens,11418,,No,Hours may be extended during a heat emergency.,OPEN,8a-6p,8a-6p,8a-6p,8a-6p,8a-6p,,,1026432.0,193317.0,School,
612,CC388,Richmond Hill Library,118-14 Hillside Av,Queens,11418,(718) 849-7150,No,No,OPEN,12p-8p,1p-6p,10a-6p,12p-8p,10a-6p,10a-5p,,1030935.0,194626.0,Library,
613,CC190,CCNS Ozone Park NSC,103-02 101 Av,Queens,11416,(718) 847-2100,Yes,No,OPEN,8a-4p,8a-4p,8a-4p,8a-4p,8a-4p,,,1028803.00012,189093.000145,Senior center,Entrance on 103rd Street
614,CC389,Lefferts Library,103-34 Lefferts Blvd,Queens,11419,(718) 843-5950,No,No,OPEN,9a-8p,1p-6p,10a-6p,12p-8p,10a-6p,10a-5p,,1032833.0,189571.0,Library,
615,CC069,Briarwood Library,85-12 Main St,Queens,11435,(718) 658-1680,No,No,OPEN,12p-8p,1p-6p,10a-6p,12p-8p,10a-6p,10a-5p,,1034302.10071,198000.761779,Library,
616,CC922,P.S. 082 Hammond,88-02 144 STREET,Queens,11435,,No,Hours may be extended during a heat emergency.,OPEN,8a-6p,8a-6p,12p-3p,8a-6p,8a-6p,,,1036320.0,195780.0,School,
617,CC297,Jamaica Citadel Corps Comm Center,90-23 161 St,Queens,11432,(862) 438-1598,Yes,Hours may be extended during a heat emergency.,OPEN,,8:30a-4:30p,8:30a-4:30p,8:30a-4:30p,8:30a-4:30p,,,1040053.0,196162.0,Community center,
618,CC070,Central Library,89-11 Merrick Blvd,Queens,11411,(718) 990-0700,Yes,No,OPEN,9a-9p,9a-9p,9a-9p,9a-9p,9a-7p,10a-5p,12p-5p,1041166.0,197224.0,Library,
619,CC777,CCNS Hillcrest NSC,168-01 Hillside Av,Queens,11432,718-297-7171,Yes,No,OPEN,8:30a-4:30p,8:30a-4:30p,8:30a-4:30p,8:30a-4:30p,8:30a-4:30p,,,1041186.0,198161.0,Senior center,
620,CC923,I.S. 238 - Susan B. Anthony Academy,88-15 182 STREET,Queens,11423,,No,Hours may be extended during a heat emergency.,OPEN,8a-6p,7a-10p,3p-6p,8a-6p,8a-6p,,,1045329.0,199051.0,School,
621,CC598,Theodora Jackson NSC,92-47 165th St.,Queens,11433,(718) 657-6618,Yes,No,OPEN,8:30a-4:30p,8:30a-4:30p,8:30a-4:30p,8:30a-4:30p,8:30a-4:30p,,,1041505.99932,196010.504682,Senior center,
622,CC499,Hollis Library,202-05 Hillside Av,Queens,11423,(718) 465-7355,Yes,No,OPEN,12p-8p,1p-6p,10a-6p,12p-8p,10a-6p,10a-5p,,1050144.0,201717.0,Library,
623,CC180,JASA Holliswood NSC,86-25 Francis Lewis Blvd,Queens,11427,(718) 454-6157,Yes,Hours may be extended during a heat emergency.,OPEN,9a-4p,9a-4p,9a-4p,9a-4p,9a-4p,,,1049441.99985,203521.00016,Senior center,
624,CC178,Queens Village Library,94-11 217 St,Queens,11428,(718) 776-6800,No,No,OPEN,12p-8p,1p-6p,10a-6p,12p-8p,10a-6p,10a-5p,,1056588.0,201639.0,Library,
625,CC500,St Albans Library,191-05 Linden Blvd,Queens,11412,(718) 528-8196,Yes,No,OPEN,12p-8p,1p-6p,10a-6p,12p-8p,10a-6p,10a-5p,,1050774.0,191665.0,Library,
626,CC073,Alpha Phi Alpha NSC,220-01 Linden Blvd,Queens,11411,(718) 528-8238,Yes,Hours may be extended during a heat emergency.,OPEN,9a-5p,9a-5p,9a-5p,9a-5p,9a-5p,,,1056419.00001,192698.000152,Senior center,
627,CC074,South Ozone Park Library,128-16 Rockaway Blvd,Queens,11420,(718) 529-1660,Yes,No,OPEN,12p-8p,1p-6p,10a-6p,12p-8p,10a-6p,10a-5p,,1037152.0,185170.0,Library,
628,CC395,Brooks Memorial NSC,143-22 109 Ave ,Queens,11435,(718) 291-3935,No,No,OPEN,9a-4p,9a-4p,9a-4p,9a-4p,9a-4p,,,1038842.00006,190158.999981,Senior center,Center located on lower level
629,CC502,Rockaway Blvd NSC,123-10 143 St,Queens,11436,(718) 657-6752,Yes,No,OPEN,8a-4p,8a-4p,8a-4p,8a-4p,8a-4p,,,1040812.97052,184981.250494,Senior center,Must be buzzed in the front door
630,CC798,P.S. 223 Lyndon B. Johnson,125-20 SUTPHIN BOULEVARD,Queens,11434,,No,Hours may be extended during a heat emergency.,OPEN,8a-6p,8a-6p,8a-6p,8a-6p,8a-6p,,,1042401.0,185160.0,School,
631,CC071,Baisley Park Library,117-11 Sutphin Blvd,Queens,11436,(718) 529-1590,No,No,OPEN,12p-8p,1p-6p,10a-6p,12p-8p,10a-6p,10a-5p,,1042022.0,187210.0,Library,
632,CC840,PS 80  The Thurgood Marshall Magnet School of Multimedia and Communication,171-05 137TH AVENUE,Queens,11434,,No,Hours may be extended during a heat emergency.,OPEN,8a-6p,8a-6p,8a-6p,8a-6p,8a-6p,,,1048291.0,184735.0,School,
633,CC498,Rochdale Village Library,169-09 137 Av,Queens,11434,(718) 723-4440,Yes,No,OPEN,9a-8p,1p-6p,10a-6p,12p-8p,10a-6p,10a-5p,,1047880.97116,184515.611514,Library,
634,CC823,P.S. 015 Jackie Robinson,121-15 LUCAS STREET,Queens,11413,,No,Hours may be extended during a heat emergency.,OPEN,8a-6p,8a-6p,8a-6p,8a-6p,8a-6p,,,1051771.0,189313.0,School,
635,CC397,Snap Brookville NSC,133-33 Brookville Blvd ,Queens,11422,(718) 525-8899,Yes,No,OPEN,8a-4p,8a-4p,8a-4p,8a-4p,8a-4p,,,1058662.00011,185127.999873,Senior center,Program lower level
636,CC179,Robert Couche NSC,137-57 Farmers Blvd,Queens,11434,(718) 978-8352,Yes,No,OPEN,8a-4p,8a-4p,8a-4p,8a-4p,8a-4p,,,1049747.18264,184406.845803,Senior center,
637,CC175,Laurelton Library,134-26 225 St,Queens,11413,(718) 528-2822,Yes,No,OPEN,12p-8p,1p-6p,10a-6p,12p-8p,10a-6p,10a-5p,,1054808.0,185984.0,Library,
638,CC177,Rosedale Library,144-20 243 St,Queens,11422,(718) 990-8605,No,No,OPEN,12p-8p,1p-6p,10a-6p,12p-8p,10a-6p,10a-5p,,1056393.0,179832.0,Library,
639,CC860,P.S. 195 William Haberle,253-50 149 AVENUE,Queens,11422,,No,Hours may be extended during a heat emergency.,OPEN,8a-6p,8a-6p,8a-6p,8a-6p,8a-6p,,,1057612.0,177161.0,School,
640,CC184,Howard Beach Library,92-06 156 Av,Queens,11414,(718) 641-7086,Yes,No,OPEN,12p-8p,1p-6p,10a-6p,12p-8p,10a-6p,10a-5p,,1028140.0,181157.0,Library,
642,CC390,Broad Channel Library,16-26 Crossbay Blvd,Queens,11693,(718) 318-4943,No,No,OPEN,12p-8p,1p-6p,10a-6p,12p-8p,10a-6p,10a-5p,,1034218.89343,158185.575223,Library,
643,CC696,P.S. 253,1307 Central Av,Queens,11691,,No,Hours may be extended during a heat emergency.,OPEN,8a-6p,8a-6p,8a-6p,8a-6p,8a-6p,,,1053992.80834,160677.632763,School,
644,CC224,Sorrentino Recreation Center,18-48 Cornaga Av,Queens,11691,(718) 471-4818,Yes,No,OPEN,9a-10p,9a-10p,9a-10p,9a-10p,9a-10p,9a-5p,,1053286.86248,158854.706807,Community center,
645,CC225,JASA Roy Reuther NSC,7-11C Seagirt Avenue,Queens,11691,(718) 471-3110,Yes,Hours may be extended during a heat emergency.,OPEN,9a-4p,9a-4p,9a-4p,9a-4p,9a-4p,,,1055922.00002,156276.000162,Senior center,Apt 2N
646,CC229,Young Israel Wavecrest Bayswater Sr League NSC,2716 Healy Av,Queens,11691,(718) 327-0297,Yes,No,OPEN,9a-4p,9a-4p,9a-4p,9a-4p,9a-4p,,,1049272.99986,159631.000014,Senior center,
647,CC896,Wave Preparatory Elementary School,535 BRIAR PLACE,Queens,11691,,No,Hours may be extended during a heat emergency.,OPEN,8a-6p,8a-6p,8a-6p,8a-6p,8a-6p,,,1051277.0,157810.0,School,
648,CC226,JASA Brookdale NSC,131 Beach 19 St,Queens,11691,(718) 471-6677,Yes,No,OPEN,8:30a-4:30p,8:30a-4:30p,8:30a-4:30p,8:30a-4:30p,8:30a-4:30p,,,1052587.00012,155497.00008,Senior center,
649,CC223,Arverne Library,312 Beach 54 St,Queens,11692,(718) 990-5157,Yes,No,OPEN,12p-8p,1p-6p,10a-6p,12p-8p,10a-6p,10a-5p,,1044218.0,155422.0,Library,
650,CC640,Beach 41st Community Center,426 Beach 40th Street,Queens,11691,(347) 246-9759,Yes,Hours may be extended during a heat emergency.,OPEN,10a-6p,10a-6p,10a-6p,10a-6p,10a-6p,10a-5p,,1047640.93357,156696.756866,Cornerstone Program,
651,CC850,P.S. 105 The Bay School,420 BEACH 51 STREET,Queens,11691,,No,Hours may be extended during a heat emergency.,OPEN,8a-6p,8a-6p,8a-6p,8a-6p,8a-6p,,,1044928.0,154837.0,School,
652,CC227,CCNS Seaside NSC,320 Beach 94 St,Queens,11693,(347) 926-4119,Yes,No,OPEN,8a-4p,8a-4p,8a-4p,8a-4p,8a-4p,,,1035089.67948,153343.469282,Senior center,
653,CC548,Peninsula Library,92-25 Rockaway Beach Blvd,Queens,11693,(718) 634-1110,Yes,No,OPEN,9a-8p,1p-6p,10a-6p,12p-8p,10a-6p,10a-5p,,1035340.59466,152766.761446,Library,
654,CC228,JASA Rockaway Park NSC,106-20 Shore Front Pkwy,Queens,11694,(718) 634-3044,Yes,No,OPEN,8a-4p,8a-4p,8a-4p,8a-4p,8a-4p,,,1032271.71497,151135.1361,Senior center,
655,CC550,Seaside Library,116-15 Rockaway Beach Boulevard,Queens,11694,(718) 634-1876,Yes,No,OPEN,12p-8p,1p-6p,10a-6p,12p-8p,10a-6p,10a-5p,,1029324.64278,150404.929555,Library,
656,CC514,Court Square Library,25-01 Jackson Av,Queens,11101,(718) 937-2790,Yes,No,OPEN,11a-7p,1p-6p,10a-6p,12p-7p,10a-6p,10a-5p,,999855.479167,211417.666667,Library,
657,CC287,Maspeth Library,69-70 Grand Av,Queens,11378,(718) 639-5228,Yes,No,OPEN,12p-8p,1p-6p,10a-6p,12p-8p,10a-6p,10a-5p,,1013876.76826,204165.962087,Library,
658,CC385,Middle Village Library,72-31 Metropolitan Av,Queens,11379,(718) 326-1390,Yes,No,OPEN,12p-8p,1p-6p,10a-6p,12p-8p,10a-6p,10a-5p,,1017277.0,199039.0,Library,
659,CC165,KCS Corona  NSC,37-06 111 St  ,Queens,11368,(718) 651-9220,Yes,Hours may be extended during a heat emergency.,OPEN,9a-5p,9a-5p,9a-5p,9a-5p,9a-5p,,,1023829.34504,213866.002436,Senior center,Basement
660,CC629,Ravenswood Community Center,35-40 21st Street,Queens,11106,(718) 752-9314,Yes,Hours may be extended during a heat emergency.,OPEN,6p-10p,6p-10p,6p-10p,6p-10p,6p-10p,10a-5p,,1001857.58518,216402.04428,Cornerstone Program,
661,CC630,Astoria Community Center,4-05 Astoria Blvd,Queens,11102,(347) 813-4452,Yes,Hours may be extended during a heat emergency.,OPEN,10a-6p,10a-6p,10a-6p,10a-6p,10a-6p,10a-5p,,1002607.14634,221035.619986,Cornerstone Program,
662,CC213,HANAC Ravenswood NSC,34-35A 12 St ,Queens,11106,(718) 786-1550,Yes,No,OPEN,8a-4p,8a-4p,8a-4p,8a-4p,8a-4p,,,1001760.6418,217251.274865,Senior center,Entrance in the rear of the building
663,CC212,Woodside NSC,50-37 Newtown Rd,Queens,11377,(718) 932-6916,Yes,No,OPEN,8a-4p,8a-4p,8a-4p,8a-4p,8a-4p,,,1009009.77133,214008.686206,Senior center,
664,CC012,Woodside,50-19 Broadway,Queens,11377,(718) 784-6173,Yes,Hours may be extended during a heat emergency.,OPEN,6p-10p,6p-10p,6p-10p,6p-10p,6p-10p,10a-5p,,1009099.95139,214472.327592,Cornerstone Program,
665,CC293,Raices Corona NSC,107-24 Corona Av,Queens,11368,(718) 458-7259,Yes,Hours may be extended during a heat emergency.,OPEN,8a-4p,8a-4p,8a-4p,8a-4p,8a-4p,,,1024266.41471,210064.971324,Senior center,
666,CC495,"Queens Community House, Forest Hills Senior Center, NSC",108-25 62 Dr,Queens,11375,(718) 699-1010,Yes,No,OPEN,9a-4p,9a-4p,9a-4p,9a-4p,9a-4p,,,1025785.4891,207568.468115,Senior center,
667,CC211,Queensbridge-Riis NSC,10-25 41St Avenue ,Queens,11101,(718) 784-7447,Yes,Hours may be extended during a heat emergency.,OPEN,8a-4p,8a-4p,8a-4p,8a-4p,8a-4p,,,999614.515191,214556.05847,Senior center,Both front and back entrances
668,CC631,South Jamaica II Community Center,109-04 160th St.,Queens,11433,(718) 297-7237,Yes,Hours may be extended during a heat emergency.,OPEN,10a-6p,10a-6p,10a-6p,10a-6p,10a-6p,10a-5p,,1041899.10451,192075.64641,Cornerstone Program,
669,CC298,Allen Community NSC,166-01 Linden Blvd,Queens,11434,(718) 658-0980,Yes,Hours may be extended during a heat emergency.,OPEN,8a-4p,8a-4p,8a-4p,8a-4p,8a-4p,,,1044425.77432,190870.111092,Senior center,
670,CC031,Hammel,81-14 Rockaway Beach Blvd,Queens,11693,(718) 521-4016,Yes,Hours may be extended during a heat emergency.,OPEN,6p-10p,6p-10p,6p-10p,6p-10p,6p-10p,10a-5p,,1037486.14085,153685.490047,Cornerstone Program,
671,CC072,Rochdale NSC,169-65 137 Av,Queens,11434,(718) 525-2800,Yes,Hours may be extended during a heat emergency.,OPEN,9a-5p,9a-5p,9a-5p,9a-5p,9a-5p,,,1047732.19684,185197.829785,Senior center,
672,CC639,Ocean Bay Community Center,57-10 Beach Channel Drive,Queens,11692,(718) 577-5260,Yes,Hours may be extended during a heat emergency.,OPEN,6p-10p,6p-10p,6p-10p,6p-10p,6p-10p,10a-5p,,1043270.85143,156162.622108,Cornerstone Program,
673,CC513,Sunnyside Community NSC,43-31 39 St,Queens,11104,(718) 784-6173,Yes,Hours may be extended during a heat emergency.,OPEN,8:30a-4:30p,8:30a-4:30p,8:30a-4:30p,8:30a-4:30p,8:30a-4:30p,,,1004859.10936,210743.853496,Senior center,
674,CC062,East Elmhurst Library,95-06 Astoria Blvd,Queens,11369,(718) 424-2619,Yes,No,OPEN,12p-8p,1p-6p,10a-6p,12p-8p,10a-6p,10a-5p,,1019189.0,217071.0,Library,
675,CC720,P.S. 212 - Queens,34-25 82 St,Queens,11372,,No,Hours may be extended during a heat emergency.,OPEN,8a-6p,8a-6p,8a-6p,8a-6p,8a-6p,9a-5p,9a-5p,1016214.50889,213683.91553,School,
676,CC381,Queens Temple Corps Comm Center,86-07 35 Av,Queens,11372,(914) 552-8973,Yes,Hours may be extended during a heat emergency.,OPEN,,9a-5p,9a-5p,9a-5p,9a-5p,,,1017343.0,213436.0,Community center,
677,CC164,CCNS Catherine Sheridan NSC,35-24 83 St,Queens,11372,(718) 458-4600,Yes,Hours may be extended during a heat emergency.,OPEN,8:30a-4:30p,8:30a-4:30p,8:30a-4:30p,8:30a-4:30p,8:30a-4:30p,,,1016405.90188,213086.293037,Senior center,
678,CC063,Langston Hughes Library,100-01 Northern Blvd,Queens,11368,(718) 651-1100,Yes,No,OPEN,9a-8p,1p-6p,10a-6p,12p-8p,10a-6p,10a-5p,,1020765.13356,215352.668,Library,
679,CC898,P.S. 013 Clement C. Moore,55-01 94 STREET,Queens,11373,,No,Hours may be extended during a heat emergency.,OPEN,8a-6p,8a-6p,8a-6p,8a-6p,8a-6p,,,1020901.0,207952.0,School,
680,CC169,Pomonok Library,158-21 Jewel Av,Queens,11365,(718) 591-4343,No,No,OPEN,12p-8p,1p-6p,10a-6p,12p-8p,10a-6p,10a-5p,,1036943.26965,206201.564643,Library,
681,CC197,KCS Flushing NSC,42-15 166 St ,Queens,11358,(718) 886-8203,Yes,No,OPEN,8:30a-5p,8:30a-5p,8:30a-5p,8:30a-5p,8:30a-5p,,,1039626.00013,215868.000072,Senior center,Basement
682,CC296,Glen Oaks Library,256-04 Union Turnpike,Queens,11004,(718) 831-8636,Yes,No,OPEN,12p-8p,1p-6p,10a-6p,12p-8p,10a-6p,10a-5p,,1063131.2547,211013.246199,Library,
683,CC174,South Hollis Library,204-01 Hollis Av,Queens,11412,(718) 465-6779,Yes,No,OPEN,12p-8p,1p-6p,10a-6p,12p-8p,10a-6p,10a-5p,,1052508.0,196953.0,Library,
684,CC191,Howard Beach NSC,155-55 Cross Bay Blvd,Queens,11414,(718) 738-8100,Yes,Hours may be extended during a heat emergency.,OPEN,9a-4p,9a-4p,9a-4p,9a-4p,9a-4p,,,1028591.99989,181589.000061,Senior center,Entrance on 156th Avenue
685,CC875,I.S. 145 Joseph Pulitzer,33-34 80 STREET,Queens,11372,,No,Hours may be extended during a heat emergency.,OPEN,8a-6p,8a-6p,8a-6p,8a-6p,8a-6p,,,1015411.0,214141.0,School,
686,CC302,Selfhelp Latimer NSC,34-30 137 St,Queens,11355,(718) 961-3660,Yes,No,OPEN,8:30a-4p,8:30a-4p,8:30a-4p,8:30a-4p,8:30a-3p,,,1031237.06481,218357.08827,Senior center,"Enter through parking Lot, #30"
687,CC634,Latimer Gardens Community Center,34-30 137th St.,Queens,11354,(718) 353-0385,Yes,Hours may be extended during a heat emergency.,OPEN,6p-10p,6p-10p,6p-10p,6p-10p,6p-10p,10a-5p,,1031234.50346,218376.721761,Cornerstone Program,
688,CC423,Bland Senior Center,40-15 College Pt Blvd ,Queens,11354,(718) 321-0463,Yes,Hours may be extended during a heat emergency.,OPEN,9a-5p,9a-5p,9a-5p,9a-5p,9a-5p,,,1030304.87835,215468.742012,Community center,
689,CC172,Fresh Meadows Library,193-20 Horace Harding Exwy,Queens,11365,(718) 454-7272,Yes,No,OPEN,9a-8p,1p-6p,10a-6p,12p-8p,10a-6p,10a-5p,,1044608.0,209515.0,Library,
690,CC843,P.S. 095 Eastwood,179-01 90 AVENUE,Queens,11432,,No,Hours may be extended during a heat emergency.,OPEN,8a-6p,8a-6p,8a-6p,8a-6p,8a-6p,,,1044324.0,198462.0,School,
691,CC638,Redfern Community Center,1544 Hassock St.,Queens,11691,(718) 471-2061,Yes,Hours may be extended during a heat emergency.,OPEN,10a-6p,10a-6p,10a-6p,10a-6p,10a-6p,10a-5p,,1052854.23253,161388.103783,Cornerstone Program,
692,CC068,Pomonok NSC,67-09 Kissena Blvd,Queens,11367,(718) 591-3377,Yes,No,OPEN,8a-4p,8a-4p,8a-4p,8a-4p,8a-4p,,,1035693.51062,207076.101317,Senior center,
693,CC182,Friendship NSC,92-33 170 St,Queens,11433,(718) 657-6576,Yes,No,OPEN,8a-4p,8a-4p,8a-4p,8a-4p,8a-4p,,,1042784.93771,196609.153747,Senior center,Entrance back of Buildiing
694,CC515,Long Island City Library,37-44 21 St,Queens,11101,(718) 752-3700,Yes,No,OPEN,9a-8p,1p-6p,10a-6p,12p-8p,10a-6p,10a-5p,,1001084.75757,215362.667374,Library,
695,CC698,Long Island City HS (New)-Q,14-30 Broadway,Queens,11106,,No,Hours may be extended during a heat emergency.,OPEN,8a-6p,8a-6p,8a-6p,8a-6p,8a-6p,9a-5p,9a-5p,1002780.33005,218184.350098,School,
696,CC391,Mitchell-Linden Library,31-32 Union St,Queens,11354,(718) 539-2330,Yes,No,OPEN,12p-8p,1p-6p,10a-6p,12p-8p,10a-6p,10a-5p,,1032177.12198,219540.967464,Library,
697,CC176,Cambria Heights Library,218-13 Linden Blvd,Queens,11411,(718) 528-3535,Yes,No,OPEN,9a-8p,1p-6p,10a-6p,12p-8p,10a-6p,10a-5p,,1056023.928,192848.144026,Library,
698,CC396,Snap ISC,80-45 Winchester Blvd,Queens,11427,(718) 454-2100,Yes,Hours may be extended during a heat emergency.,OPEN,8:30a-4p,8:30a-4p,8:30a-4p,8:30a-4p,8:30a-4p,10a-1p,,1059356.07353,207925.81681,Senior center,"Building 4, CBU 29"
699,CC214,HANAC Harmony JVL ISC,27-40 Hoyt Av South,Queens,11102,(718) 626-3035,Yes,No,OPEN,8:30a-3:30p,8:30a-3:30p,8:30a-3:30p,8:30a-3:30p,8:30a-3:30p,9:30a-1p,,1006618.44672,220245.270517,Senior center,Entrance at 29th St
700,CC593,Far Rockaway Library,1003 Beach 20 St,Queens,11691,(718) 327-2549,Yes,No,OPEN,9a-8p,1p-6p,10a-6p,12p-8p,10a-6p,10a-5p,,1052683.2834,158878.399485,Library,
701,CC553,Elmhurst Library,86-07 Broadway,Queens,11373,(718) 271-1020,Yes,No,OPEN,9a-8p,1p-6p,10a-6p,12p-8p,10a-6p,10a-5p,,1018392.09577,208385.337921,Library,
702,CC834,P.S. 009,153-27 88TH AVENUE,Queens,11432,,No,Hours may be extended during a heat emergency.,OPEN,8a-6p,8a-6p,8a-6p,8a-6p,8a-6p,,,1038789.0,196887.0,School,
703,CC237,St George Center Library,5 Central Av,Staten Island,10301,(718) 442-8560,Yes,No,OPEN,10a-7p,10a-7p,10a-7p,10a-7p,10a-5p,10a-5p,,962981.004092,173051.052765,Library,
704,CC429,Cassidy Coles NSC,125 Cassidy Pl,Staten Island,10301,(718) 273-6808,Yes,Hours may be extended during a heat emergency.,OPEN,8a-4p,8a-4p,8a-4p,8a-4p,8a-4p,,,957497.397325,173277.456316,Senior center,
705,CC304,West New Brighton Library,976 Castleton Av,Staten Island,10310,(718) 442-1416,Yes,No,OPEN,11a-6p,11a-6p,11a-6p,11a-6p,10a-5p,10a-5p,,952379.276224,170479.90785,Library,
706,CC443,Stapleton Corps Comm Center,15 Broad St,Staten Island,10304,(718) 448-8480,No,Hours may be extended during a heat emergency.,OPEN,,9a-2p,9a-2p,9a-2p,9a-2p,,,963243.0,167268.0,Community center,
707,CC202,Stapleton,132 Canal St,Staten Island,10304,(718) 727-0427,Yes,No,OPEN,11a-7p,11a-7p,11a-7p,11a-7p,10a-5p,10a-5p,,962641.393575,167447.096724,Library,
708,CC410,Dongan Hills Library,1617 Richmond Rd,Staten Island,10304,(718) 351-1444,Yes,No,OPEN,11a-6p,11a-6p,11a-6p,11a-6p,10a-5p,10a-5p,,956164.0,154377.0,Library,
709,CC079,Port Richmond ,75 Bennett St,Staten Island,10302,(718) 442-0158,Yes,No,OPEN,11a-6p,11a-6p,11a-6p,11a-6p,10a-5p,10a-5p,,947862.054336,171590.407597,Library,
710,CC200,Anderson NSC,120 Anderson Av ,Staten Island,10302,(718) 448-5757,Yes,Hours may be extended during a heat emergency.,OPEN,7a-3p,7a-3p,7a-3p,7a-3p,7a-3p,,,946913.999857,170547.000163,Senior center,Program located in the basement
711,CC080,Port Richmond Corps Comm Center,1295 Forest Av,Staten Island,10302,(646) 260-6366,No,Hours may be extended during a heat emergency.,OPEN,,9a-3p,9a-3p,9a-3p,9a-3p,,,947307.361683,167568.485978,Community center,
712,CC897,P.S. 060 Alice Austen,55 MERRILL AVENUE,Staten Island,10314,,No,Hours may be extended during a heat emergency.,OPEN,8a-6p,8a-6p,8a-6p,8a-6p,8a-6p,,,939097.0,161778.0,School,
713,CC579,Elizabeth A. Connelly Campus,280 Regis Drive,Staten Island,10314,,No,Hours may be extended during a heat emergency.,OPEN,8a-6p,8a-6p,8a-6p,8a-6p,8a-6p,,,938570.818709,165345.148034,School,
714,CC507,Todt Hill-Westerleigh Library,2550 Victory Blvd,Staten Island,10314,(718) 494-1642,Yes,No,OPEN,10a-7p,10a-7p,10a-7p,10a-7p,10a-5p,10a-5p,1p-5p,943056.205024,161401.528979,Library,
715,CC203,New Lane Neighborhood NSC,70 New Ln,Staten Island,10305,(718) 448-5936,Yes,No,OPEN,8a-4p,8a-4p,8a-4p,8a-4p,8a-4p,,,967116.443376,162666.530688,Senior center,
716,CC802,P.S. 057 Hubert H. Humphrey,140 PALMA DRIVE,Staten Island,10304,,No,Hours may be extended during a heat emergency.,OPEN,8a-6p,8a-6p,8a-6p,8a-6p,8a-6p,,,960986.0,161949.0,School,
717,CC409,New Dorp Library,309 New Dorp La,Staten Island,10306,(718) 351-2977,Yes,No,OPEN,10a-7p,10a-7p,10a-7p,10a-7p,10a-5p,10a-5p,,953141.0,147658.0,Library,
718,CC801,P.S. 052 John C. Thompson,450 BUEL AVENUE,Staten Island,10305,,No,Hours may be extended during a heat emergency.,OPEN,8a-6p,8a-6p,8a-6p,8a-6p,8a-6p,,,959525.0,151528.0,School,
719,CC864,P.S. 023 Richmondtown,30 NATICK STREET,Staten Island,10306,,No,Hours may be extended during a heat emergency.,OPEN,8a-6p,8a-6p,8a-6p,8a-6p,8a-6p,,,947238.0,147249.0,School,
720,CC306,Richmondtown Library,200 Clarke Av,Staten Island,10306,(718) 668-0413,Yes,No,OPEN,10a-6p,10a-6p,10a-6p,10a-6p,10a-5p,10a-5p,,945751.063141,145714.769744,Library,
721,CC506,Great Kills Friendship Club NSC,11 Sampson Av,Staten Island,10308,(718) 356-5050,Yes,Hours may be extended during a heat emergency.,OPEN,8a-4p,8a-4p,8a-4p,8a-4p,8a-4p,,,942678.334444,140619.404179,Senior center,
722,CC305,Great Kills Library,56 Giffords La,Staten Island,10308,(718) 984-6670,Yes,No,OPEN,11a-6p,11a-6p,11a-6p,11a-6p,10a-5p,10a-5p,,942270.222262,140577.739057,Library,
723,CC508,JCC South Shore NSC,1297 Arthur Kill Rd,Staten Island,10312,(718) 475-5283,Yes,Hours may be extended during a heat emergency.,OPEN,8a-8:30p,8a-8:30p,8a-8:30p,8a-8:30p,8a-6p,,,933241.171232,145438.951626,Senior center,
724,CC800,P.S. 004 Maurice Wollin,200 NEDRA LANE,Staten Island,10312,,No,Hours may be extended during a heat emergency.,OPEN,8a-6p,8a-6p,8a-6p,8a-6p,8a-6p,,,929985.0,140464.0,School,
725,CC205,Huguenot Park Library,830 Huguenot Av,Staten Island,10312,(718) 984-4636,Yes,No,OPEN,10a-6p,10a-6p,10a-7p,11a-8p,10a-5p,10a-5p,,930527.0,133910.0,Library,
726,CC430,Tottenville Library,7430 Amboy Rd,Staten Island,10307,(718) 984-0945,Yes,No,OPEN,11a-6p,11a-6p,11a-6p,11a-6p,10a-5p,10a-5p,,916371.111067,124998.000091,Library,
727,CC081,West Brighton,230 Broadway,Staten Island,10310,(718) 682-1681,Yes,Hours may be extended during a heat emergency.,OPEN,10a-6p,10a-6p,10a-6p,10a-6p,10a-6p,10a-5p,,951560.270833,170987.729167,Cornerstone Program,
728,CC082,West Brighton NSC,230 Broadway,Staten Island,10310,(718) 727-9763,Yes,No,OPEN,8a-4p,8a-4p,8a-4p,8a-4p,8a-4p,,,951564.454467,170952.195875,Senior center,
729,CC805,Curtis High School,105 HAMILTON AVENUE,Staten Island,10301,,No,Hours may be extended during a heat emergency.,OPEN,8a-6p,8a-6p,8a-6p,8a-6p,8a-6p,,,961433.0,174427.0,School,
730,CC917,I.S. 051 Edwin Markham,80 WILLOWBROOK ROAD,Staten Island,10302,,No,Hours may be extended during a heat emergency.,OPEN,8a-6p,8a-6p,8a-6p,8a-6p,8a-6p,,,943849.0,166384.0,School,
731,CC848,P.S. 022 Graniteville,1860 FOREST AVENUE,Staten Island,10303,,No,Hours may be extended during a heat emergency.,OPEN,8a-6p,8a-6p,8a-6p,8a-6p,8a-6p,,,942436.0,166952.0,School,
732,CC446,Richmond Terrace,71 Jersey St,Staten Island,10301,(718) 981-7942,Yes,Hours may be extended during a heat emergency.,OPEN,10a-6p,10a-6p,10a-6p,10a-6p,10a-6p,10a-5p,,959880.793395,174536.676728,Cornerstone Program,
733,CC447,Stapleton Neighborhood NSC,189 Gordon St,Staten Island,10304,(718) 981-8828,No,No,OPEN,8a-4p,8a-4p,8a-4p,8a-4p,8a-4p,,,961427.251998,166268.682932,Senior center,
734,CC543,Todt Hill Neighborhood Senior Center,184 Schmidts Ln,Staten Island,10314,(718) 698-7979,Yes,No,OPEN,8a-4p,8a-4p,8a-4p,8a-4p,8a-4p,,,951027.0,160682.0,Senior center,
735,CC444,Todt Hill,255 Westwood Av,Staten Island,10314,(718) 513-8117,Yes,Hours may be extended during a heat emergency.,OPEN,10a-6p,10a-6p,10a-6p,10a-6p,10a-6p,10a-5p,,951225.975462,160360.063571,Cornerstone Program,
736,CC009,Mariner's Harbor,157 Brabant St,Staten Island,10303,(718) 698-0800,Yes,Hours may be extended during a heat emergency.,OPEN,10a-6p,10a-6p,10a-6p,10a-6p,10a-6p,10a-5p,,938902.0,169768.0,Cornerstone Program,
737,CC201,Mariners Harbor Library,206 South Av,Staten Island,10303,(212) 621-0690,Yes,No,OPEN,11a-7p,11a-7p,11a-7p,11a-7p,10a-5p,10a-5p,,938038.415752,170529.686655,Library,
738,CC204,South Beach,155 Norway Av,Staten Island,10305,(718) 815-0689,Yes,Hours may be extended during a heat emergency.,OPEN,10a-6p,10a-6p,10a-6p,10a-6p,10a-6p,10a-5p,,962266.269903,156003.468063,Cornerstone Program,
739,CC445,Berry,211 Jefferson St,Staten Island,10306,(718) 682-1731,Yes,Hours may be extended during a heat emergency.,OPEN,10a-6p,10a-6p,10a-6p,10a-6p,10a-6p,10a-5p,,956133.445307,153098.3375,Cornerstone Program,
740,CC743,P.S. 80 (Petr Compl-Bldg B) - S.I.,715 Ocean Ter,Staten Island,10301,,No,Hours may be extended during a heat emergency.,OPEN,8a-6p,8a-6p,8a-6p,8a-6p,8a-6p,9a-5p,9a-5p,955277.62519,161167.314526,School,
741,CC238,South Beach Library,21-15 Robin Rd,Staten Island,10305,(718) 816-5834,Yes,No,OPEN,11a-7p,11a-7p,11a-7p,11a-7p,10a-5p,10a-5p,,966760.521617,156349.51797,Library,
742,CC448,Arrochar NSC,44 Bionia Av,Staten Island,10305,(718) 720-6110,Yes,Hours may be extended during a heat emergency.,OPEN,8a-4p,8a-4p,8a-4p,8a-4p,8a-4p,,,963233.000027,156532.999976,Senior center,Entrance on Bionia Av
743,CC049,JCC of Staten Island ISC,1466 Manor Rd,Staten Island,10314,(718) 517-7445,Yes,Hours may be extended during a heat emergency.,OPEN,9a-4p,9a-4p,9a-4p,9a-4p,9a-4p,,,949128.062358,156010.521034,Senior center,
744,CC635,Gerard Carter/Stapleton Community Center,230 Broad Street,Staten Island,10304,(718) 981-0500,Yes,Hours may be extended during a heat emergency.,OPEN,10a-6p,10a-6p,10a-6p,10a-6p,10a-6p,10a-5p,,961686.0,166056.0,Cornerstone Program,
745,CC206,Mount Loretto NSC,6581 Hylan Blvd,Staten Island,10309,(718) 984-8589,Yes,Hours may be extended during a heat emergency.,OPEN,8a-4p,8a-4p,8a-4p,8a-4p,8a-4p,,,922476.009691,125021.040362,Senior center,Building #6
746,CC558,Ocean Breeze Athletic Complex,625 Father Capodanno Blvd,Staten Island,10305,(718) 351-7923,Yes,No,OPEN,5:30a-8:30p,5:30a-8:30p,5:30a-8:30p,5:30a-8:30p,5:30a-8:30p,7a-2p,7a-2p,963365.346219,151716.255673,Community center,